<?xml version="1.0" encoding="UTF-8"?>
<kml xmlns="http://www.opengis.net/kml/2.2" xmlns:gx="http://www.google.com/kml/ext/2.2">
    <Document id="1">
        <Style id="22">
            <IconStyle id="23">
                <colorMode>normal</colorMode>
                <scale>1</scale>
                <heading>0</heading>
                <Icon id="24">
                    <href>red-pin-down.png</href>
                </Icon>
            </IconStyle>
        </Style>
        <Style id="27">
            <IconStyle id="28">
                <colorMode>normal</colorMode>
                <scale>1</scale>
                <heading>0</heading>
                <Icon id="29">
                    <href>red-pin-down.png</href>
                </Icon>
            </IconStyle>
        </Style>
        <Placemark id="3">
            <Style id="6">
                <LineStyle id="7">
                    <color>ff0062FF</color>
                    <colorMode>normal</colorMode>
                    <width>1</width>
                </LineStyle>
            </Style>
            <Style id="10">
                <LineStyle id="11">
                    <color>ff0062FF</color>
                    <colorMode>normal</colorMode>
                    <width>1</width>
                </LineStyle>
            </Style>
            <Style id="14">
                <LineStyle id="15">
                    <color>ff0062FF</color>
                    <colorMode>normal</colorMode>
                    <width>1</width>
                </LineStyle>
            </Style>
            <Style id="18">
                <LineStyle id="19">
                    <color>ff0062FF</color>
                    <colorMode>normal</colorMode>
                    <width>1</width>
                </LineStyle>
            </Style>
            <name>Cachoeira comprida até São Pedro</name>
            <description/>
            <MultiGeometry id="2">
                <LineString id="4">
                    <extrude>0</extrude>
                    <altitudeMode>clampToGround</altitudeMode>
                    <coordinates>-70.011466,0.262964,99.9 -70.011408,0.262816,142.6 -70.01142,0.26283,142.7 -70.011399,0.262828,141.0 -70.011373,0.262909,138.0 -70.011412,0.262893,143.7 -70.011428,0.262854,144.0 -70.011321,0.26295,144.0 -70.01128,0.262909,140.0 -70.011302,0.262933,140.0 -70.011271,0.262996,144.0 -70.011224,0.263007,145.5 -70.011268,0.262987,144.0 -70.011266,0.262943,145.0 -70.011242,0.262925,144.0 -70.011231,0.262856,141.0 -70.011263,0.262885,144.0 -70.011285,0.262931,140.0 -70.011269,0.262971,140.0 -70.011271,0.263009,141.0 -70.011255,0.263036,144.0 -70.01128,0.263076,141.0 -70.011308,0.263095,138.0 -70.011366,0.263077,140.0 -70.011282,0.263125,140.0 -70.011283,0.263156,141.0 -70.011269,0.263121,140.0 -70.011268,0.26308,142.0 -70.011197,0.263194,142.0 -70.011209,0.263231,140.0 -70.01118,0.263255,142.0 -70.01117,0.263205,140.0 -70.011191,0.26316,140.0 -70.0112,0.263112,140.0 -70.011183,0.26315,142.0 -70.011176,0.263202,135.0 -70.011182,0.263258,142.0 -70.011253,0.263264,140.0 -70.011188,0.263271,144.0 -70.011157,0.263285,144.0 -70.011206,0.263237,140.0 -70.011251,0.263222,144.0 -70.011232,0.263264,145.2 -70.011155,0.263279,144.5 -70.011125,0.263268,142.0 -70.011117,0.263315,144.0 -70.01117,0.263336,144.0 -70.01113,0.26345,143.0 -70.011016,0.263398,148.0 -70.010964,0.263355,149.6 -70.011038,0.263327,141.0 -70.011042,0.263365,142.0 -70.011131,0.263412,144.1 -70.011101,0.263397,144.0 -70.011094,0.263345,142.0 -70.011101,0.26334,144.7</coordinates>
                </LineString>
                <LineString id="8">
                    <extrude>0</extrude>
                    <altitudeMode>clampToGround</altitudeMode>
                    <coordinates>-70.011102,0.263341,144.5 -70.011099,0.263324,144.5 -70.011121,0.263329,144.1 -70.011115,0.263339,143.5 -70.011111,0.263298,143.0 -70.011115,0.26332,142.8 -70.011056,0.263287,144.0 -70.011086,0.263276,145.0 -70.011084,0.263308,146.0 -70.011049,0.26337,142.0 -70.011082,0.263347,140.0 -70.011044,0.263392,139.0 -70.010994,0.263516,147.0 -70.010899,0.263542,148.0 -70.010928,0.26353,148.0 -70.010929,0.263476,150.4 -70.010898,0.263444,150.0 -70.010937,0.263528,147.0 -70.010953,0.26361,152.0 -70.01094,0.263733,155.7 -70.010903,0.263675,155.4 -70.010837,0.263658,154.0 -70.010926,0.263537,153.0 -70.010889,0.263573,152.0 -70.010926,0.263537,154.1 -70.010895,0.263494,150.2 -70.010851,0.263574,150.0 -70.010894,0.263576,148.0 -70.010787,0.263638,154.0 -70.010787,0.263675,150.0 -70.010757,0.263712,154.0 -70.010756,0.263651,153.0 -70.010767,0.263624,152.0 -70.010735,0.263636,156.0 -70.010739,0.263674,156.0 -70.010772,0.263717,156.0 -70.010784,0.263667,156.0 -70.010748,0.26364,156.0 -70.010758,0.263589,157.8 -70.010862,0.263554,157.3 -70.010849,0.2636,156.0 -70.010862,0.263631,153.0 -70.010881,0.263571,152.0 -70.01081,0.263662,156.0 -70.010777,0.263661,154.0 -70.010753,0.263616,155.0 -70.010794,0.263616,156.0 -70.010773,0.263667,156.7 -70.010761,0.263624,156.0 -70.010698,0.263662,154.0 -70.010717,0.263718,156.4 -70.010764,0.263673,156.0 -70.010744,0.263707,154.0 -70.010781,0.263688,152.0 -70.01086,0.263573,157.5 -70.010797,0.263558,156.0 -70.010722,0.263591,156.0 -70.010814,0.263672,156.0 -70.010788,0.263642,156.0 -70.010805,0.263688,156.7 -70.010833,0.263689,155.0 -70.010804,0.263747,154.0 -70.010759,0.263704,156.4 -70.010857,0.263687,156.2 -70.010897,0.263661,156.2 -70.010875,0.263631,155.8 -70.010826,0.263643,154.0 -70.010842,0.263571,156.0 -70.010823,0.263536,156.0 -70.010781,0.263561,155.0 -70.010815,0.263608,155.0 -70.0108,0.263662,155.0 -70.010724,0.263626,156.0 -70.010709,0.263678,150.0 -70.010738,0.26362,157.5 -70.010736,0.263524,156.0 -70.010816,0.26354,156.0 -70.010843,0.263587,156.8 -70.010742,0.263601,156.0 -70.010809,0.263598,156.9 -70.010764,0.263713,156.0 -70.010799,0.263717,156.0 -70.01081,0.263638,153.0 -70.010846,0.263676,153.0 -70.010849,0.263636,152.0 -70.010829,0.263606,156.0 -70.010852,0.263576,150.0 -70.010821,0.26359,154.0 -70.01078,0.263586,155.0 -70.01085,0.26359,153.0 -70.01072,0.263564,153.6 -70.010751,0.263584,153.0 -70.010803,0.263582,158.0 -70.010772,0.263584,156.0 -70.01083,0.263648,157.0 -70.010798,0.263626,154.0 -70.010766,0.263627,156.0 -70.01076,0.263688,156.0 -70.010769,0.263738,156.3 -70.010788,0.263703,155.0 -70.010768,0.263663,156.0 -70.01079,0.263614,156.0 -70.010822,0.263605,156.0 -70.010901,0.263635,156.0 -70.010932,0.263626,155.0 -70.010922,0.263596,144.0 -70.010882,0.263626,150.0 -70.01091,0.263593,156.0 -70.010821,0.26366,156.0 -70.010811,0.263694,155.0 -70.010851,0.263684,156.0 -70.010872,0.263597,155.0 -70.010909,0.263603,158.2 -70.010859,0.263657,156.0 -70.01093,0.263661,157.0 -70.010912,0.263686,157.7 -70.010806,0.263664,156.0 -70.01076,0.26363,156.0 -70.010817,0.26363,156.0 -70.010841,0.263651,157.6 -70.010843,0.263617,156.0 -70.010927,0.263627,156.0 -70.010887,0.263638,154.0 -70.010868,0.263588,154.0 -70.010833,0.263596,150.0 -70.010768,0.263641,154.0 -70.010776,0.263692,153.0 -70.010774,0.263661,152.0 -70.010754,0.263701,154.0 -70.010718,0.263693,154.0 -70.010721,0.263644,154.0 -70.010706,0.263631,154.0 -70.01064,0.263669,154.0 -70.01065,0.263729,154.0 -70.010712,0.263687,150.0 -70.010716,0.263723,149.0 -70.010791,0.263683,156.0 -70.010721,0.263744,148.0 -70.010731,0.263711,150.0 -70.010725,0.263769,157.0 -70.010745,0.263845,156.5 -70.01077,0.26381,155.8 -70.01081,0.263783,152.0 -70.010748,0.263751,152.0 -70.010785,0.263681,154.8 -70.010743,0.263619,153.0 -70.010791,0.263625,154.0 -70.010841,0.263601,156.0 -70.010882,0.2636,156.0 -70.010775,0.263568,156.0 -70.010794,0.263524,157.2 -70.010824,0.26357,157.4 -70.010759,0.263574,156.0 -70.010679,0.263553,156.0 -70.010718,0.263528,156.0 -70.010656,0.263452,157.2 -70.010704,0.263498,155.0 -70.010693,0.263462,154.0 -70.010659,0.263477,153.0 -70.010679,0.263507,154.0 -70.010691,0.263577,154.0 -70.010733,0.26363,154.7 -70.010808,0.263636,152.0 -70.010764,0.263642,154.0 -70.010806,0.263688,154.0 -70.010864,0.263725,151.0 -70.010852,0.263698,155.9 -70.010799,0.263683,156.0 -70.010782,0.263748,156.0 -70.010793,0.263681,156.0 -70.010777,0.263722,156.8 -70.010815,0.263722,156.9 -70.010725,0.263722,156.0 -70.010837,0.263724,153.0 -70.010885,0.263689,154.0 -70.010931,0.263681,154.7 -70.010838,0.263672,153.0 -70.010804,0.263678,155.4 -70.010953,0.263584,156.0 -70.010867,0.263641,156.0 -70.010823,0.263631,156.0 -70.01087,0.263625,157.5 -70.010848,0.263585,156.0 -70.010922,0.26361,155.7 -70.010884,0.263631,156.0 -70.010869,0.263603,157.1 -70.010827,0.263618,156.0 -70.010818,0.263689,156.0 -70.010825,0.263643,156.0 -70.010856,0.263575,156.0 -70.010825,0.263554,152.0 -70.010865,0.263554,156.0 -70.010803,0.263571,156.0 -70.010782,0.263553,153.0 -70.01089,0.263629,154.0 -70.010856,0.26364,155.0 -70.010766,0.263596,150.0 -70.010813,0.26358,156.0 -70.010837,0.263549,156.0 -70.010833,0.263486,157.3 -70.010842,0.263552,157.2 -70.010821,0.263577,156.8 -70.010752,0.263585,155.0 -70.010773,0.263568,153.0 -70.010786,0.263613,154.0 -70.010752,0.26364,156.0 -70.010748,0.263678,156.0 -70.010748,0.263599,153.0 -70.010737,0.263659,156.0 -70.010763,0.263644,156.0 -70.010836,0.263548,157.5 -70.010801,0.263573,156.0 -70.010816,0.263621,156.0 -70.010695,0.263524,156.0 -70.010704,0.263475,156.0 -70.010697,0.263536,157.4 -70.010821,0.263521,156.0 -70.010698,0.263504,157.3 -70.010833,0.26365,157.0 -70.01089,0.263696,156.4 -70.010681,0.263692,156.0 -70.010707,0.263719,156.0 -70.010766,0.263716,156.0 -70.010821,0.263733,155.9 -70.010884,0.263731,156.4 -70.010867,0.263705,154.0 -70.01084,0.263746,155.9 -70.010732,0.263755,153.0 -70.010671,0.263772,155.0 -70.010693,0.263771,156.0 -70.010672,0.263789,156.0 -70.010742,0.263758,154.0 -70.010733,0.263826,154.0 -70.01072,0.263798,152.0 -70.010752,0.263768,155.5 -70.010633,0.263693,154.0 -70.010626,0.26378,155.0 -70.010638,0.263818,156.0 -70.010677,0.263776,154.0 -70.010634,0.26384,155.7 -70.010675,0.263811,152.0 -70.010662,0.26376,155.0 -70.010636,0.263744,152.0 -70.010632,0.2637,155.0 -70.010388,0.263892,155.0 -70.010215,0.263967,155.0 -70.010137,0.264052,156.0 -70.009977,0.264034,156.0 -70.010037,0.264076,155.0 -70.010017,0.264103,156.0 -70.009796,0.264262,155.0 -70.009735,0.264318,155.4 -70.009726,0.264355,153.0 -70.009733,0.264291,154.7 -70.009671,0.26433,155.7 -70.009735,0.264372,154.0 -70.009575,0.264322,156.0 -70.0096,0.264274,155.0 -70.009478,0.264497,156.0 -70.009389,0.264556,159.0 -70.009254,0.264836,160.0 -70.009197,0.264817,161.5 -70.009155,0.264867,161.3 -70.009185,0.264894,159.0 -70.009129,0.264898,160.0 -70.009141,0.264964,162.0 -70.009135,0.265024,162.4 -70.009121,0.264971,162.0 -70.009168,0.264956,162.8 -70.009185,0.265065,162.0 -70.00914,0.265078,161.0 -70.009186,0.265067,160.0 -70.008958,0.26516,162.0 -70.008991,0.265187,162.0 -70.009017,0.265194,164.0 -70.008921,0.265181,163.3 -70.00884,0.265219,162.8 -70.008869,0.265176,161.0 -70.008846,0.265196,160.0 -70.008905,0.265184,160.0 -70.008922,0.265137,162.0 -70.008842,0.265067,162.0 -70.008857,0.265052,160.0 -70.008848,0.265095,161.0 -70.008621,0.265272,160.9 -70.008617,0.265321,160.0 -70.008725,0.265183,160.6 -70.008694,0.265169,159.9 -70.008673,0.265202,159.9 -70.00851,0.265377,158.0 -70.008502,0.26535,158.0 -70.00854,0.265373,159.0 -70.008703,0.265313,158.0 -70.008655,0.265329,157.0 -70.008623,0.265359,158.5 -70.008557,0.265238,154.0 -70.008523,0.265274,158.0 -70.008583,0.265291,159.6 -70.008521,0.265297,158.0 -70.008481,0.265315,156.0 -70.008398,0.265387,155.0 -70.008439,0.265283,155.0 -70.008297,0.265328,156.0 -70.008322,0.265144,155.5 -70.008321,0.265295,152.0 -70.008447,0.265459,156.0 -70.008488,0.265485,156.0 -70.008478,0.265546,157.3 -70.008186,0.265379,154.0 -70.008113,0.265414,154.0 -70.00816,0.26541,152.0 -70.008203,0.265382,152.0 -70.008125,0.265401,151.0 -70.008146,0.265372,151.4 -70.008148,0.265339,150.0 -70.008199,0.265281,148.0 -70.008175,0.265304,149.8 -70.008218,0.265301,147.0 -70.008231,0.265365,150.0 -70.008042,0.265428,150.0 -70.008104,0.265362,150.0 -70.00807,0.265429,150.6 -70.008053,0.265396,148.0 -70.008038,0.265424,150.0 -70.008148,0.265481,149.0 -70.008081,0.26545,151.2 -70.008,0.265332,150.0 -70.007938,0.265388,150.1 -70.007983,0.265372,149.8 -70.007973,0.265324,149.0 -70.008057,0.265236,148.0 -70.007804,0.265486,150.0 -70.007858,0.265485,149.9 -70.007985,0.265211,147.0 -70.007901,0.265308,145.0 -70.0079,0.265286,147.0 -70.007935,0.265274,136.0 -70.00793,0.265326,146.0 -70.007936,0.265265,145.0 -70.007963,0.265249,147.0 -70.007877,0.265256,150.0 -70.007903,0.265276,150.0 -70.007907,0.265315,151.0 -70.007882,0.265278,148.0 -70.00792,0.265259,144.0 -70.00799,0.265254,148.0 -70.008018,0.265315,150.0 -70.008024,0.265376,152.0 -70.007986,0.26537,150.0 -70.007922,0.265388,150.0 -70.007898,0.265408,150.0 -70.007885,0.265383,147.0 -70.00791,0.265338,150.0 -70.007907,0.265302,147.0 -70.00788,0.265298,147.0 -70.007729,0.265379,147.0 -70.007716,0.265353,150.0 -70.007722,0.265367,147.0 -70.00773,0.265338,140.0 -70.007767,0.265317,144.0 -70.007723,0.265321,125.0 -70.007695,0.265381,152.0 -70.007747,0.265373,144.0 -70.007707,0.265331,138.0 -70.007796,0.265316,147.0 -70.007834,0.265293,140.0 -70.007705,0.265359,146.0 -70.007694,0.265387,151.0 -70.007632,0.265331,149.0 -70.007576,0.265323,144.0 -70.007687,0.265293,147.0 -70.007678,0.265321,146.0 -70.007685,0.26537,146.0 -70.007665,0.2654,145.0 -70.007606,0.265429,144.0 -70.007567,0.265429,140.0 -70.007447,0.265399,144.0 -70.007476,0.265419,146.0 -70.007503,0.265405,144.0 -70.007533,0.265409,144.0 -70.007533,0.265339,145.0 -70.007496,0.26539,145.0 -70.007505,0.265354,147.0 -70.007474,0.265293,144.0 -70.007449,0.26532,145.0 -70.007498,0.265371,143.0 -70.007439,0.265395,133.0 -70.007375,0.265512,147.0 -70.007361,0.265586,145.0 -70.007332,0.265604,140.0 -70.007328,0.265642,148.0 -70.007297,0.265665,151.0 -70.007248,0.265638,152.0 -70.007208,0.265646,150.0 -70.007164,0.26569,153.0 -70.007173,0.265646,152.0 -70.007148,0.265721,156.0 -70.007178,0.265718,156.0 -70.007189,0.265684,156.0 -70.007204,0.265697,152.0 -70.007185,0.265732,150.0 -70.007054,0.265737,150.0 -70.006974,0.265704,152.0 -70.006923,0.265698,154.0 -70.00689,0.265678,154.9 -70.006818,0.265681,150.0 -70.006733,0.265725,150.0 -70.006601,0.26569,148.0 -70.006633,0.265724,148.0 -70.006594,0.265752,146.0 -70.006551,0.265751,144.0 -70.006406,0.2658,140.0 -70.006285,0.265798,151.0 -70.006254,0.265817,147.0 -70.006154,0.265788,144.0 -70.006135,0.265756,144.0 -70.006165,0.26578,144.0 -70.006113,0.265797,140.0 -70.006066,0.265788,145.0 -70.005983,0.265736,144.0 -70.00598,0.265776,144.0 -70.005928,0.265788,143.0 -70.005939,0.265804,144.0 -70.005926,0.265839,140.0 -70.005892,0.265819,140.0 -70.005901,0.26578,146.0 -70.005875,0.26578,145.7 -70.005902,0.265765,144.0 -70.00589,0.265835,145.0 -70.005932,0.265846,146.0 -70.005884,0.265814,135.0 -70.005896,0.265774,144.0 -70.005882,0.265814,144.0 -70.005781,0.265864,146.0 -70.005753,0.265869,148.0 -70.005706,0.265862,148.0 -70.005682,0.265832,148.0 -70.00562,0.265809,145.0 -70.00557,0.265752,148.0 -70.005533,0.265743,149.4 -70.005449,0.265782,152.0 -70.005415,0.265783,153.0 -70.005369,0.265731,155.0 -70.005354,0.265694,153.0 -70.005353,0.265627,156.0 -70.005321,0.265635,156.0 -70.005309,0.26554,156.0 -70.005294,0.265498,156.0 -70.005304,0.265443,155.0 -70.005293,0.265392,158.0 -70.005271,0.265367,154.0 -70.005291,0.265331,158.0 -70.005281,0.265271,159.0 -70.005307,0.265299,155.0 -70.005261,0.26529,161.0 -70.005254,0.265236,163.1 -70.005288,0.265258,162.0 -70.005302,0.265311,160.0 -70.005305,0.265268,160.0 -70.005285,0.265261,159.0 -70.005254,0.265172,156.0 -70.005279,0.265152,154.0 -70.005285,0.265178,158.0 -70.005277,0.265113,154.0 -70.005314,0.265028,154.0 -70.005363,0.265012,155.0 -70.005419,0.264932,156.0 -70.005491,0.264856,155.0 -70.005503,0.26482,154.0 -70.0055,0.264785,152.0 -70.005486,0.264839,153.0 -70.005637,0.264566,150.0 -70.005528,0.264468,148.0 -70.005487,0.264382,148.6 -70.005535,0.264351,147.0 -70.005352,0.264484,149.0 -70.005372,0.264565,150.0 -70.005423,0.26442,150.0 -70.005367,0.264259,152.0 -70.005444,0.26429,151.8 -70.005486,0.264246,150.0 -70.005447,0.264033,150.5 -70.005461,0.26406,150.0 -70.005584,0.264111,150.0 -70.005556,0.264078,150.0 -70.005613,0.264033,150.0 -70.005657,0.26389,152.5 -70.005605,0.263844,152.0 -70.005572,0.263885,152.0 -70.005511,0.263908,152.0 -70.005557,0.263873,148.0 -70.005565,0.263827,153.2 -70.005616,0.263823,154.0 -70.005599,0.263819,150.0 -70.00562,0.263792,152.9 -70.005619,0.263656,151.0 -70.005581,0.263697,152.0 -70.005697,0.263525,152.7 -70.005669,0.263498,152.0 -70.005713,0.263503,153.0 -70.005696,0.263446,151.0 -70.005634,0.263411,153.6 -70.005651,0.263365,154.1 -70.005639,0.263396,153.0 -70.005605,0.26335,152.0 -70.005618,0.263314,154.0 -70.005609,0.263252,155.1 -70.00564,0.263236,154.0 -70.005657,0.263195,155.3 -70.005645,0.263255,155.5 -70.005723,0.263251,153.0 -70.00569,0.263194,154.0 -70.005767,0.263133,156.2 -70.005717,0.263085,154.0 -70.00572,0.263053,154.0 -70.005752,0.263024,154.0 -70.005734,0.263052,156.0 -70.005762,0.263094,155.7 -70.005795,0.263068,155.2 -70.005849,0.263119,154.0 -70.005883,0.263109,155.0 -70.005883,0.263048,155.0 -70.005977,0.262992,156.0 -70.00601,0.262982,157.8 -70.005985,0.262848,156.0 -70.00594,0.26296,156.4 -70.005904,0.262939,156.0 -70.005826,0.262938,156.0 -70.005877,0.262889,156.7 -70.005963,0.262855,156.0 -70.006007,0.262799,156.0 -70.006054,0.262757,155.0 -70.006011,0.262749,156.0 -70.005998,0.262705,157.1 -70.006075,0.262755,156.6 -70.006125,0.262708,156.0 -70.006125,0.262665,156.0 -70.006152,0.262663,155.0 -70.006205,0.262637,154.9 -70.006236,0.262638,153.0 -70.00627,0.26266,154.7 -70.006219,0.262702,153.0 -70.006275,0.262693,154.0 -70.006287,0.262611,147.0 -70.006326,0.262622,151.0 -70.006437,0.262586,150.2 -70.006481,0.262528,148.0 -70.006547,0.262497,143.0 -70.006585,0.262543,150.0 -70.006658,0.262561,150.0 -70.006696,0.262523,150.0 -70.006708,0.262474,151.2 -70.006687,0.262435,150.0 -70.006764,0.262448,148.0 -70.006791,0.26244,149.0 -70.006816,0.262458,147.0 -70.006929,0.26247,147.0 -70.006959,0.262424,144.0 -70.007031,0.262385,144.0 -70.007069,0.262398,144.0 -70.007059,0.262302,146.2 -70.007081,0.262287,146.0 -70.007208,0.262446,147.0 -70.007153,0.262376,147.0 -70.007141,0.26234,146.8 -70.007164,0.262297,144.0 -70.007197,0.262332,146.7</coordinates>
                </LineString>
                <LineString id="12">
                    <extrude>0</extrude>
                    <altitudeMode>clampToGround</altitudeMode>
                    <coordinates>-70.007195,0.262345,146.8 -70.00721,0.262363,146.9 -70.007171,0.262361,146.3 -70.0072,0.262337,147.6</coordinates>
                </LineString>
                <LineString id="16">
                    <extrude>0</extrude>
                    <altitudeMode>clampToGround</altitudeMode>
                    <coordinates>-70.0072,0.262337,147.6 -70.007171,0.262308,148.5 -70.00713,0.262193,143.0 -70.00715,0.262257,150.0 -70.007129,0.262275,148.0 -70.00711,0.262331,148.0 -70.007073,0.262357,144.0 -70.007148,0.262377,148.2 -70.007055,0.262287,148.0 -70.007086,0.262239,145.0 -70.00706,0.262184,144.0 -70.007148,0.262213,146.4 -70.007152,0.262248,144.0 -70.007113,0.262226,146.6 -70.007089,0.262253,146.0 -70.007085,0.262296,146.2 -70.007044,0.262322,145.9 -70.006996,0.262283,144.0 -70.006949,0.262278,145.0 -70.006893,0.262286,145.0 -70.006816,0.262332,145.0 -70.006836,0.262362,146.0 -70.006892,0.262303,144.0 -70.006866,0.262267,140.0 -70.006829,0.262246,147.0 -70.006843,0.262275,151.0 -70.006805,0.262292,151.3 -70.006779,0.262232,151.3 -70.006831,0.262329,152.5 -70.006834,0.26228,150.0 -70.006796,0.262301,153.5 -70.00676,0.262285,153.0 -70.006742,0.262319,153.6 -70.006666,0.262334,152.0 -70.006595,0.262393,150.0 -70.00653,0.262401,150.0 -70.00641,0.262382,148.0 -70.006378,0.2624,152.0 -70.006347,0.262398,152.0 -70.006304,0.26241,155.0 -70.006278,0.26244,155.0 -70.006245,0.262416,156.0 -70.00622,0.262428,156.0 -70.006177,0.262418,158.1 -70.006225,0.262498,156.9 -70.006212,0.262529,156.0 -70.006181,0.262538,156.0 -70.006137,0.262507,156.0 -70.006096,0.262508,158.0 -70.006053,0.262524,158.0 -70.006028,0.262594,158.0 -70.005977,0.262612,155.0 -70.005943,0.262591,158.0 -70.00598,0.262591,156.0 -70.005949,0.262613,157.5 -70.005949,0.262673,156.0 -70.005814,0.262771,156.0 -70.005846,0.262797,156.0 -70.005865,0.262755,155.9 -70.005829,0.262762,154.0 -70.005803,0.262831,153.0 -70.005819,0.262876,154.0 -70.005844,0.262892,153.0 -70.005813,0.262923,151.0 -70.005794,0.262959,154.0 -70.005744,0.262979,150.0 -70.005735,0.263002,152.0 -70.005699,0.263004,156.0 -70.005674,0.263047,156.0 -70.005631,0.263059,156.0 -70.005661,0.263078,158.0 -70.005647,0.263119,156.0 -70.005685,0.263163,156.0 -70.005657,0.263192,156.0 -70.0056,0.263173,156.0 -70.005626,0.263189,157.5 -70.005631,0.263227,156.0 -70.005594,0.263212,156.0 -70.005545,0.26322,156.0 -70.005529,0.263281,155.0 -70.005569,0.263301,155.0 -70.005576,0.263403,150.0 -70.005561,0.263441,154.5 -70.005608,0.263508,153.0 -70.005589,0.263562,153.8 -70.005542,0.263599,151.0 -70.005552,0.263616,150.0 -70.005515,0.263652,150.0 -70.005452,0.263767,150.3 -70.005444,0.263799,148.0 -70.00545,0.263889,146.0 -70.005485,0.263914,147.0 -70.00546,0.263973,147.0 -70.005429,0.263934,149.0 -70.005421,0.263965,150.0 -70.005342,0.263983,150.0 -70.005316,0.264029,150.0 -70.005348,0.264095,152.0 -70.005352,0.26417,152.0 -70.005272,0.264255,152.0 -70.005251,0.264303,152.0 -70.005267,0.264385,152.0 -70.005297,0.264405,152.0 -70.005311,0.264449,152.0 -70.00538,0.26455,152.0 -70.005398,0.264591,152.0 -70.005432,0.264614,152.0 -70.00546,0.264743,152.0 -70.005454,0.264774,152.0 -70.005411,0.264782,154.0 -70.005425,0.2648,154.0 -70.005363,0.264859,153.0 -70.00537,0.264901,156.0 -70.005364,0.264974,156.0 -70.005384,0.265015,156.0 -70.005328,0.26503,156.0 -70.005284,0.265056,153.0 -70.005302,0.265086,159.0 -70.005291,0.265145,161.6 -70.005319,0.265175,160.0 -70.005308,0.265272,156.0 -70.005277,0.265257,159.0 -70.005203,0.265272,162.1 -70.005161,0.265253,163.2 -70.005119,0.265249,163.1 -70.005092,0.265206,162.0 -70.005139,0.265254,162.0 -70.005171,0.265216,163.9 -70.005118,0.265214,160.0 -70.005148,0.265207,164.0 -70.005206,0.265247,162.0 -70.005204,0.26522,162.0 -70.005195,0.26531,161.0 -70.005113,0.265236,160.0 -70.005141,0.265272,163.0 -70.005156,0.26532,163.0 -70.005119,0.265377,160.0 -70.005185,0.265385,164.0 -70.005131,0.265451,165.0 -70.005173,0.265592,165.0 -70.005206,0.265573,166.1 -70.005175,0.265592,165.0 -70.005075,0.265608,165.0 -70.005009,0.265637,166.0 -70.005052,0.265624,165.0 -70.005044,0.265584,162.0 -70.005032,0.26562,165.0 -70.005021,0.265588,165.0 -70.00498,0.26561,164.0 -70.00495,0.265595,168.0 -70.004931,0.265559,168.0 -70.004848,0.265549,162.0 -70.004797,0.265493,164.0 -70.004664,0.265484,164.0 -70.004632,0.265474,164.0 -70.004658,0.265442,164.8 -70.004618,0.26546,165.0 -70.00457,0.265419,164.0 -70.004564,0.265449,164.0 -70.004532,0.265426,164.0 -70.004489,0.265433,164.0 -70.004449,0.265406,162.0 -70.004406,0.265462,162.0 -70.004376,0.265533,161.0 -70.004323,0.265539,163.9 -70.004307,0.265498,162.0 -70.004258,0.265492,160.0 -70.004307,0.265509,160.0 -70.004265,0.265447,164.0 -70.004165,0.265573,162.0 -70.00419,0.265528,154.0 -70.004148,0.265504,155.0 -70.004185,0.265511,159.0 -70.00418,0.265487,160.0 -70.004193,0.265462,158.0 -70.004182,0.265424,159.0 -70.004158,0.265443,160.0 -70.004138,0.265419,160.0 -70.004092,0.265421,161.0 -70.00407,0.265396,161.5 -70.004043,0.265448,160.0 -70.003966,0.26549,160.7 -70.003902,0.265439,160.0 -70.003643,0.265444,160.0 -70.003708,0.265426,160.0 -70.003696,0.265463,161.2 -70.003699,0.265424,160.0 -70.003597,0.265545,160.7 -70.003652,0.265596,160.4 -70.003685,0.265591,160.5 -70.003612,0.265616,160.0 -70.003577,0.265648,159.0 -70.003552,0.26561,159.0 -70.003556,0.265578,160.0 -70.00353,0.265593,161.7 -70.003565,0.265546,161.9 -70.003567,0.2656,161.7 -70.003498,0.265719,162.0 -70.003472,0.265678,162.0 -70.003308,0.265619,162.0 -70.002893,0.265825,164.0 -70.00292,0.265841,164.1 -70.002753,0.265811,163.0 -70.002559,0.265725,164.0 -70.002503,0.265767,164.7 -70.002475,0.265817,164.0 -70.002373,0.26576,166.0 -70.002395,0.26572,166.6 -70.002244,0.265869,167.7 -70.002138,0.26577,168.7 -70.00188,0.265758,168.0 -70.001904,0.265736,169.7 -70.001853,0.265757,168.0 -70.001713,0.265733,168.6 -70.001699,0.265765,168.5 -70.001642,0.265718,168.0 -70.001382,0.265575,169.0 -70.001311,0.265526,171.7 -70.001411,0.265571,170.0 -70.00139,0.265481,172.5 -70.001393,0.265751,168.0 -70.00135,0.265765,150.0 -70.001311,0.265713,168.0 -70.001269,0.2657,170.0 -70.001125,0.265685,171.4 -70.0011,0.265729,171.1 -70.000829,0.265894,173.0 -70.000765,0.265845,173.9 -70.00072,0.265855,173.0 -70.00068,0.265849,174.3 -70.000601,0.265995,172.0 -70.000695,0.266065,173.4 -70.000752,0.266085,172.5 -70.000882,0.266045,172.0 -70.000871,0.266013,171.0 -70.000716,0.266111,171.0 -70.00049,0.266226,171.4 -70.000532,0.266192,170.0 -70.000493,0.266341,171.0 -70.000479,0.266302,170.0 -70.000436,0.266293,169.0 -70.000367,0.266342,170.8 -70.000354,0.266303,170.6 -70.000372,0.266278,168.0 -70.000431,0.26632,170.4 -70.000379,0.266297,170.0 -70.000049,0.266456,165.0 -70.000011,0.266491,169.4 -70.000008,0.266521,168.0 -69.99998,0.266532,168.0 -70.000039,0.266633,168.0 -70.000047,0.26661,168.4 -70.000039,0.266676,168.0 -70.000033,0.266632,168.0 -69.999833,0.266925,166.1 -69.999771,0.266851,165.0 -69.999537,0.266835,166.2 -69.999548,0.266775,166.6 -69.999574,0.26671,166.0 -69.999588,0.266767,165.0 -69.999499,0.266757,168.0 -69.99947,0.26682,168.0 -69.999476,0.266743,168.0 -69.999431,0.266775,169.0 -69.999339,0.266736,170.0 -69.999148,0.266847,168.0 -69.999078,0.266789,171.0 -69.999101,0.266944,172.8 -69.999058,0.266979,172.0 -69.998973,0.266958,172.2 -69.998725,0.266822,174.0 -69.998467,0.266843,174.0 -69.998498,0.266877,174.0 -69.998457,0.266902,176.0 -69.998396,0.266903,177.5 -69.998413,0.26695,176.5 -69.998307,0.266886,177.8 -69.998196,0.26685,176.0 -69.998361,0.266904,176.0 -69.998345,0.266861,176.0 -69.99819,0.266827,176.9 -69.998199,0.266883,174.0 -69.998235,0.266995,175.0 -69.998197,0.267018,176.0 -69.99821,0.266983,177.0 -69.998129,0.266973,176.0 -69.998061,0.266933,177.2 -69.997914,0.266995,177.6 -69.997918,0.267035,176.0 -69.997625,0.266922,174.0 -69.997426,0.266965,174.0 -69.99746,0.266974,174.3 -69.997401,0.267042,172.0 -69.997252,0.266969,168.0 -69.997306,0.266961,168.0 -69.997359,0.266999,170.3 -69.997325,0.267005,169.0 -69.997073,0.266842,166.3 -69.997169,0.266906,164.0 -69.997135,0.266907,166.7 -69.997151,0.266832,166.5 -69.997125,0.266816,166.9 -69.997142,0.266863,166.0 -69.997133,0.266827,166.5 -69.99709,0.266793,165.0 -69.997053,0.266926,165.1 -69.997079,0.266974,164.0 -69.997013,0.266952,165.0 -69.997017,0.266921,164.0 -69.996955,0.266898,166.0 -69.996853,0.266899,166.0 -69.99693,0.266915,161.0 -69.997067,0.266876,166.0 -69.99708,0.26695,166.0 -69.997037,0.266924,167.7 -69.997013,0.266881,166.0 -69.997007,0.266847,166.0 -69.997037,0.26686,164.0 -69.997072,0.266845,165.0 -69.997062,0.266781,166.0 -69.997092,0.266738,166.0 -69.997125,0.266759,167.3 -69.997073,0.266741,165.0 -69.997008,0.26681,166.0 -69.996983,0.266769,165.0 -69.996968,0.26685,166.0 -69.996938,0.266834,164.0 -69.996908,0.266876,165.9 -69.996787,0.266761,165.8 -69.996755,0.266769,166.0 -69.996772,0.266728,166.1 -69.996801,0.266705,163.0 -69.996846,0.266749,165.0 -69.99682,0.266734,166.3 -69.996749,0.266609,166.8 -69.996734,0.266635,166.0 -69.996732,0.266613,165.0 -69.996748,0.266622,166.0 -69.996701,0.266591,165.0 -69.996678,0.26661,166.0 -69.996628,0.26648,166.0 -69.996637,0.266398,168.0 -69.996588,0.266456,168.0 -69.996505,0.266391,168.8 -69.996469,0.266398,165.0 -69.996448,0.266356,169.4 -69.996488,0.266388,168.0 -69.996371,0.266284,169.6 -69.996406,0.266269,170.0 -69.996379,0.26629,168.0 -69.996402,0.266263,171.4 -69.996361,0.266252,168.0 -69.996282,0.266265,171.0 -69.996255,0.266238,171.0 -69.996169,0.266209,171.0 -69.996152,0.266237,172.0 -69.996105,0.266196,173.8 -69.996066,0.266142,172.0 -69.996083,0.266174,173.0 -69.996044,0.266145,172.0 -69.99601,0.266153,171.0 -69.996039,0.266119,168.0 -69.995978,0.266119,171.0 -69.995938,0.266146,170.0 -69.99589,0.266127,172.0 -69.99591,0.266089,173.0 -69.995945,0.266074,172.0 -69.995837,0.26603,172.0 -69.995835,0.266071,170.0 -69.995802,0.266112,172.0 -69.9958,0.266047,172.0 -69.995688,0.265915,172.1 -69.995641,0.265915,172.0 -69.995535,0.265947,171.7 -69.995614,0.265928,171.0 -69.995472,0.265873,171.8 -69.995427,0.2659,169.0 -69.995421,0.265941,171.6 -69.995376,0.265806,169.0 -69.99531,0.265813,171.1 -69.99533,0.265869,169.0 -69.995363,0.265823,171.7 -69.995108,0.265737,168.0 -69.995136,0.265741,170.0 -69.995114,0.265758,170.0 -69.995171,0.265759,171.2 -69.995143,0.265751,170.0 -69.995086,0.265703,171.0 -69.994852,0.265676,172.0 -69.994854,0.265617,171.0 -69.994803,0.265616,170.0 -69.994787,0.265583,172.0 -69.994739,0.265598,168.0 -69.994723,0.265554,170.0 -69.994691,0.265542,170.0 -69.994648,0.265568,170.0 -69.9946,0.265555,168.0 -69.994564,0.265558,168.0 -69.9946,0.265552,168.0 -69.99449,0.265462,172.0 -69.994368,0.265474,170.0 -69.994301,0.265493,170.0 -69.99429,0.265442,168.0 -69.994334,0.265444,170.2 -69.994294,0.265406,168.0 -69.994316,0.265375,170.0 -69.994349,0.265379,170.6 -69.994321,0.265394,170.6 -69.994363,0.265341,170.6 -69.994348,0.265382,168.0 -69.994288,0.26537,170.4 -69.994167,0.265396,168.0 -69.994112,0.265363,169.2 -69.994234,0.265336,168.9 -69.99426,0.265298,169.1 -69.994212,0.265329,165.0 -69.994207,0.265365,168.0 -69.99405,0.265334,168.0 -69.994082,0.265352,165.0 -69.994017,0.265287,164.0 -69.993931,0.265264,164.0 -69.993966,0.265248,156.0 -69.993939,0.265229,167.4 -69.993909,0.265213,165.0 -69.993862,0.265212,166.0 -69.993884,0.26527,164.0 -69.993942,0.265299,167.3 -69.993995,0.265275,168.0 -69.993964,0.26538,165.0 -69.993909,0.265402,166.0 -69.993934,0.265382,167.3 -69.993909,0.265426,164.0 -69.993866,0.265416,165.0 -69.993681,0.265184,168.0 -69.993666,0.265079,168.0 -69.993553,0.265108,167.0 -69.993502,0.265088,164.0 -69.993371,0.265086,166.0 -69.993414,0.26508,166.0 -69.993328,0.26503,166.2 -69.993371,0.26505,166.0 -69.99338,0.265081,166.0 -69.993357,0.265049,165.0 -69.993383,0.265038,164.0 -69.993341,0.265042,163.0 -69.993259,0.264937,163.9 -69.993243,0.264973,164.0 -69.99322,0.264924,162.0 -69.993183,0.264928,163.0 -69.993098,0.264886,164.0 -69.9931,0.264921,165.0 -69.993083,0.264977,165.0 -69.993049,0.264959,164.0 -69.993065,0.265055,169.0 -69.993111,0.264948,169.3 -69.99309,0.264988,168.9 -69.993113,0.264912,168.7 -69.993091,0.264988,165.0 -69.993124,0.264985,166.0 -69.993139,0.264935,166.0 -69.993105,0.264868,166.0 -69.993139,0.26483,166.0 -69.993108,0.264804,164.0 -69.993043,0.264847,166.0 -69.993014,0.264832,165.0 -69.992978,0.264874,164.0 -69.992994,0.264968,166.5 -69.993053,0.264882,161.0 -69.992991,0.264901,166.9 -69.992939,0.264895,167.2 -69.992914,0.264867,166.0 -69.992907,0.264825,167.0 -69.992886,0.264796,168.0 -69.992955,0.264753,164.0 -69.992882,0.264717,162.0 -69.992849,0.264734,165.0 -69.992828,0.26468,165.0 -69.992706,0.264661,166.0 -69.99263,0.264618,164.0 -69.992661,0.264619,156.0 -69.992644,0.264567,160.0 -69.992563,0.264548,164.0 -69.992481,0.264546,165.1 -69.992534,0.264581,165.0 -69.992494,0.264591,165.0 -69.992526,0.264544,165.0 -69.992473,0.264474,166.0 -69.992445,0.26446,164.0 -69.992401,0.264461,164.0 -69.992365,0.264434,164.0 -69.992346,0.264369,164.0 -69.992259,0.264381,162.0 -69.992206,0.264351,164.0 -69.992222,0.264372,161.0 -69.99226,0.264372,164.1 -69.992226,0.264373,162.0 -69.99217,0.264347,160.0 -69.992128,0.264346,162.0 -69.992017,0.26428,161.0 -69.992007,0.264242,161.0 -69.992013,0.26428,160.0 -69.991979,0.264291,161.0 -69.992012,0.264303,163.9 -69.992007,0.264237,164.0 -69.991968,0.264238,163.4 -69.991925,0.264206,162.0 -69.991858,0.264208,162.0 -69.991813,0.264179,160.0 -69.991863,0.264202,160.0 -69.991748,0.264211,162.4 -69.991719,0.264223,162.0 -69.991735,0.264248,164.0 -69.991705,0.264266,161.0 -69.991704,0.264227,163.3 -69.991676,0.264159,162.0 -69.991675,0.264117,163.0 -69.99168,0.264149,161.0 -69.991656,0.264183,160.0 -69.99162,0.264199,160.0 -69.99152,0.264199,158.0 -69.991514,0.264244,162.3 -69.991544,0.264217,161.0 -69.991556,0.264171,162.0 -69.991526,0.264165,160.0 -69.991497,0.264181,161.0 -69.991455,0.264182,161.0 -69.991391,0.264136,160.0 -69.991406,0.264153,161.7 -69.991344,0.264119,160.0 -69.991323,0.264125,159.0 -69.991353,0.264131,159.0 -69.991313,0.264119,160.0 -69.991347,0.264144,158.0 -69.991205,0.264061,161.0 -69.991166,0.264026,161.5 -69.991169,0.263987,160.0 -69.991193,0.264024,159.0 -69.991218,0.264027,160.0 -69.991175,0.263996,160.0 -69.991138,0.263932,160.0 -69.99113,0.263885,160.0 -69.991094,0.263877,159.0 -69.99102,0.263952,156.0 -69.990991,0.26394,160.0 -69.990908,0.263972,160.0 -69.990915,0.263927,159.0 -69.990795,0.263867,160.0 -69.990759,0.263886,161.5 -69.990687,0.263892,160.0 -69.990628,0.263894,161.8 -69.990601,0.263875,162.1 -69.990558,0.263886,161.0 -69.990556,0.263824,160.0 -69.9905,0.263799,161.0 -69.990483,0.263879,160.0 -69.990454,0.263924,162.0 -69.990478,0.263857,162.0 -69.990429,0.263827,162.0 -69.990364,0.263817,162.0 -69.99032,0.263837,163.0 -69.990244,0.263838,162.0 -69.990271,0.263867,163.7 -69.990262,0.263947,162.0 -69.990294,0.263956,160.0 -69.990313,0.263991,162.0 -69.990345,0.263895,147.0 -69.990304,0.263883,164.0 -69.990254,0.263837,164.8 -69.990208,0.263831,164.0 -69.990226,0.263782,163.0 -69.990185,0.263841,162.0 -69.990055,0.26381,162.0 -69.989981,0.263756,160.0 -69.989988,0.263786,160.0 -69.98991,0.263782,160.0 -69.989878,0.263801,163.1 -69.989878,0.263837,162.0 -69.989898,0.263801,162.0 -69.989953,0.263775,163.0 -69.989927,0.263838,160.0 -69.989895,0.263779,164.8 -69.989846,0.26373,164.0 -69.989793,0.263655,164.6 -69.989803,0.263684,161.0 -69.989755,0.263688,164.0 -69.989753,0.263725,165.5 -69.989724,0.263703,160.0 -69.989657,0.263694,163.0 -69.989606,0.263641,162.0 -69.989554,0.263615,162.0 -69.989504,0.263556,160.0 -69.989441,0.263555,160.0 -69.9894,0.263512,158.0 -69.989409,0.263555,156.0 -69.989388,0.263598,151.0 -69.98931,0.263552,155.0 -69.989282,0.263512,148.0 -69.989317,0.263508,160.0 -69.989332,0.263462,161.0 -69.989312,0.263473,160.0 -69.989312,0.263453,160.0 -69.989167,0.263384,156.0 -69.989143,0.263336,156.0 -69.989154,0.263308,159.0 -69.989103,0.263292,158.0 -69.989074,0.263331,157.0 -69.989065,0.263283,158.0 -69.98905,0.263341,159.0 -69.989031,0.263225,158.0 -69.988893,0.263124,158.0 -69.988793,0.263036,156.0 -69.9887,0.262993,156.0 -69.988668,0.262951,155.0 -69.988605,0.262899,154.0 -69.988555,0.262835,155.0 -69.988442,0.262825,154.0 -69.988406,0.262799,156.4 -69.988365,0.262748,153.0 -69.988297,0.262722,152.0 -69.988262,0.262725,154.0 -69.988293,0.262704,155.5 -69.988224,0.262671,154.0 -69.988191,0.262691,152.0 -69.988229,0.262701,153.4 -69.988165,0.262706,150.0 -69.988127,0.262734,152.0 -69.988096,0.262726,153.0 -69.988133,0.262783,153.0 -69.988139,0.262827,145.0 -69.988135,0.262796,151.0 -69.9881,0.262775,151.0 -69.988027,0.262773,153.1 -69.988045,0.262736,149.0 -69.987985,0.262707,150.0 -69.987816,0.26273,144.0 -69.987667,0.262838,146.0 -69.98766,0.262865,147.0 -69.987622,0.262848,147.0 -69.987554,0.262926,145.0 -69.987573,0.262894,144.0 -69.987533,0.262889,145.8 -69.987485,0.262935,143.0 -69.987345,0.26293,143.0 -69.987275,0.262949,141.0 -69.987211,0.262955,143.7 -69.987239,0.262941,142.0 -69.987162,0.262983,142.0 -69.987127,0.26298,139.0 -69.987083,0.263022,142.0 -69.986921,0.263048,141.0 -69.986928,0.263084,140.0 -69.986863,0.263034,143.0 -69.986795,0.263067,142.0 -69.986744,0.263126,141.0 -69.986722,0.263171,139.0 -69.986668,0.263132,138.0 -69.986715,0.26317,140.0 -69.986738,0.263105,141.0 -69.986728,0.263155,141.0 -69.986658,0.263198,140.0 -69.986658,0.263231,140.0 -69.986629,0.263263,135.0 -69.986667,0.263308,138.0 -69.986709,0.263243,138.2 -69.986722,0.263134,138.0 -69.98667,0.263153,138.0 -69.986694,0.26319,135.0 -69.986748,0.263158,136.0 -69.986719,0.263196,135.0 -69.986674,0.263186,136.0 -69.98665,0.263221,136.0 -69.986659,0.263256,137.0 -69.986692,0.263267,136.0 -69.986678,0.263342,141.0 -69.986717,0.263376,140.0 -69.986767,0.26335,140.0 -69.986761,0.263314,140.0 -69.986763,0.26338,140.0 -69.986707,0.26333,132.0 -69.986686,0.263355,138.0 -69.986678,0.263397,136.0 -69.986703,0.263426,138.0 -69.986667,0.263439,137.0 -69.986666,0.26351,133.0 -69.986636,0.263512,130.0 -69.986738,0.263522,136.0 -69.986701,0.263508,134.0 -69.986699,0.263546,138.0 -69.986666,0.263544,140.0 -69.986677,0.263694,133.0 -69.986673,0.263731,132.0 -69.986655,0.263763,135.0 -69.986672,0.263856,137.5 -69.986685,0.263879,137.0 -69.986681,0.263915,135.0 -69.986657,0.263944,135.0 -69.986623,0.264031,133.0 -69.986662,0.264255,140.0 -69.986599,0.264303,138.0 -69.986585,0.26437,138.0 -69.986589,0.26444,140.0 -69.986553,0.264535,142.0 -69.986561,0.264578,141.0 -69.986541,0.264698,140.0 -69.98649,0.264716,140.0 -69.986477,0.264754,140.0 -69.986477,0.264821,144.0 -69.986432,0.264925,142.0 -69.986369,0.264968,141.0 -69.986337,0.26502,141.0 -69.986185,0.265138,138.0 -69.986152,0.265129,140.0 -69.985995,0.265135,140.0 -69.985901,0.265173,135.0 -69.985861,0.265211,138.0 -69.985804,0.265229,130.0 -69.985781,0.265259,140.0 -69.985679,0.265288,140.0 -69.985665,0.265315,139.0 -69.985621,0.265335,138.0 -69.985505,0.265337,136.0 -69.985435,0.265353,136.0 -69.985374,0.265408,137.2 -69.985264,0.265462,136.0 -69.985146,0.26557,138.0 -69.985069,0.265618,142.0 -69.985046,0.265663,144.0 -69.984988,0.265724,145.0 -69.984702,0.265868,145.0 -69.984591,0.266,149.0 -69.984558,0.266014,148.0 -69.984459,0.26612,145.0 -69.984372,0.266161,144.0 -69.984301,0.266164,146.0 -69.984267,0.266247,145.0 -69.984215,0.266301,145.0 -69.9842,0.26633,147.0 -69.984092,0.266438,146.0 -69.984061,0.266467,139.0 -69.984018,0.266475,145.0 -69.98386,0.26658,145.0 -69.983672,0.266776,150.0 -69.983487,0.266804,153.0 -69.983403,0.266869,153.0 -69.983389,0.266903,153.0 -69.983345,0.266946,153.0 -69.983307,0.267038,157.0 -69.983174,0.267121,153.0 -69.98308,0.267163,152.0 -69.982849,0.267174,152.0 -69.982704,0.267139,156.0 -69.982545,0.26713,159.4 -69.982518,0.267148,155.0 -69.982464,0.26724,156.0 -69.982415,0.267283,151.0 -69.982375,0.267273,148.0 -69.982334,0.26729,148.0 -69.982228,0.267364,150.0 -69.982079,0.267439,147.0 -69.981983,0.267455,148.0 -69.981939,0.267454,148.9 -69.981813,0.267421,150.0 -69.981758,0.267433,150.0 -69.981705,0.267401,150.0 -69.98167,0.267398,150.0 -69.9816,0.267336,147.0 -69.981559,0.267321,147.6 -69.981422,0.267327,144.0 -69.981338,0.267387,140.0 -69.981305,0.26738,138.0 -69.981131,0.267254,141.0 -69.98109,0.267248,140.0 -69.981042,0.267225,140.0 -69.980992,0.26722,140.0 -69.980963,0.267198,143.0 -69.98096,0.26716,140.0 -69.980972,0.267091,138.0 -69.98094,0.267054,140.0 -69.980882,0.267038,140.0 -69.980814,0.266991,140.0 -69.98075,0.266998,140.0 -69.98064,0.267082,144.0 -69.980456,0.267197,143.0 -69.980239,0.267219,145.0 -69.980139,0.267199,144.0 -69.980061,0.267211,144.0 -69.97976,0.267195,150.0 -69.979723,0.26721,152.0 -69.979644,0.267283,156.0 -69.979553,0.267318,157.0 -69.979456,0.267334,161.0 -69.979328,0.26738,160.0 -69.979203,0.267479,160.0 -69.979168,0.267498,162.6 -69.979126,0.26754,160.0 -69.97897,0.267635,164.0 -69.978847,0.267748,164.0 -69.978774,0.267778,164.0 -69.978716,0.267826,164.0 -69.978614,0.267969,162.0 -69.978555,0.268085,162.0 -69.978481,0.268157,159.0 -69.978468,0.268189,156.0 -69.978462,0.268286,155.0 -69.978446,0.268314,156.0 -69.978328,0.268402,158.0 -69.978268,0.268421,156.0 -69.978204,0.2684,160.0 -69.97811,0.268443,160.0 -69.978082,0.26847,160.0 -69.977925,0.268567,162.0 -69.977804,0.268694,160.0 -69.977709,0.268727,156.0 -69.977637,0.268729,156.0 -69.977547,0.268707,156.0 -69.97736,0.268626,148.0 -69.977256,0.268606,148.0 -69.977205,0.268579,148.0 -69.977143,0.268572,148.5 -69.977057,0.26859,145.0 -69.977001,0.268553,144.0 -69.976937,0.268564,144.0 -69.976837,0.268602,144.0 -69.976615,0.268594,145.0 -69.976515,0.268631,144.0 -69.97648,0.268629,144.0 -69.976418,0.268606,144.0 -69.976411,0.268574,145.3 -69.976367,0.268588,144.0 -69.976282,0.268583,144.0 -69.976023,0.268489,147.0 -69.975762,0.268449,141.0 -69.975661,0.268471,140.0 -69.975586,0.268468,136.0 -69.97531,0.26842,134.0 -69.975246,0.268445,134.0 -69.975171,0.268458,132.0 -69.975075,0.268426,132.0 -69.975058,0.2684,130.0 -69.975026,0.268381,129.0 -69.97493,0.268379,130.0 -69.974796,0.268356,129.0 -69.974724,0.268332,130.0 -69.97466,0.268294,132.0 -69.974593,0.268275,132.0 -69.974563,0.268269,132.0 -69.97444,0.268282,136.0 -69.974333,0.268248,133.0 -69.97424,0.268181,134.0 -69.974106,0.268144,130.0 -69.973998,0.268174,135.0 -69.97396,0.268176,135.0 -69.97394,0.268151,136.0 -69.973942,0.268103,135.0 -69.9739,0.268071,132.0 -69.973791,0.268028,130.6 -69.973769,0.267989,129.9 -69.973671,0.267966,130.0 -69.97359,0.267929,126.0 -69.97365,0.267976,127.0 -69.973686,0.267985,128.0 -69.973712,0.268045,126.0 -69.973691,0.268051,129.2</coordinates>
                </LineString>
            </MultiGeometry>
        </Placemark>
        <Placemark id="21">
            <name>Parkia amarela</name>
            <description/>
            <styleUrl>#22</styleUrl>
            <Point id="20">
                <coordinates>-69.99305,0.26499,160</coordinates>
            </Point>
        </Placemark>
        <Placemark id="26">
            <name>Meliaceae</name>
            <description/>
            <styleUrl>#27</styleUrl>
            <Point id="25">
                <coordinates>-70.01145,0.26289,139</coordinates>
            </Point>
        </Placemark>
    </Document>
</kml>
