<?xml version="1.0" encoding="UTF-8"?>
<kml xmlns="http://www.opengis.net/kml/2.2" xmlns:gx="http://www.google.com/kml/ext/2.2">
    <Document id="1">
        <Placemark id="3">
            <Style id="6">
                <LineStyle id="7">
                    <color>ffBC26A7</color>
                    <colorMode>normal</colorMode>
                    <width>1</width>
                </LineStyle>
            </Style>
            <name>Pari Cachoeira até São Sebastião </name>
            <description/>
            <MultiGeometry id="2">
                <LineString id="4">
                    <extrude>0</extrude>
                    <altitudeMode>clampToGround</altitudeMode>
                    <coordinates>-69.782798,0.242778,107.9 -69.782858,0.242841,109.1 -69.782843,0.242814,100.0 -69.782835,0.242779,104.0 -69.782821,0.242882,104.0 -69.782789,0.242977,105.0 -69.782796,0.242942,102.0 -69.782777,0.242894,105.0 -69.782789,0.242926,108.0 -69.782767,0.242981,95.0 -69.782707,0.243053,108.0 -69.782637,0.243086,108.0 -69.782509,0.243099,106.0 -69.782441,0.243162,105.9 -69.782407,0.243173,84.0 -69.782238,0.243179,102.0 -69.782208,0.243183,103.0 -69.782127,0.243192,102.0 -69.782104,0.243214,102.0 -69.782092,0.243245,102.0 -69.7821,0.24329,100.0 -69.781928,0.243019,101.4 -69.781822,0.242789,100.0 -69.781774,0.242659,102.0 -69.781728,0.242457,102.1 -69.781708,0.242257,101.9 -69.781609,0.241698,101.1 -69.781512,0.241217,101.3 -69.78145,0.241027,101.3 -69.781293,0.24065,101.0 -69.781197,0.240469,100.7 -69.781038,0.240229,100.9 -69.780934,0.240087,101.0 -69.780804,0.239939,100.9 -69.780659,0.239804,101.1 -69.780432,0.239639,100.9 -69.780311,0.239568,100.5 -69.78019,0.239523,101.2 -69.779987,0.239492,101.0 -69.779785,0.239505,101.0 -69.77972,0.23952,100.8 -69.779524,0.239591,100.7 -69.779073,0.239789,101.6 -69.778526,0.240117,102.9 -69.778337,0.240206,103.1 -69.778057,0.240265,103.1 -69.777918,0.240276,103.7 -69.777774,0.240273,102.8 -69.777639,0.24025,103.7 -69.777428,0.240194,104.3 -69.776941,0.240031,103.2 -69.776737,0.239949,104.1 -69.776343,0.239767,104.8 -69.776141,0.239689,103.7 -69.775932,0.239625,103.4 -69.775653,0.23957,102.5 -69.77544,0.239576,102.6 -69.775233,0.23964,102.2 -69.775042,0.239738,100.9 -69.774575,0.240072,103.8 -69.774149,0.240334,103.7 -69.77381,0.240603,103.6 -69.773305,0.240904,104.3 -69.773115,0.240993,104.8 -69.772917,0.241058,106.0 -69.772709,0.241097,105.2 -69.772499,0.241079,103.8 -69.772377,0.241026,103.1 -69.77233,0.240993,103.7 -69.772284,0.240939,103.1 -69.772221,0.240827,102.8 -69.772195,0.2407,102.7 -69.772192,0.240631,102.6 -69.772143,0.240428,102.6 -69.77207,0.239999,102.7 -69.771921,0.239525,101.4 -69.771874,0.239323,102.7 -69.771822,0.239184,101.8 -69.771788,0.239049,102.2 -69.771768,0.238907,102.3 -69.771746,0.238479,102.7 -69.77171,0.238265,101.9 -69.771662,0.238064,102.6 -69.771337,0.237047,101.2 -69.771112,0.236287,102.1 -69.771057,0.236148,102.8 -69.77093,0.235738,102.8 -69.770845,0.235538,103.4 -69.770687,0.235223,103.0 -69.770567,0.235051,103.0 -69.770478,0.234946,103.1 -69.770323,0.234803,103.0 -69.770207,0.234738,103.5 -69.770004,0.234661,103.1 -69.769826,0.234656,103.0 -69.769691,0.234681,103.3 -69.76962,0.234677,104.0 -69.769492,0.234692,103.9 -69.769415,0.23469,104.2 -69.769211,0.23472,104.0 -69.769074,0.23472,104.8 -69.768869,0.234742,103.7 -69.768588,0.234752,104.2 -69.767502,0.234854,103.6 -69.767211,0.23489,103.6 -69.767146,0.234911,103.2 -69.766871,0.234963,103.8 -69.766801,0.234967,104.3 -69.766449,0.235031,104.0 -69.766285,0.23503,103.5 -69.765793,0.235123,103.5 -69.765656,0.235157,103.5 -69.764935,0.235288,103.2 -69.764644,0.235332,102.5 -69.764088,0.235459,103.0 -69.763823,0.235539,103.1 -69.763754,0.235548,103.0 -69.76348,0.23562,102.4 -69.762866,0.235803,103.9 -69.762133,0.23608,104.2 -69.761715,0.236195,103.9 -69.761106,0.236399,104.1 -69.760132,0.236667,102.7 -69.759447,0.236878,102.8 -69.759105,0.236996,102.2 -69.758853,0.237113,102.6 -69.757907,0.237591,103.7 -69.757346,0.23791,103.6 -69.756557,0.238414,103.0 -69.756321,0.238581,102.2 -69.755922,0.238886,102.8 -69.755803,0.238961,102.4 -69.755679,0.239022,103.3 -69.755472,0.239098,102.4 -69.755323,0.239118,101.3 -69.755184,0.239111,101.0 -69.755118,0.23909,100.9 -69.755059,0.239057,100.9 -69.75497,0.238975,100.7 -69.754913,0.238868,100.9 -69.754884,0.23875,100.7 -69.754889,0.238622,100.8 -69.754955,0.2383,100.1 -69.755061,0.237659,99.6 -69.755156,0.236946,99.6 -69.755177,0.23673,99.3 -69.755203,0.235929,98.9 -69.75527,0.235713,98.3 -69.755253,0.235634,98.0 -69.755199,0.235573,99.1 -69.755157,0.23556,98.0 -69.755114,0.235568,98.0 -69.755087,0.235601,98.0 -69.755096,0.235702,98.0 -69.755268,0.236209,100.0 -69.755319,0.236421,100.0 -69.755352,0.236667,102.0 -69.755353,0.236686,100.0 -69.755385,0.236546,105.0 -69.755405,0.236539,105.0 -69.755396,0.236502,105.0 -69.755257,0.236375,104.0 -69.755201,0.236251,104.7 -69.755172,0.236098,104.9 -69.755159,0.235638,102.8 -69.755166,0.235367,102.6 -69.755225,0.234833,103.1 -69.755291,0.234403,103.6 -69.755472,0.233731,103.9 -69.755582,0.23337,104.0 -69.755822,0.232656,104.8 -69.756085,0.232007,105.8 -69.75615,0.231762,104.7 -69.756314,0.231345,104.3 -69.756434,0.23099,104.5 -69.756531,0.230616,104.3 -69.756613,0.230243,104.0 -69.75667,0.22987,103.9 -69.756676,0.229616,103.7 -69.75663,0.229372,103.8 -69.756586,0.229259,103.6 -69.756485,0.229115,104.0 -69.756352,0.229002,104.1 -69.75625,0.228948,104.4 -69.756139,0.228915,104.7 -69.755962,0.228893,104.6 -69.755724,0.228899,105.2 -69.7555,0.228955,106.2 -69.755333,0.229024,107.2 -69.75523,0.229088,107.3 -69.75514,0.229169,107.6 -69.754844,0.229487,109.0 -69.75451,0.229937,108.8 -69.754384,0.230082,108.7 -69.753944,0.230541,107.3 -69.753702,0.230841,107.2 -69.753553,0.231049,106.8 -69.75343,0.231193,107.0 -69.753005,0.231582,106.1 -69.75285,0.231703,105.5 -69.75226,0.232208,104.1 -69.751881,0.232549,104.0 -69.751525,0.23283,103.6 -69.751334,0.233001,103.9 -69.750806,0.233565,104.1 -69.750434,0.234014,104.8 -69.749701,0.234833,103.8 -69.749415,0.235176,104.0 -69.749152,0.235539,104.2 -69.748903,0.235988,103.7 -69.748577,0.236625,101.8 -69.748451,0.236851,101.5 -69.748337,0.237008,101.7 -69.748196,0.237144,101.9 -69.748044,0.23726,101.6 -69.747765,0.237418,101.7 -69.747642,0.237467,101.9 -69.747456,0.237521,102.2 -69.746888,0.23763,103.1 -69.745751,0.237771,103.5 -69.744859,0.237814,103.4 -69.743924,0.23781,103.0 -69.743725,0.237838,102.7 -69.743555,0.237896,100.0 -69.743491,0.237963,100.0 -69.743438,0.238063,100.0 -69.743431,0.238173,100.0 -69.743454,0.238247,102.2 -69.743483,0.238278,102.0 -69.743581,0.238348,102.0 -69.743633,0.238368,100.0 -69.743493,0.238282,102.0 -69.743453,0.238233,102.0 -69.74342,0.238117,91.0 -69.743385,0.238154,88.0 -69.743397,0.238114,98.0 -69.74342,0.238086,106.0 -69.743408,0.238097,102.0 -69.743418,0.238153,104.0 -69.743456,0.238213,105.0 -69.743624,0.238375,102.0 -69.743671,0.238396,104.0 -69.743615,0.238396,100.0 -69.743637,0.238382,104.9 -69.743605,0.238394,100.0 -69.743675,0.238399,96.0 -69.743641,0.238372,104.0 -69.743587,0.238386,104.8 -69.743639,0.23842,102.0 -69.743672,0.238399,99.0 -69.743589,0.238434,96.0 -69.743634,0.238413,105.0 -69.743677,0.238408,104.0 -69.743842,0.238415,102.0 -69.744011,0.238398,102.0 -69.744166,0.238368,101.0 -69.74424,0.238386,102.0 -69.744261,0.238417,102.0 -69.744269,0.238454,102.0 -69.744264,0.238523,100.0 -69.744248,0.238555,99.0 -69.744129,0.238658,100.9 -69.744043,0.238688,100.0 -69.744008,0.23871,99.0 -69.7438,0.238882,99.0 -69.743605,0.238985,102.0 -69.743534,0.238999,102.0 -69.7434,0.238988,102.0 -69.7433,0.239007,99.0 -69.743271,0.239031,100.0 -69.743254,0.239063,99.0 -69.743252,0.239096,100.0 -69.743308,0.239332,99.0 -69.743354,0.239392,99.0 -69.743452,0.239473,100.8 -69.743748,0.239645,102.0 -69.743858,0.239741,102.0 -69.743795,0.239681,98.0 -69.743759,0.239637,94.0 -69.743764,0.239703,103.0 -69.743734,0.239608,100.0 -69.74366,0.239624,102.0 -69.743627,0.23961,102.0 -69.743395,0.239454,104.0 -69.743372,0.239423,104.0 -69.743322,0.239307,102.0 -69.743285,0.239165,102.0 -69.743277,0.239076,100.0 -69.743293,0.239037,99.0 -69.743323,0.23901,99.0 -69.74336,0.238997,100.0 -69.743518,0.239018,100.0 -69.743672,0.238993,100.0 -69.743744,0.238956,100.0 -69.743924,0.238792,102.0 -69.744163,0.238646,102.0 -69.744242,0.238559,102.0 -69.744256,0.238484,102.0 -69.744245,0.238444,102.0 -69.7442,0.238376,102.0 -69.744168,0.238362,102.0 -69.744091,0.238357,102.0 -69.743899,0.238399,102.0 -69.743791,0.23841,104.0 -69.743636,0.2384,104.6 -69.743608,0.238385,104.0 -69.743587,0.238344,103.0 -69.743528,0.238283,104.0 -69.743504,0.238243,102.0 -69.743468,0.238117,104.0 -69.743472,0.238081,104.0 -69.743544,0.237887,102.0 -69.743547,0.237851,102.0 -69.743505,0.237788,100.0 -69.743445,0.237734,98.0 -69.743435,0.237707,100.0 -69.743383,0.237728,100.0 -69.743405,0.237786,95.0 -69.74338,0.237791,104.0 -69.74341,0.237814,105.0 -69.744147,0.237798,106.5 -69.744423,0.237774,104.8 -69.744622,0.2378,103.7 -69.74512,0.237794,102.9 -69.745734,0.237758,101.4 -69.746619,0.23765,102.5 -69.747576,0.237454,104.3 -69.747732,0.237401,102.7 -69.747952,0.237302,103.5 -69.748089,0.237219,102.7 -69.748215,0.23712,102.8 -69.748329,0.237007,102.8 -69.748576,0.236686,101.4 -69.74871,0.236483,100.9 -69.749083,0.235754,99.8 -69.749306,0.235414,99.5 -69.749587,0.235019,99.5 -69.749741,0.234828,99.4 -69.750847,0.233644,100.3 -69.751311,0.233183,100.3 -69.751816,0.23264,100.6 -69.752244,0.232259,101.0 -69.752692,0.231902,102.0 -69.752935,0.23168,101.9 -69.7531,0.2315,102.2 -69.753362,0.231185,102.4 -69.753987,0.230533,101.6 -69.754482,0.229983,101.1 -69.754791,0.229602,101.6 -69.75503,0.229264,102.1 -69.755079,0.22914,102.0 -69.75508,0.229107,98.0 -69.75502,0.229115,104.0 -69.755074,0.229022,107.0 -69.755104,0.229019,110.0 -69.755141,0.22899,111.0 -69.755177,0.228977,112.0 -69.755495,0.228909,113.4 -69.755667,0.228904,112.2 -69.755773,0.228913,111.6 -69.756085,0.228893,109.6 -69.756161,0.2289,109.3 -69.756315,0.228938,108.0 -69.756378,0.228931,107.3 -69.756406,0.22894,106.0 -69.756438,0.228978,104.0 -69.756415,0.229013,105.0 -69.756379,0.229016,105.0 -69.756264,0.228989,105.0 -69.7562,0.229005,103.0 -69.756122,0.228995,106.0 -69.756051,0.228971,99.0 -69.755992,0.228925,103.0 -69.755957,0.228931,108.0 -69.755962,0.228956,108.7 -69.755899,0.228962,108.0 -69.755887,0.228985,108.0 -69.755891,0.229035,107.0 -69.755907,0.228971,106.0 -69.755931,0.228928,109.0 -69.755939,0.228867,104.0 -69.755945,0.228904,105.0 -69.755978,0.228913,110.0 -69.755983,0.228946,111.2 -69.755983,0.228895,111.4 -69.755968,0.228916,107.0 -69.755949,0.228876,108.0 -69.755873,0.228858,114.9 -69.755928,0.228793,114.5 -69.755912,0.22892,109.0 -69.755895,0.228897,104.0 -69.755905,0.228857,114.0 -69.755914,0.228918,113.0 -69.755948,0.228945,114.0 -69.755962,0.22901,112.0 -69.755986,0.229041,110.0 -69.755948,0.229045,111.0 -69.755944,0.229096,111.0 -69.755969,0.229092,112.0 -69.755948,0.229157,110.0 -69.755876,0.229119,111.0 -69.755923,0.229167,114.0 -69.756002,0.229153,111.2 -69.75599,0.229131,108.0 -69.756018,0.229139,110.0 -69.755985,0.229107,112.4 -69.756013,0.229081,112.0 -69.756028,0.229001,112.0 -69.756011,0.228967,108.0 -69.755975,0.229002,113.1 -69.755973,0.228952,111.0 -69.755939,0.228919,112.8 -69.755947,0.229058,112.0 -69.75602,0.229095,111.0 -69.756033,0.229142,112.0 -69.756128,0.229198,112.0 -69.756013,0.229177,112.0 -69.755943,0.229114,112.0 -69.755934,0.229063,110.0 -69.75599,0.229119,111.0 -69.75609,0.229031,112.0 -69.756045,0.22902,110.0 -69.756024,0.228971,113.5 -69.756002,0.229009,112.0 -69.756041,0.22903,110.0 -69.75592,0.229032,111.0 -69.755925,0.228971,112.9 -69.755958,0.228982,112.8 -69.755914,0.228965,111.0 -69.755949,0.229037,111.7 -69.755901,0.229019,111.9 -69.755886,0.228903,112.0 -69.755903,0.228916,112.0 -69.755957,0.228837,112.0 -69.755982,0.228856,112.0 -69.755918,0.228891,112.0 -69.755932,0.228932,111.0 -69.755931,0.228894,112.0 -69.756016,0.228984,114.0 -69.75597,0.228968,114.0 -69.755984,0.229006,112.0 -69.755738,0.229036,114.1 -69.75574,0.229006,114.2 -69.755777,0.229013,113.0 -69.755803,0.228978,112.0 -69.755838,0.22897,113.0 -69.755867,0.22899,112.0 -69.756002,0.229044,111.0 -69.75605,0.229083,111.0 -69.755923,0.228854,111.0 -69.75594,0.228802,111.0 -69.755936,0.22884,112.1 -69.755928,0.228809,112.0 -69.75602,0.228782,113.0 -69.756008,0.228863,112.0 -69.756019,0.228963,111.0 -69.755999,0.228994,112.0 -69.755957,0.229028,112.0 -69.756002,0.229077,112.3 -69.756015,0.22904,112.0 -69.755961,0.228954,110.0 -69.756006,0.228916,111.9 -69.756227,0.228886,111.8 -69.756301,0.228948,111.8 -69.756323,0.228909,110.0 -69.756317,0.228961,111.4 -69.756489,0.229092,110.5 -69.756528,0.229155,111.0 -69.756566,0.229186,109.9 -69.756609,0.229256,110.7 -69.756622,0.229357,109.0 -69.75662,0.229569,109.1 -69.756635,0.229623,109.1 -69.75664,0.229724,109.1 -69.756627,0.2298,108.9 -69.756631,0.229862,108.9 -69.756613,0.229918,108.2 -69.756624,0.229973,108.2 -69.756597,0.230179,108.2 -69.756614,0.230412,108.7 -69.756597,0.230577,107.9 -69.756531,0.230653,108.5 -69.756502,0.230836,108.1 -69.756407,0.230985,108.0 -69.756351,0.231128,107.6 -69.756317,0.231146,108.6 -69.756266,0.231306,108.1 -69.756229,0.231387,108.4 -69.756212,0.231471,108.4 -69.756111,0.231779,107.3 -69.756076,0.231857,108.3 -69.756068,0.231916,107.6 -69.756008,0.232059,106.5 -69.755909,0.232381,106.4 -69.755779,0.232705,107.3 -69.755705,0.232855,107.4 -69.75568,0.233003,107.0 -69.755571,0.233291,107.2 -69.755473,0.233685,107.0 -69.755417,0.233846,107.4 -69.755303,0.23433,106.5 -69.755246,0.234641,105.5 -69.755215,0.234888,106.0 -69.755203,0.235368,105.4 -69.755206,0.235859,104.7 -69.755161,0.236574,103.0 -69.755076,0.237239,104.0 -69.755058,0.237492,103.6 -69.755028,0.237647,103.6 -69.755005,0.237897,103.4 -69.75498,0.238051,103.1 -69.754896,0.238379,103.1 -69.754866,0.238621,103.6 -69.754874,0.23884,103.7 -69.754916,0.238996,103.1 -69.754956,0.239055,103.5 -69.755124,0.239251,105.6 -69.755205,0.239301,106.0 -69.755345,0.23935,104.9 -69.755406,0.239354,104.9 -69.755551,0.239341,104.8 -69.755719,0.239216,104.0 -69.755909,0.238983,104.3 -69.756082,0.238818,104.1 -69.756329,0.238631,105.0 -69.756388,0.238576,104.9 -69.756472,0.238532,105.2 -69.756596,0.238427,105.5 -69.756888,0.238299,105.5 -69.75701,0.238211,105.2 -69.757163,0.238123,105.7 -69.757593,0.237838,106.3 -69.757692,0.237734,105.9 -69.757908,0.237587,106.2 -69.758065,0.237513,105.9 -69.758257,0.237382,106.2 -69.758604,0.237184,105.9 -69.760211,0.236671,107.6 -69.760877,0.236543,107.3 -69.762306,0.236005,107.6 -69.762524,0.235947,107.5 -69.762588,0.235911,108.2 -69.762667,0.235901,108.0 -69.762802,0.235846,107.6 -69.763923,0.235573,108.2 -69.764144,0.235507,107.9 -69.764543,0.235419,107.3 -69.764612,0.235394,107.3 -69.764701,0.235383,107.0 -69.764775,0.235352,107.2 -69.764936,0.235338,107.1 -69.765014,0.23531,107.5 -69.766019,0.235074,106.8 -69.766273,0.235029,107.1 -69.766418,0.234979,106.9 -69.76651,0.234989,107.0 -69.766669,0.234954,107.3 -69.767095,0.23492,108.1 -69.76717,0.234901,107.6 -69.767433,0.234891,107.0 -69.767672,0.234862,108.4 -69.767838,0.234854,107.7 -69.76792,0.23486,108.1 -69.768066,0.23483,107.6 -69.768218,0.234812,106.9 -69.768465,0.234801,107.2 -69.768954,0.234737,107.2 -69.769204,0.234745,107.4 -69.769455,0.234713,107.3 -69.769539,0.234718,107.0 -69.769708,0.2347,106.8 -69.769793,0.234701,107.6 -69.769956,0.234677,107.8 -69.770199,0.234694,108.3 -69.770391,0.234834,107.2 -69.770515,0.23495,106.9 -69.770619,0.235079,106.7 -69.770705,0.235225,106.9 -69.77079,0.235429,105.9 -69.771096,0.236346,105.8 -69.771216,0.236835,107.4 -69.771315,0.237144,106.8 -69.771488,0.237772,106.3 -69.771517,0.237843,105.9 -69.771543,0.237981,106.1 -69.771595,0.238124,106.2 -69.771693,0.238521,106.1 -69.771705,0.238601,105.8 -69.77173,0.238678,105.8 -69.771729,0.238761,106.5 -69.771764,0.238845,106.5 -69.771766,0.238916,105.5 -69.771784,0.238998,105.4 -69.771821,0.239076,106.0 -69.771822,0.23916,105.9 -69.771853,0.239242,106.1 -69.771888,0.239391,106.1 -69.771956,0.239528,106.1 -69.772,0.23968,105.6 -69.772049,0.239901,106.4 -69.772064,0.240057,105.2 -69.772131,0.240299,106.5 -69.772182,0.240596,105.9 -69.772213,0.240668,105.2 -69.772249,0.24082,105.6 -69.772302,0.240967,105.9 -69.772347,0.241018,105.2 -69.772505,0.241147,105.4 -69.772699,0.241202,104.6 -69.772844,0.241201,104.4 -69.772976,0.241162,104.3 -69.773255,0.24103,104.6 -69.773422,0.240873,104.5 -69.773484,0.240846,104.5 -69.773643,0.240689,104.5 -69.773874,0.240522,104.7 -69.773939,0.240493,105.1 -69.774101,0.240357,105.2 -69.77417,0.240325,105.4 -69.774415,0.24017,104.2 -69.774803,0.239978,104.4 -69.774883,0.239872,103.5 -69.775163,0.23965,104.4 -69.775239,0.239628,104.4 -69.775375,0.239569,104.2 -69.775498,0.23954,104.3 -69.775568,0.239552,104.6 -69.77575,0.239607,103.5 -69.775808,0.23961,103.7 -69.775933,0.239653,103.9 -69.776019,0.239666,104.1 -69.776338,0.239773,104.0 -69.776389,0.239798,103.4 -69.776467,0.239803,104.5 -69.776775,0.239889,104.4 -69.777017,0.23998,104.7 -69.777311,0.240115,104.6 -69.777372,0.24013,104.8 -69.77744,0.240166,104.6 -69.777564,0.240211,104.7 -69.777888,0.240271,104.9 -69.778021,0.240268,104.9 -69.778135,0.240235,105.2 -69.778407,0.24019,105.1 -69.778467,0.240132,105.0 -69.778531,0.240108,106.1 -69.778642,0.240027,105.5 -69.778755,0.239966,104.5 -69.778919,0.239836,104.2 -69.779157,0.239711,104.0 -69.779212,0.239668,104.1 -69.779332,0.239603,104.6 -69.77965,0.239497,104.4 -69.779914,0.239461,103.9 -69.780047,0.239469,103.8 -69.780179,0.239492,104.0 -69.780309,0.239531,103.8 -69.780483,0.23963,104.4 -69.780587,0.239714,104.2 -69.780735,0.239858,104.3 -69.781024,0.240233,102.9 -69.781248,0.240585,102.2 -69.781307,0.24071,102.1 -69.781406,0.240967,101.5 -69.781462,0.241161,101.0 -69.781519,0.241426,101.3 -69.781601,0.241894,102.2 -69.781612,0.242033,102.5 -69.781781,0.242733,103.1 -69.781853,0.242944,103.0 -69.781917,0.243099,101.6 -69.782062,0.243559,101.1 -69.782295,0.244174,100.7 -69.782498,0.244609,99.8 -69.78271,0.244953,100.1 -69.783601,0.246317,100.7 -69.78436,0.247568,101.3 -69.784522,0.247847,101.4 -69.784979,0.248695,99.7 -69.785212,0.249091,99.0 -69.785288,0.249248,98.6 -69.785396,0.249578,97.0 -69.785403,0.249677,98.0 -69.785458,0.249867,99.0 -69.785471,0.249986,68.0 -69.785435,0.25004,100.0 -69.785431,0.250105,102.0 -69.785395,0.250196,100.0 -69.785345,0.250386,105.0 -69.785271,0.25057,108.0 -69.785263,0.25065,108.0 -69.785318,0.250718,111.0 -69.785369,0.250752,113.0 -69.785451,0.250842,114.0 -69.78551,0.250929,112.0 -69.785524,0.250962,112.0 -69.785494,0.251045,110.0 -69.785502,0.251124,111.0 -69.785554,0.251291,110.0 -69.785618,0.251406,114.0 -69.785714,0.251521,113.0 -69.785811,0.251618,111.0 -69.786014,0.251772,112.0 -69.786123,0.251869,111.0 -69.786218,0.251981,114.0 -69.786322,0.252084,116.0 -69.786468,0.252312,114.0 -69.786615,0.252446,114.0 -69.786733,0.252523,114.0 -69.786821,0.252561,115.0 -69.787127,0.252661,111.0 -69.787536,0.252725,108.0 -69.787709,0.252736,108.0 -69.787743,0.252696,108.0 -69.787738,0.252727,108.0 -69.787624,0.252751,93.0 -69.787636,0.252745,102.0 -69.787614,0.25271,98.0 -69.787569,0.252706,100.0 -69.787669,0.252731,102.0 -69.787705,0.252828,96.0 -69.787664,0.252739,105.0 -69.787629,0.252714,101.0 -69.787597,0.252719,103.0 -69.787604,0.252695,99.0 -69.787706,0.252728,102.0 -69.787705,0.252794,104.0 -69.787639,0.252758,104.9 -69.787687,0.252783,103.0 -69.787716,0.252736,104.0 -69.787716,0.252776,105.0 -69.78776,0.252879,105.0 -69.787822,0.252917,106.8 -69.787814,0.252892,107.0 -69.787774,0.252844,108.0 -69.787785,0.252816,105.0 -69.787782,0.252839,105.0 -69.787685,0.252843,104.0 -69.787727,0.252844,104.0 -69.787717,0.25282,104.0 -69.787734,0.252799,105.0 -69.7877,0.252808,103.0 -69.787714,0.252775,104.0 -69.787774,0.252749,105.0 -69.788021,0.252822,108.0 -69.788136,0.252881,106.0 -69.788482,0.252943,105.0 -69.788644,0.252998,104.0 -69.788858,0.253041,104.0 -69.788946,0.253039,105.0 -69.789015,0.253023,105.0 -69.789177,0.252939,108.0 -69.789564,0.252791,111.0 -69.789591,0.252754,110.0 -69.789591,0.252704,105.0 -69.789621,0.252695,104.0 -69.789644,0.252719,109.0 -69.789655,0.252653,108.0 -69.789675,0.252679,108.0 -69.789652,0.252658,108.0 -69.789619,0.252654,108.0 -69.789595,0.252601,105.0 -69.789564,0.252568,90.0 -69.789563,0.252597,105.0 -69.789623,0.252566,105.5</coordinates>
                </LineString>
            </MultiGeometry>
        </Placemark>
    </Document>
</kml>
