<?xml version="1.0" encoding="UTF-8"?>
<kml xmlns="http://www.opengis.net/kml/2.2" xmlns:gx="http://www.google.com/kml/ext/2.2">
    <Document id="1">
        <Style id="10">
            <IconStyle id="11">
                <colorMode>normal</colorMode>
                <scale>1</scale>
                <heading>0</heading>
                <Icon id="12">
                    <href>red-pin-down.png</href>
                </Icon>
            </IconStyle>
        </Style>
        <Style id="15">
            <IconStyle id="16">
                <colorMode>normal</colorMode>
                <scale>1</scale>
                <heading>0</heading>
                <Icon id="17">
                    <href>red-pin-down.png</href>
                </Icon>
            </IconStyle>
        </Style>
        <Placemark id="3">
            <Style id="6">
                <LineStyle id="7">
                    <color>ff1024F4</color>
                    <colorMode>normal</colorMode>
                    <width>1</width>
                </LineStyle>
            </Style>
            <name>São Pedro até parkia </name>
            <description/>
            <MultiGeometry id="2">
                <LineString id="4">
                    <extrude>0</extrude>
                    <altitudeMode>clampToGround</altitudeMode>
                    <coordinates>-69.975126,0.26847,132.9 -69.975125,0.268489,133.3 -69.975138,0.268493,133.8 -69.975335,0.268442,134.0 -69.975484,0.268469,135.0 -69.975531,0.268489,134.0 -69.975664,0.268476,138.0 -69.975696,0.268458,138.0 -69.975812,0.268456,141.0 -69.975963,0.26848,142.0 -69.976023,0.268524,141.0 -69.976145,0.268561,144.0 -69.976272,0.26864,144.0 -69.976312,0.268648,143.0 -69.976376,0.268634,140.0 -69.976488,0.268654,144.0 -69.976521,0.268644,143.0 -69.976586,0.26859,144.0 -69.976626,0.268602,142.0 -69.976792,0.268613,140.0 -69.976887,0.268585,140.0 -69.976939,0.268548,143.0 -69.976972,0.26854,144.0 -69.977002,0.268551,144.0 -69.977014,0.26862,144.0 -69.977057,0.268615,144.0 -69.977092,0.268581,147.0 -69.977149,0.268571,147.0 -69.977277,0.268594,152.0 -69.977302,0.268617,154.0 -69.97734,0.268615,155.0 -69.977428,0.268693,156.0 -69.977547,0.268736,159.0 -69.977594,0.268788,157.0 -69.977668,0.268798,159.0 -69.977849,0.268724,156.0 -69.977928,0.268629,156.0 -69.978117,0.26851,148.0 -69.978128,0.268475,156.3 -69.978185,0.26841,152.0 -69.978254,0.268471,154.0 -69.978344,0.268463,156.0 -69.978363,0.268431,156.0 -69.978427,0.268407,156.0 -69.978456,0.268327,156.0 -69.978432,0.268303,156.0 -69.978432,0.268271,156.0 -69.978474,0.268201,156.0 -69.978517,0.268098,157.0 -69.97857,0.268043,158.0 -69.978604,0.268031,156.0 -69.97863,0.267957,157.0 -69.978663,0.267922,156.0 -69.978698,0.267857,157.0 -69.978702,0.267825,158.0 -69.978835,0.267719,159.0 -69.978883,0.267714,159.0 -69.978975,0.267608,160.0 -69.979097,0.267524,161.0 -69.979168,0.267497,160.0 -69.979264,0.267406,160.8 -69.979421,0.267296,155.0 -69.979498,0.267322,155.0 -69.979607,0.267307,152.0 -69.979667,0.267219,150.0 -69.979935,0.267204,149.1 -69.979955,0.267213,148.0 -69.980059,0.267183,144.0 -69.980292,0.267229,138.0 -69.980362,0.267208,140.0 -69.980311,0.267209,138.0 -69.980348,0.267235,135.0 -69.980334,0.267195,138.0 -69.980302,0.267207,141.0 -69.980275,0.267253,140.0 -69.980317,0.267239,141.0 -69.98035,0.267205,132.0 -69.980363,0.267224,142.0 -69.980327,0.267267,141.0 -69.980286,0.267268,140.0 -69.980265,0.267194,135.0 -69.980291,0.26717,140.0 -69.980325,0.267192,138.0 -69.980309,0.267243,139.0 -69.980303,0.267206,140.0 -69.980278,0.26721,140.0 -69.980324,0.267213,132.0 -69.980333,0.267183,138.0 -69.980368,0.267151,140.0 -69.980384,0.267214,138.0 -69.980349,0.267228,138.0 -69.98039,0.267204,140.0 -69.980388,0.267265,138.0 -69.980347,0.26726,140.0 -69.980347,0.267226,141.4 -69.980321,0.267245,140.0 -69.980276,0.267253,141.6 -69.980275,0.267284,140.0 -69.980234,0.267328,142.0 -69.980293,0.267222,141.0 -69.980266,0.267253,141.0 -69.980314,0.267252,140.0 -69.980315,0.267218,139.0 -69.980281,0.267165,137.0 -69.98031,0.267232,140.0 -69.980313,0.267224,140.0 -69.980383,0.267183,141.0 -69.980304,0.267283,141.0 -69.980262,0.267298,143.0 -69.980288,0.267276,140.0 -69.98026,0.267277,138.0 -69.980293,0.267269,140.0 -69.980277,0.267242,126.0 -69.98031,0.267238,141.3 -69.980348,0.267189,141.0 -69.980385,0.267172,140.0 -69.980355,0.267166,140.0 -69.98032,0.267194,140.0 -69.980348,0.26716,135.0 -69.980312,0.267242,128.0 -69.98031,0.267277,132.0 -69.980236,0.267261,140.0 -69.98028,0.267317,141.3 -69.980303,0.267317,140.0 -69.980277,0.267279,143.3 -69.98031,0.267282,137.0 -69.98037,0.267242,139.9 -69.980351,0.267217,136.0 -69.980393,0.267189,135.0 -69.980354,0.26721,133.0 -69.980354,0.267162,140.0 -69.980329,0.267212,139.0 -69.980278,0.267233,138.0 -69.980258,0.267256,142.0 -69.980376,0.267291,142.0 -69.980363,0.26725,136.0 -69.980378,0.267189,138.7 -69.980387,0.267262,138.0 -69.98033,0.267232,140.0 -69.980349,0.267149,139.0 -69.980376,0.267154,139.0 -69.98037,0.26715,137.0 -69.980386,0.267154,140.0 -69.980362,0.267194,140.8 -69.980396,0.26724,136.0 -69.980388,0.267206,140.0 -69.980324,0.267161,139.0 -69.980355,0.267246,141.0 -69.980389,0.267263,140.0 -69.980358,0.267264,140.0 -69.980367,0.267208,140.0 -69.980378,0.267269,140.0 -69.98033,0.267202,140.0 -69.980385,0.267246,128.0 -69.980353,0.267235,142.0 -69.980302,0.267237,141.0 -69.980285,0.267203,140.0 -69.980253,0.26724,132.0 -69.980284,0.267272,141.0 -69.980261,0.267208,139.0 -69.980315,0.267306,140.0 -69.98034,0.26725,143.5 -69.980298,0.267227,137.0 -69.980249,0.267217,140.0 -69.980329,0.267281,140.0 -69.980308,0.267334,141.0 -69.980287,0.267302,138.0 -69.980279,0.267259,133.0 -69.980285,0.267227,138.0 -69.980263,0.267202,140.5 -69.980317,0.267212,137.0 -69.9803,0.267159,141.0 -69.980289,0.267236,140.0 -69.980308,0.267261,140.0 -69.980311,0.267238,138.0 -69.980322,0.267308,140.0 -69.980363,0.26731,141.0 -69.980362,0.267261,140.0 -69.980307,0.267261,135.0 -69.980324,0.267228,141.9 -69.980318,0.267193,141.0 -69.980298,0.267228,140.0 -69.980337,0.267197,140.0 -69.980327,0.267237,137.0 -69.980352,0.267242,141.2 -69.980317,0.267231,136.0 -69.980337,0.267281,136.0 -69.980368,0.26729,136.0 -69.980439,0.267347,141.0 -69.980409,0.267335,140.0 -69.980381,0.267302,142.0 -69.980455,0.267306,140.0 -69.980432,0.267273,140.0 -69.980373,0.267253,138.0 -69.980409,0.267252,140.1 -69.98033,0.267196,140.0 -69.980308,0.267228,138.0 -69.980268,0.267211,138.0 -69.980237,0.267236,136.0 -69.980269,0.267255,133.0 -69.980287,0.267295,140.0 -69.980246,0.267286,140.0 -69.980224,0.267247,139.0 -69.980167,0.267291,125.0 -69.980197,0.267211,142.5 -69.980225,0.267189,142.2 -69.980261,0.267213,142.0 -69.980332,0.267194,140.0 -69.980354,0.267229,137.0 -69.980281,0.267244,141.0 -69.980331,0.267267,139.0 -69.980352,0.267261,140.0 -69.980352,0.267229,140.0 -69.980311,0.267199,135.0 -69.98038,0.267269,140.0 -69.980384,0.26722,136.0 -69.980414,0.267242,140.1 -69.98045,0.267245,140.3 -69.980432,0.267208,140.0 -69.980497,0.267171,139.7 -69.98059,0.267193,138.0 -69.980516,0.267139,138.0 -69.980548,0.267162,138.0 -69.980624,0.267175,136.0 -69.980616,0.267141,137.0 -69.980651,0.267153,132.0 -69.980672,0.267126,136.0 -69.980687,0.267082,135.0 -69.980747,0.267043,133.0 -69.980748,0.266997,136.0 -69.980728,0.266974,135.0 -69.980802,0.267022,126.0 -69.980848,0.267,139.0 -69.980792,0.267006,140.0 -69.980859,0.267011,140.0 -69.980871,0.267036,138.0 -69.980827,0.266989,141.5 -69.980893,0.266993,136.0 -69.980908,0.267013,138.0 -69.980858,0.267002,140.0 -69.980915,0.267037,140.0 -69.980889,0.266992,140.0 -69.980785,0.26691,138.0 -69.980853,0.266971,140.7 -69.980862,0.267011,138.0 -69.980861,0.266956,138.0 -69.980812,0.266939,140.0 -69.980864,0.266995,141.0 -69.980859,0.267042,140.0 -69.9809,0.267069,140.0 -69.980799,0.26701,136.0 -69.980711,0.266986,140.0 -69.98073,0.267051,137.0 -69.980767,0.266944,136.0 -69.980792,0.266977,140.0 -69.980743,0.266974,134.0 -69.980744,0.266921,140.9 -69.980772,0.266935,141.1 -69.980761,0.266877,140.0 -69.980744,0.266911,140.0 -69.980749,0.266973,140.0 -69.980737,0.267001,140.0 -69.980753,0.26703,140.0 -69.980802,0.267007,138.0 -69.980827,0.266978,140.0 -69.980843,0.266939,140.0 -69.98082,0.266974,140.0 -69.980783,0.266937,130.0 -69.980823,0.266955,140.0 -69.980778,0.266965,140.0 -69.980781,0.267019,140.0 -69.980753,0.266994,140.0 -69.980804,0.267049,128.0 -69.980717,0.267014,138.0 -69.98078,0.267055,133.0 -69.980778,0.266985,140.0 -69.980792,0.267016,120.0 -69.980813,0.26706,138.0 -69.980823,0.266987,140.0 -69.980849,0.26702,133.0 -69.98085,0.266983,142.0 -69.980908,0.267067,142.7 -69.980874,0.267049,138.0 -69.980887,0.267085,126.0 -69.980936,0.267092,141.0 -69.980946,0.267123,140.0 -69.980911,0.267137,142.0 -69.980891,0.267158,142.0 -69.980931,0.26731,141.0 -69.981098,0.267354,142.0 -69.981118,0.267404,144.0 -69.981252,0.267406,144.0 -69.981229,0.267491,142.0 -69.981286,0.267487,146.9 -69.98135,0.267396,144.0 -69.981412,0.267416,146.0 -69.981497,0.267411,147.0 -69.981534,0.267427,146.0 -69.981515,0.26737,146.0 -69.981476,0.267352,146.0 -69.981508,0.267384,147.0 -69.981494,0.267326,145.0 -69.981559,0.267356,144.0 -69.98159,0.267391,147.0 -69.981655,0.267322,148.0 -69.981621,0.267348,144.0 -69.981707,0.267448,150.0 -69.981706,0.267487,147.0 -69.981736,0.267506,150.0 -69.981781,0.267446,150.5 -69.981834,0.267481,150.0 -69.981898,0.267455,152.6 -69.981974,0.267474,152.0 -69.982001,0.267502,151.0 -69.982054,0.26752,153.0 -69.982102,0.26751,152.0 -69.982243,0.267385,154.0 -69.982307,0.267389,154.0 -69.982329,0.267366,153.0 -69.98236,0.267386,154.0 -69.9824,0.267334,155.0 -69.982348,0.267318,156.6 -69.982314,0.267333,156.8 -69.982382,0.267318,153.0 -69.98244,0.267272,154.0 -69.982399,0.267278,150.0 -69.982364,0.267268,152.0 -69.982397,0.267314,152.0 -69.982425,0.267313,156.0 -69.98247,0.267244,156.0 -69.982462,0.267117,156.0 -69.982573,0.267116,158.0 -69.982605,0.267137,159.0 -69.98269,0.267152,158.0 -69.982657,0.267122,150.0 -69.982652,0.267158,160.0 -69.982662,0.267193,161.2 -69.982675,0.267149,160.0 -69.982671,0.267115,159.0 -69.982684,0.267159,159.0 -69.982721,0.267153,162.7 -69.982702,0.267182,160.0 -69.98266,0.267187,160.0 -69.9827,0.267188,157.0 -69.982816,0.26715,157.0 -69.982883,0.267152,158.0 -69.98298,0.267214,155.0 -69.983036,0.267228,157.0 -69.983066,0.26722,156.0 -69.983091,0.267197,156.0 -69.983127,0.267187,156.0 -69.983151,0.267201,155.0 -69.983267,0.267128,150.0 -69.983308,0.267073,146.0 -69.983312,0.266999,150.0 -69.983413,0.266854,150.0 -69.983541,0.266834,150.0 -69.983568,0.266818,150.0 -69.983634,0.266817,148.0 -69.983707,0.266727,148.0 -69.983749,0.26672,148.8 -69.983779,0.266669,144.0 -69.983861,0.266603,145.0 -69.983893,0.266593,144.0 -69.983967,0.266534,146.0 -69.984035,0.266509,144.0 -69.984102,0.26647,144.0 -69.984121,0.266414,140.0 -69.984301,0.266252,138.0 -69.984335,0.266193,137.0 -69.984403,0.266162,136.0 -69.98445,0.266121,136.9 -69.98453,0.266027,139.0 -69.984625,0.265968,142.0 -69.984673,0.265964,144.0 -69.98464,0.265942,133.0 -69.984695,0.26591,144.0 -69.984696,0.265938,144.0 -69.984731,0.265921,144.0 -69.984705,0.265907,144.0 -69.984657,0.265936,145.0 -69.984618,0.265983,144.0 -69.984768,0.265899,144.0 -69.984728,0.265861,140.0 -69.984769,0.265863,140.0 -69.984803,0.265876,139.0 -69.98487,0.265856,142.9 -69.984939,0.265793,141.0 -69.985007,0.265777,138.0 -69.985056,0.265737,140.0 -69.985075,0.265702,133.0 -69.985076,0.265751,143.4 -69.98496,0.265664,141.0 -69.985007,0.265709,140.0 -69.985043,0.265673,135.0 -69.985082,0.265675,141.0 -69.985065,0.265676,141.0 -69.985028,0.265638,143.0 -69.985085,0.265676,140.0 -69.985057,0.265654,140.0 -69.985076,0.265709,141.0 -69.985075,0.265702,139.0 -69.985042,0.265678,139.0 -69.985001,0.265679,132.0 -69.985018,0.265733,143.0 -69.985046,0.265724,141.0 -69.98508,0.265764,133.0 -69.985077,0.265731,142.8 -69.9851,0.265687,141.0 -69.985063,0.265666,142.0 -69.985084,0.265656,141.0 -69.985108,0.265718,138.0 -69.985091,0.265759,141.0 -69.985082,0.265733,136.0 -69.985099,0.265703,139.0 -69.985072,0.265684,140.0 -69.985057,0.265747,141.0 -69.985087,0.265739,138.0 -69.985107,0.265717,142.0 -69.985089,0.265693,139.0 -69.985,0.265719,140.0 -69.985039,0.265754,140.0 -69.985019,0.265804,140.0 -69.985061,0.265761,140.0 -69.98509,0.265714,141.0 -69.985019,0.265734,140.0 -69.984983,0.26571,132.0 -69.985021,0.265692,141.0 -69.985073,0.265636,144.0 -69.985083,0.265635,144.0 -69.985064,0.265718,140.0 -69.985089,0.265767,140.0 -69.985067,0.265808,136.0 -69.98503,0.265795,141.0 -69.985052,0.265736,141.0 -69.985027,0.265712,143.0 -69.984984,0.265717,144.0 -69.985041,0.265733,144.0 -69.985024,0.265767,144.0 -69.985052,0.265792,135.0 -69.98503,0.26583,135.0 -69.985024,0.26585,139.0 -69.985063,0.265796,144.0 -69.985027,0.265803,143.0 -69.985041,0.265772,141.0 -69.985053,0.265693,141.0 -69.985026,0.265667,135.0 -69.984998,0.265613,144.0 -69.984965,0.265673,140.0 -69.985095,0.265726,138.0 -69.985105,0.265702,141.0 -69.98507,0.265683,140.0 -69.985029,0.265702,140.0 -69.985043,0.265666,130.0 -69.985084,0.265656,139.0 -69.985096,0.265614,140.0 -69.985128,0.265588,138.0 -69.985172,0.265574,138.0 -69.985194,0.265552,135.0 -69.985247,0.265549,138.0 -69.985277,0.265518,138.0 -69.985307,0.265456,138.0 -69.985293,0.265422,138.0 -69.985326,0.265405,138.0 -69.985325,0.265435,137.0 -69.98535,0.265455,136.0 -69.985352,0.265495,136.0 -69.985378,0.265444,137.5 -69.985404,0.265424,135.0 -69.985452,0.265415,135.0 -69.985501,0.265428,136.9 -69.985458,0.265421,137.1 -69.985456,0.265398,136.0 -69.985523,0.265404,137.0 -69.985552,0.265384,135.0 -69.985612,0.265365,136.0 -69.985588,0.265343,136.0 -69.985491,0.265391,135.0 -69.985551,0.265422,130.0 -69.985492,0.26546,140.0 -69.985454,0.265445,140.0 -69.985498,0.265467,138.0 -69.98547,0.265435,138.0 -69.985551,0.265493,137.0 -69.985585,0.265468,138.0 -69.985599,0.265421,139.0 -69.985637,0.265379,140.0 -69.985621,0.265314,138.0 -69.985641,0.265267,138.0 -69.985614,0.265295,138.0 -69.98558,0.265308,133.0 -69.985576,0.265272,138.0 -69.985655,0.265254,136.0 -69.985576,0.265248,140.0 -69.98556,0.265286,137.0 -69.985529,0.265273,133.0 -69.985552,0.265302,136.0 -69.985545,0.265344,137.1 -69.985483,0.265348,132.0 -69.985517,0.265379,130.0 -69.985666,0.265343,142.5 -69.985693,0.265264,138.0 -69.985781,0.265196,140.0 -69.98579,0.265157,141.0 -69.985747,0.265148,141.0 -69.985779,0.265174,140.0 -69.985875,0.265116,144.0 -69.985854,0.265148,144.5 -69.985779,0.265137,144.0 -69.986001,0.265179,144.2 -69.986013,0.265117,144.0 -69.986074,0.265105,144.0 -69.986104,0.265113,144.0 -69.986065,0.265118,125.0 -69.986077,0.265169,144.0 -69.986121,0.265159,144.5 -69.986071,0.265159,144.0 -69.986112,0.265129,145.7 -69.986127,0.265061,146.1 -69.986374,0.264973,145.2 -69.986352,0.264945,144.5 -69.98639,0.264967,144.0 -69.986387,0.265022,137.0 -69.986428,0.264969,140.0 -69.986461,0.264903,141.0 -69.986489,0.26488,141.0 -69.986468,0.264738,141.0 -69.986504,0.264722,142.0 -69.9865,0.264762,142.9 -69.986547,0.264771,143.0 -69.986519,0.264862,144.3 -69.986503,0.264821,143.9 -69.986527,0.264788,143.6 -69.986529,0.264758,140.0 -69.986508,0.264721,141.0 -69.986517,0.264687,142.0 -69.986598,0.264566,140.0 -69.986597,0.264522,142.0 -69.98652,0.264544,142.0 -69.986507,0.264503,142.8 -69.986471,0.264479,142.8 -69.986578,0.264528,142.0 -69.986551,0.264506,141.0 -69.986556,0.264396,142.0 -69.986507,0.264336,143.0 -69.986549,0.264302,144.1 -69.986503,0.264209,143.0 -69.986535,0.264202,143.8 -69.98662,0.264206,143.0 -69.986638,0.26428,143.0 -69.986675,0.264033,141.0 -69.986601,0.263973,140.9 -69.986591,0.263999,140.0 -69.986711,0.264015,139.6 -69.986714,0.263971,138.0 -69.986677,0.263795,138.0 -69.986714,0.26371,138.4 -69.986701,0.263749,138.0 -69.986632,0.263845,138.0 -69.986784,0.263862,138.0 -69.986747,0.263835,138.0 -69.986752,0.263868,136.0 -69.986692,0.263858,136.0 -69.986743,0.263815,138.6 -69.986707,0.263741,138.9 -69.986635,0.263343,136.9 -69.986625,0.263377,136.0 -69.986585,0.263223,138.1 -69.986608,0.263259,137.8 -69.986638,0.263244,136.0 -69.986611,0.263217,135.0 -69.986703,0.263278,127.2 -69.986774,0.263254,128.2 -69.986812,0.263228,135.5 -69.986858,0.26324,135.0 -69.986795,0.263228,133.0 -69.986851,0.26319,135.0 -69.986833,0.263188,140.7 -69.986897,0.263098,142.0 -69.986992,0.263173,142.0 -69.987024,0.263096,142.0 -69.987029,0.263143,141.0 -69.986991,0.263144,141.0 -69.987024,0.263118,141.0 -69.987062,0.26312,141.9 -69.987125,0.263199,142.0 -69.987172,0.26307,144.1 -69.987208,0.26302,144.0 -69.987199,0.263073,144.7 -69.987169,0.263062,144.0 -69.987197,0.263085,144.0 -69.987346,0.263088,146.3 -69.98743,0.263025,147.9 -69.987451,0.263054,147.8 -69.987538,0.263017,148.0 -69.987538,0.263067,148.7 -69.987629,0.262972,148.0 -69.987693,0.262999,150.4 -69.987689,0.262966,148.0 -69.987753,0.262867,148.0 -69.987784,0.262917,148.0 -69.987762,0.262883,149.2 -69.987765,0.262853,148.0 -69.987807,0.262843,148.0 -69.987879,0.262782,148.0 -69.987829,0.262821,150.0 -69.987831,0.262769,147.0 -69.98782,0.262726,140.0 -69.987847,0.262712,147.0 -69.987859,0.262733,148.0 -69.987884,0.262741,146.0 -69.987967,0.262713,147.0 -69.988027,0.26272,148.8 -69.98804,0.262765,145.0 -69.988075,0.26272,148.0 -69.988255,0.262782,150.0 -69.988291,0.262772,152.4 -69.988345,0.262797,152.0 -69.988404,0.262761,156.3 -69.988434,0.262778,156.0 -69.988439,0.262815,156.9 -69.988407,0.262818,154.0 -69.988428,0.262848,154.0 -69.988468,0.262816,155.5 -69.988477,0.262849,156.1 -69.988631,0.26295,156.0 -69.98867,0.263016,158.0 -69.988699,0.263112,156.0 -69.988755,0.26315,156.0 -69.988789,0.263134,156.0 -69.98884,0.263137,156.0 -69.988874,0.263155,155.0 -69.988934,0.263224,156.0 -69.989023,0.263267,156.0 -69.989048,0.263301,155.0 -69.989074,0.263316,156.0 -69.989087,0.263354,154.0 -69.989082,0.263403,156.0 -69.989116,0.263409,157.0 -69.989148,0.26345,156.0 -69.989236,0.263463,153.0 -69.989217,0.263447,158.0 -69.989216,0.263413,160.2 -69.989234,0.263355,160.0 -69.989255,0.26341,159.0 -69.989315,0.263421,160.5 -69.989291,0.26344,160.0 -69.989303,0.263455,160.0 -69.989308,0.263434,160.7 -69.989303,0.263475,160.0 -69.98934,0.263536,160.0 -69.989332,0.263583,159.0 -69.989422,0.263602,160.0 -69.989433,0.263633,160.0 -69.989479,0.263647,161.0 -69.989495,0.263677,162.0 -69.989577,0.263709,160.0 -69.989606,0.263758,162.0 -69.989654,0.263756,162.0 -69.989662,0.263795,162.0 -69.989735,0.263778,160.0 -69.98981,0.263811,161.9 -69.989859,0.263735,159.0 -69.989905,0.263764,161.7 -69.989922,0.263791,162.3 -69.989838,0.263812,160.0 -69.990082,0.263881,162.0 -69.990104,0.263831,163.6 -69.990178,0.263838,161.0 -69.990247,0.263813,163.1 -69.99029,0.263815,160.0 -69.990263,0.263833,162.9 -69.990387,0.263899,162.6 -69.990599,0.263952,160.4 -69.990647,0.26394,162.0 -69.990665,0.263971,161.0 -69.990698,0.263957,160.0 -69.990765,0.264016,160.0 -69.9908,0.264002,160.0 -69.990829,0.263972,160.0 -69.990926,0.264002,157.0 -69.990953,0.263979,158.0 -69.990952,0.26401,159.0 -69.990879,0.264046,159.0 -69.990946,0.264063,160.9 -69.991041,0.264,158.0 -69.991119,0.264035,153.0 -69.991035,0.264033,160.0 -69.991077,0.264111,160.0 -69.991117,0.264116,160.6 -69.991184,0.264186,160.0 -69.991194,0.264144,161.0 -69.991239,0.264151,160.0 -69.99121,0.264164,160.0 -69.99126,0.264161,161.0 -69.991366,0.264297,162.0 -69.991413,0.2643,162.0 -69.991471,0.264214,164.3 -69.991455,0.264144,162.0 -69.991429,0.264192,163.9 -69.991384,0.264229,164.5 -69.991422,0.26424,164.0 -69.991396,0.264205,163.7 -69.991454,0.264096,160.0 -69.991468,0.264147,162.0 -69.991437,0.264187,161.0 -69.991393,0.264173,160.0 -69.991262,0.264206,162.0 -69.991307,0.264227,162.0 -69.99134,0.264222,163.1 -69.991563,0.264267,160.0 -69.991474,0.264285,165.2 -69.99139,0.264358,164.0 -69.991473,0.264224,165.3 -69.991427,0.264248,164.0 -69.991458,0.264131,160.0 -69.991434,0.264102,155.0 -69.991408,0.264105,155.0 -69.991392,0.264145,160.0 -69.991446,0.264181,161.0 -69.99146,0.264152,162.0 -69.9914,0.264237,160.0 -69.991388,0.264284,159.0 -69.991359,0.264216,162.2 -69.991391,0.264191,158.0 -69.991351,0.264187,162.0 -69.991336,0.264146,158.0 -69.991331,0.264207,159.0 -69.991424,0.264269,164.0 -69.991423,0.264318,163.3 -69.991359,0.264215,161.0 -69.991324,0.264191,160.0 -69.991323,0.264225,163.9 -69.991394,0.264232,160.0 -69.991417,0.264215,156.0 -69.991394,0.264244,164.5 -69.991617,0.264142,163.0 -69.99162,0.264188,163.0 -69.991627,0.264139,163.9 -69.991625,0.264195,150.0 -69.991667,0.264147,164.7 -69.99171,0.264122,164.0 -69.991749,0.264151,164.0 -69.991765,0.264201,164.7 -69.991878,0.264078,164.0 -69.991927,0.264132,164.3 -69.991957,0.264263,164.8 -69.992018,0.264231,165.0 -69.992047,0.264243,164.0 -69.992041,0.264304,165.0 -69.992013,0.264303,164.0 -69.992152,0.264366,164.0 -69.992267,0.26434,162.0 -69.992285,0.264363,162.0 -69.992311,0.264365,162.0 -69.9923,0.264387,157.0 -69.992349,0.264377,162.0 -69.992372,0.264399,162.0 -69.992408,0.264399,160.0 -69.992421,0.26443,162.0 -69.99246,0.264459,162.0 -69.99251,0.264527,160.0 -69.992528,0.2646,163.1 -69.992563,0.264672,160.0 -69.99261,0.264721,162.0 -69.992656,0.264731,162.0 -69.992731,0.26473,161.0 -69.992801,0.264651,162.0 -69.992813,0.264609,158.0 -69.992808,0.264642,162.0 -69.992728,0.264629,162.0 -69.992731,0.264648,159.0 -69.992689,0.26465,161.0 -69.992699,0.264622,160.0 -69.992682,0.264676,156.0 -69.992702,0.26465,162.0 -69.992742,0.264626,162.0 -69.992784,0.264629,162.0 -69.992796,0.264664,162.0 -69.99283,0.264642,163.6 -69.992788,0.264664,154.0 -69.992727,0.26478,162.0 -69.992851,0.264588,162.0 -69.992872,0.264627,162.0 -69.992838,0.26462,150.0 -69.992797,0.264643,156.0 -69.992738,0.264627,160.0 -69.992653,0.264744,157.0 -69.992739,0.264733,165.1 -69.992704,0.264744,165.0 -69.992682,0.264712,162.0 -69.992685,0.2647,166.5 -69.992779,0.264731,164.0 -69.992804,0.264714,164.0 -69.992795,0.264764,165.0 -69.992797,0.264701,165.3 -69.992751,0.264691,160.0 -69.992781,0.264782,156.0 -69.992821,0.264784,165.0 -69.992839,0.264753,164.0 -69.992899,0.264795,140.0 -69.992977,0.264806,162.0 -69.993027,0.264771,163.0 -69.99302,0.264713,164.0 -69.992967,0.264701,162.0 -69.992907,0.264772,161.0 -69.992932,0.264789,164.0 -69.992897,0.264665,162.0 -69.992771,0.264748,164.4 -69.99268,0.264766,164.0 -69.992733,0.264765,164.0 -69.992771,0.264742,165.0 -69.992805,0.264813,165.6 -69.992872,0.264766,154.0 -69.992858,0.264807,164.0 -69.992762,0.264741,165.1 -69.992717,0.26477,164.0 -69.992761,0.26481,164.0 -69.992724,0.264833,164.0 -69.992697,0.264791,164.0 -69.992666,0.264773,164.0 -69.992763,0.264768,165.0 -69.992784,0.264642,163.8 -69.992762,0.264663,163.9 -69.992743,0.264703,162.0 -69.992795,0.264674,163.5 -69.992826,0.264622,162.0 -69.992785,0.264683,163.4 -69.992741,0.264711,163.8 -69.99278,0.264634,163.5 -69.992711,0.264613,161.0 -69.99271,0.26455,160.0 -69.992738,0.264603,163.0 -69.992764,0.264689,160.0 -69.992763,0.264632,154.0 -69.992741,0.264649,163.4 -69.992733,0.264706,160.0 -69.992835,0.264656,162.0 -69.992857,0.264546,160.0 -69.992924,0.264531,162.0 -69.992965,0.264541,162.0 -69.992912,0.264549,160.0 -69.992946,0.264584,160.0 -69.992948,0.264526,163.4 -69.992972,0.264465,162.4 -69.992934,0.264544,162.0 -69.992935,0.264502,162.5 -69.992896,0.264502,161.0 -69.9929,0.264459,150.0 -69.99292,0.264507,159.0 -69.992795,0.264561,160.0 -69.992815,0.264604,162.0 -69.992843,0.26452,162.0 -69.992874,0.264534,162.0 -69.992896,0.264577,162.0 -69.992939,0.264585,160.0 -69.992965,0.264576,164.0 -69.992999,0.264596,164.1 -69.992966,0.264573,162.0 -69.992985,0.26453,162.0 -69.992961,0.264558,162.0 -69.992921,0.264553,161.0 -69.99295,0.264599,162.0 -69.992993,0.264491,162.9 -69.993015,0.264522,162.0 -69.992988,0.264673,162.0 -69.992925,0.264652,161.0 -69.992945,0.264634,162.0 -69.992971,0.264651,162.0 -69.993012,0.26457,162.0 -69.992991,0.264598,162.0 -69.992956,0.264719,164.0 -69.992972,0.264678,164.0 -69.992952,0.264632,164.2 -69.992891,0.264594,163.7 -69.992923,0.264611,163.7 -69.992917,0.264683,164.0 -69.992875,0.264687,154.0 -69.992847,0.26472,164.0 -69.992913,0.264734,164.0 -69.992946,0.264806,162.0 -69.993,0.264729,165.1 -69.992985,0.264671,162.0 -69.993024,0.264753,164.9 -69.992882,0.264877,165.0 -69.99286,0.26486,165.0 -69.992898,0.264825,164.0 -69.99294,0.264855,165.0 -69.992868,0.264924,165.0 -69.992959,0.264806,165.0 -69.992948,0.264744,160.0 -69.99293,0.264772,145.0 -69.992892,0.264797,164.0 -69.992899,0.264756,164.0 -69.992945,0.264806,164.0 -69.99295,0.26483,165.1 -69.992883,0.264794,164.0 -69.992906,0.264758,164.0 -69.992879,0.264739,165.0 -69.992877,0.264701,162.0 -69.992893,0.264737,164.0 -69.992922,0.264755,165.0 -69.992961,0.264746,164.9 -69.992916,0.264834,166.0 -69.992945,0.26482,168.0 -69.992979,0.264838,168.0 -69.992947,0.264862,168.0 -69.992976,0.264846,165.0 -69.992905,0.264821,168.0 -69.992853,0.264851,162.0 -69.992866,0.26481,165.0 -69.9929,0.264806,166.0 -69.992863,0.264781,164.0 -69.992877,0.264618,166.0 -69.992867,0.264657,164.6 -69.992823,0.264653,164.0 -69.992713,0.26467,164.6 -69.992661,0.264657,164.5 -69.992688,0.264713,164.0 -69.99276,0.26458,164.0 -69.992709,0.264488,165.8 -69.992487,0.264464,164.0 -69.992304,0.264421,162.0 -69.992219,0.264351,162.0 -69.991995,0.264357,162.0 -69.99205,0.264221,163.5 -69.991911,0.264205,162.0 -69.991949,0.264207,162.5 -69.991933,0.264184,162.0 -69.99189,0.264278,162.5 -69.991885,0.264243,162.5 -69.991827,0.264158,162.0 -69.991771,0.264127,162.3 -69.991698,0.264161,162.0 -69.991726,0.264203,162.0 -69.99175,0.264158,163.5 -69.991717,0.264203,154.0 -69.991705,0.264244,163.4 -69.991843,0.264143,163.7 -69.991789,0.264125,161.0 -69.991813,0.264088,163.4 -69.991776,0.264105,163.7 -69.99182,0.264104,162.0 -69.991784,0.264111,161.8 -69.991813,0.264057,159.0 -69.991783,0.264205,161.0 -69.991768,0.264232,162.0 -69.991705,0.264284,161.0 -69.991654,0.264212,162.0 -69.991655,0.264244,163.0 -69.991705,0.264272,163.0 -69.99167,0.264294,162.0 -69.991762,0.264253,164.0 -69.991737,0.264264,165.5 -69.991799,0.264173,164.0 -69.991769,0.264212,164.0 -69.991701,0.264239,159.0 -69.991701,0.264275,164.0 -69.991652,0.264231,163.0 -69.991572,0.264229,162.0 -69.991541,0.264217,162.0 -69.991426,0.264114,162.1 -69.991364,0.264127,159.0 -69.991293,0.264117,161.4 -69.991334,0.264119,161.7 -69.991273,0.264146,162.0 -69.991398,0.264187,162.7 -69.991416,0.264273,162.0 -69.991279,0.264223,161.0 -69.991236,0.264223,160.0 -69.991252,0.264363,164.0 -69.991283,0.264331,164.0 -69.991166,0.264308,164.0 -69.991151,0.264254,163.0 -69.99109,0.264239,162.0 -69.991252,0.264183,164.1 -69.991187,0.264143,163.9 -69.991157,0.264184,163.9 -69.991223,0.264135,162.0 -69.99127,0.26413,160.0 -69.991159,0.264168,163.8 -69.991201,0.264224,163.8 -69.99112,0.264182,162.0 -69.991276,0.264209,164.1 -69.991305,0.264225,163.0 -69.991435,0.264253,164.7 -69.991429,0.264281,164.0 -69.991433,0.264249,165.0 -69.991369,0.264185,164.0 -69.991447,0.264224,164.0 -69.991442,0.264271,164.0 -69.991293,0.264166,164.6 -69.991189,0.264015,163.2 -69.991192,0.264056,162.0 -69.991151,0.264,162.0 -69.991179,0.26404,161.0 -69.991168,0.264003,161.0 -69.991186,0.263956,162.3 -69.991108,0.263986,162.2 -69.991139,0.264022,156.0 -69.991178,0.264039,156.0 -69.991191,0.264002,162.0 -69.99113,0.264066,162.5 -69.991086,0.26392,161.9 -69.991029,0.263874,159.0 -69.99113,0.263943,161.0 -69.991008,0.263939,162.0 -69.990981,0.263895,162.0 -69.990897,0.263884,160.0 -69.990864,0.263918,162.0 -69.990593,0.263813,162.0 -69.990533,0.26384,163.6 -69.990576,0.263889,163.5 -69.990539,0.263854,163.3 -69.990393,0.263849,164.0 -69.990361,0.263867,164.0 -69.990117,0.263903,164.0 -69.990189,0.263893,164.0 -69.990125,0.26385,164.0 -69.990091,0.263854,164.0 -69.989861,0.263807,164.0 -69.989923,0.263797,162.0 -69.989849,0.26378,164.4 -69.989833,0.263693,164.2 -69.989638,0.263643,164.0 -69.98954,0.263679,164.2 -69.989515,0.263625,162.0 -69.989443,0.263587,164.8 -69.989328,0.263555,162.0 -69.989319,0.263494,160.0 -69.98929,0.263568,156.0 -69.989263,0.263528,156.0 -69.989279,0.263498,155.0 -69.989275,0.263448,156.0 -69.989313,0.263447,157.0 -69.989242,0.263428,158.5 -69.989133,0.263356,158.0 -69.989166,0.263401,157.0 -69.989135,0.263415,152.0 -69.989137,0.263352,160.0 -69.989071,0.263315,156.0 -69.989039,0.263243,158.0 -69.989011,0.263213,156.0 -69.988957,0.263187,160.0 -69.988936,0.263143,156.0 -69.98883,0.263104,156.0 -69.988748,0.263026,156.0 -69.988649,0.263003,155.0 -69.988609,0.262959,157.8 -69.9887,0.262949,156.0 -69.988665,0.262955,156.0 -69.988571,0.26293,157.8 -69.988579,0.262893,156.0 -69.988536,0.262831,155.0 -69.988489,0.262821,158.0 -69.988443,0.262757,158.7 -69.988399,0.262758,158.1 -69.988372,0.262737,158.0 -69.98823,0.262773,156.0 -69.988182,0.262733,155.7 -69.988225,0.262731,154.0 -69.988203,0.262675,154.7 -69.988151,0.262656,154.3 -69.988104,0.262659,154.0 -69.988027,0.262623,153.0 -69.987782,0.262694,150.0 -69.98777,0.262665,148.0 -69.987736,0.26269,150.0 -69.987667,0.262799,148.0 -69.987625,0.2628,149.1 -69.987604,0.262834,148.7 -69.987626,0.262896,144.0 -69.987471,0.262941,146.0 -69.987349,0.262964,146.2 -69.987283,0.262931,144.0 -69.987249,0.262895,143.5 -69.987179,0.262893,144.0 -69.987054,0.263024,144.7 -69.987008,0.263085,143.0 -69.987012,0.263049,142.0 -69.986961,0.263003,142.1 -69.986916,0.263033,142.0 -69.986859,0.263024,142.0 -69.986853,0.262987,142.0 -69.986868,0.263016,141.0 -69.986807,0.263069,140.0 -69.986688,0.263208,140.0 -69.98673,0.263213,140.0 -69.986687,0.263257,139.9 -69.986699,0.263225,139.9 -69.98666,0.263256,138.0 -69.986649,0.26329,138.0 -69.986591,0.263352,133.0 -69.986625,0.26338,136.0 -69.986638,0.263411,137.5 -69.986659,0.26338,136.0 -69.986644,0.263485,137.8 -69.986648,0.263517,137.9 -69.986693,0.263447,138.2 -69.986698,0.263482,133.0 -69.986685,0.263451,135.0 -69.986653,0.263517,138.0 -69.986621,0.263483,139.4 -69.98664,0.263514,138.3 -69.98664,0.263706,138.0 -69.986733,0.263904,138.0 -69.986642,0.264062,139.0 -69.986587,0.264107,140.6 -69.986621,0.264102,140.0 -69.986587,0.264354,142.0 -69.986522,0.264458,143.4 -69.986434,0.264481,143.3 -69.986456,0.264468,141.0 -69.986464,0.26454,142.0 -69.98654,0.264645,144.0 -69.986492,0.26472,144.0 -69.986459,0.264739,145.6 -69.986299,0.264902,140.0 -69.986322,0.264917,146.0 -69.986366,0.264925,144.0 -69.986291,0.264987,144.0 -69.986272,0.264957,144.0 -69.986243,0.265002,144.0 -69.986241,0.265056,144.0 -69.986179,0.265116,146.0 -69.986191,0.265081,146.5 -69.986124,0.265126,144.0 -69.985991,0.265062,144.0 -69.985956,0.265095,142.0 -69.985909,0.265077,143.9 -69.985873,0.265135,141.0 -69.985795,0.265217,141.0 -69.985754,0.265223,141.0 -69.985724,0.265265,141.6 -69.98566,0.265244,140.0 -69.985623,0.265259,138.0 -69.985667,0.265252,139.0 -69.985641,0.265223,142.0 -69.985571,0.265221,141.9 -69.985401,0.265265,140.0 -69.985399,0.265329,140.0 -69.98537,0.265319,140.0 -69.985345,0.265336,141.0 -69.985354,0.265355,140.0 -69.98532,0.265344,141.0 -69.985245,0.265469,140.0 -69.985209,0.265468,140.0 -69.985124,0.265493,143.0 -69.985044,0.265585,147.0 -69.984999,0.265718,149.0 -69.984876,0.265752,147.0 -69.984805,0.265749,150.0 -69.984771,0.265812,150.0 -69.984682,0.265836,150.0 -69.984675,0.265881,150.0 -69.984617,0.26589,150.0 -69.984581,0.265912,150.0 -69.984589,0.265945,149.0 -69.98461,0.265968,148.0 -69.98461,0.26602,148.0 -69.984587,0.266044,148.0 -69.984621,0.266025,143.0 -69.984604,0.266059,146.5 -69.98455,0.266036,144.0 -69.984563,0.265991,140.0 -69.984507,0.266047,144.0 -69.984477,0.266039,144.2 -69.984458,0.266103,142.0 -69.98443,0.266116,140.0 -69.984392,0.26617,140.0 -69.98433,0.26619,142.0 -69.984294,0.266213,140.0 -69.984219,0.266305,141.0 -69.984134,0.266374,142.0 -69.984125,0.266404,141.0 -69.984072,0.266458,142.0 -69.983993,0.266505,144.0 -69.983945,0.26655,144.0 -69.983901,0.26657,142.0 -69.983852,0.266616,144.0 -69.98382,0.266625,144.0 -69.983718,0.266745,147.0 -69.983685,0.266757,147.0 -69.983633,0.26681,150.0 -69.983582,0.26689,150.0 -69.983513,0.266877,150.0 -69.983483,0.266855,150.0 -69.983419,0.266854,152.0 -69.983363,0.266896,152.0 -69.983305,0.266986,151.0 -69.983312,0.267049,152.0 -69.983255,0.267102,153.0 -69.983108,0.267111,152.0 -69.983097,0.267189,153.0 -69.983069,0.267227,150.0 -69.983041,0.267245,154.0 -69.982883,0.267225,152.0 -69.982812,0.267189,155.2 -69.982793,0.267223,153.0 -69.982744,0.267184,156.0 -69.982713,0.267176,156.0 -69.982675,0.267177,155.0 -69.982612,0.267205,154.0 -69.982547,0.267198,156.0 -69.982504,0.267231,151.0 -69.982512,0.267298,154.0 -69.982426,0.267354,153.0 -69.982364,0.26735,152.0 -69.982291,0.267273,153.0 -69.982218,0.267327,152.0 -69.9822,0.267372,150.0 -69.982171,0.267389,152.0 -69.982138,0.267363,150.0 -69.982091,0.267374,151.0 -69.982085,0.267412,150.0 -69.982022,0.267348,152.0 -69.98196,0.267339,150.0 -69.981922,0.267347,151.0 -69.981889,0.267387,151.0 -69.981851,0.267383,150.0 -69.981809,0.26736,152.0 -69.981772,0.267366,150.0 -69.981741,0.267352,151.0 -69.981708,0.267366,150.0 -69.981664,0.267363,150.0 -69.981435,0.267202,147.0 -69.981343,0.267254,144.0 -69.981313,0.267289,144.0 -69.981282,0.267307,144.0 -69.981194,0.267314,140.0 -69.981116,0.267208,144.9 -69.98099,0.267133,140.0 -69.980973,0.267103,144.0 -69.980976,0.267068,140.0 -69.980929,0.267008,140.0 -69.980901,0.267022,141.0 -69.980856,0.267009,141.0 -69.980814,0.266953,138.0 -69.980757,0.266965,141.3 -69.980722,0.26696,140.0 -69.980665,0.266986,141.0 -69.980579,0.267043,140.0 -69.980578,0.267074,140.0 -69.980534,0.267094,140.0 -69.980494,0.267128,141.0 -69.980451,0.267133,142.0 -69.980404,0.267188,140.0 -69.980289,0.267184,141.0 -69.980252,0.267218,140.0 -69.980142,0.267161,143.0 -69.980031,0.267152,144.0 -69.979953,0.267169,145.0 -69.979909,0.267204,145.0 -69.979794,0.267192,150.0 -69.979744,0.267166,149.0 -69.979705,0.267164,150.0 -69.979671,0.267185,150.0 -69.979658,0.267214,150.0 -69.979574,0.267262,152.0 -69.979562,0.267243,153.6 -69.979586,0.267266,152.0 -69.979585,0.26731,154.0 -69.979543,0.267327,153.0 -69.979487,0.267327,156.0 -69.979447,0.267304,150.0 -69.979406,0.26732,157.0 -69.979349,0.267313,158.0 -69.97933,0.267342,158.0 -69.979281,0.267345,160.0 -69.979224,0.267408,160.0 -69.979147,0.26746,160.0 -69.979125,0.267491,162.0 -69.979052,0.26755,162.0 -69.978926,0.267615,160.0 -69.978771,0.267747,160.0 -69.978691,0.267791,159.0 -69.978672,0.267873,159.0 -69.978538,0.26801,157.0 -69.978506,0.268124,156.0 -69.978431,0.268198,154.0 -69.978418,0.268375,154.0 -69.978385,0.268384,155.0 -69.978353,0.268409,153.0 -69.978279,0.268433,153.0 -69.978205,0.268407,147.0 -69.978129,0.268417,154.0 -69.978103,0.268433,156.0 -69.978067,0.268495,155.0 -69.978005,0.268557,156.7 -69.977936,0.268609,155.0 -69.977903,0.268622,155.0 -69.977861,0.268679,155.0 -69.977757,0.268775,156.0 -69.977689,0.268785,157.0 -69.97764,0.268783,156.0 -69.977572,0.26875,156.0 -69.977548,0.268717,156.0 -69.977317,0.268601,153.0 -69.977209,0.268579,149.0 -69.977176,0.26856,148.0 -69.977139,0.268556,147.0 -69.977065,0.268569,144.0 -69.977013,0.268594,144.0 -69.976981,0.268581,141.0 -69.976972,0.268547,141.0 -69.976949,0.268527,144.0 -69.976852,0.26857,141.0 -69.976746,0.268599,141.0 -69.976632,0.268593,141.0 -69.976592,0.2686,140.0 -69.976548,0.268589,142.0 -69.976528,0.268619,140.0 -69.976498,0.268638,144.0 -69.976389,0.268627,144.0 -69.97636,0.268612,144.0 -69.976295,0.268616,143.0 -69.976254,0.268601,140.0 -69.976219,0.268605,141.0 -69.9761,0.268523,144.0 -69.975952,0.268461,141.0 -69.975843,0.268455,140.0 -69.975778,0.268441,138.0 -69.975668,0.268446,138.0 -69.975638,0.268469,136.0 -69.975538,0.268475,136.0 -69.975305,0.268425,132.0 -69.975234,0.268438,132.0 -69.975205,0.268463,129.0 -69.97513,0.268471,129.0 -69.975058,0.26845,130.0 -69.97496,0.268381,130.0 -69.974851,0.268365,131.0 -69.974761,0.268314,130.0 -69.974697,0.268311,122.0 -69.974706,0.268345,132.0 -69.974698,0.26833,130.0 -69.974731,0.268346,130.0 -69.974736,0.268312,133.6 -69.974735,0.268344,132.0 -69.974717,0.268309,133.7 -69.974687,0.268323,131.0 -69.974579,0.26825,132.0 -69.97451,0.268229,132.0 -69.974481,0.26826,131.0 -69.974428,0.268266,130.0 -69.974388,0.268283,132.0 -69.974321,0.268278,132.0 -69.974261,0.268241,132.0 -69.974233,0.268179,132.0 -69.974202,0.268164,132.0 -69.974135,0.268055,132.0 -69.974162,0.268033,131.0 -69.974178,0.267995,132.0 -69.974124,0.267922,133.0 -69.974073,0.267882,132.0 -69.974039,0.267874,132.0 -69.974045,0.267809,126.0 -69.973943,0.267761,132.0 -69.973965,0.267754,133.0 -69.974025,0.267796,120.0 -69.973939,0.267766,132.0 -69.973967,0.267745,126.0 -69.973989,0.267791,128.0 -69.97394,0.267757,132.0 -69.973909,0.267716,132.0 -69.973931,0.267744,126.0 -69.974063,0.267796,132.0 -69.973954,0.267783,130.0 -69.974038,0.267785,134.7 -69.973983,0.267789,136.6</coordinates>
                </LineString>
            </MultiGeometry>
        </Placemark>
        <Placemark id="9">
            <name>Vanilla</name>
            <description/>
            <styleUrl>#10</styleUrl>
            <Point id="8">
                <coordinates>-69.98428,0.26611,150</coordinates>
            </Point>
        </Placemark>
        <Placemark id="14">
            <name>Maloca São Pedro </name>
            <description/>
            <styleUrl>#15</styleUrl>
            <Point id="13">
                <coordinates>-69.97341,0.26811,120</coordinates>
            </Point>
        </Placemark>
    </Document>
</kml>
