<?xml version="1.0" encoding="UTF-8"?>
<kml xmlns="http://www.opengis.net/kml/2.2" xmlns:gx="http://www.google.com/kml/ext/2.2">
    <Document id="1">
        <Style id="10">
            <IconStyle id="11">
                <colorMode>normal</colorMode>
                <scale>1</scale>
                <heading>0</heading>
                <Icon id="12">
                    <href>red-pin-down.png</href>
                </Icon>
            </IconStyle>
        </Style>
        <Style id="15">
            <IconStyle id="16">
                <colorMode>normal</colorMode>
                <scale>1</scale>
                <heading>0</heading>
                <Icon id="17">
                    <href>red-pin-down.png</href>
                </Icon>
            </IconStyle>
        </Style>
        <Placemark id="3">
            <Style id="6">
                <LineStyle id="7">
                    <color>ffEC34E8</color>
                    <colorMode>normal</colorMode>
                    <width>1</width>
                </LineStyle>
            </Style>
            <name>São Pedro até pari Cachoeira</name>
            <description/>
            <MultiGeometry id="2">
                <LineString id="4">
                    <extrude>0</extrude>
                    <altitudeMode>clampToGround</altitudeMode>
                    <coordinates>-69.973195,0.267523,109.6 -69.973089,0.26747,125.0 -69.973119,0.26746,117.5 -69.973092,0.267448,115.0 -69.973011,0.267465,113.0 -69.972808,0.267538,112.0 -69.972756,0.267548,112.0 -69.972584,0.267554,112.0 -69.972485,0.267538,113.0 -69.972455,0.267528,113.3 -69.972417,0.267491,116.0 -69.972343,0.267455,117.7 -69.972166,0.267341,118.7 -69.972026,0.267193,119.6 -69.971826,0.267051,118.9 -69.97177,0.266996,119.9 -69.971488,0.266819,119.7 -69.971009,0.266427,119.9 -69.970794,0.266205,119.5 -69.970608,0.266061,119.6 -69.970434,0.265903,120.4 -69.970398,0.265882,120.5 -69.969902,0.265405,121.2 -69.969892,0.265356,121.5 -69.969659,0.265201,123.3 -69.969436,0.265011,123.7 -69.969374,0.264978,124.3 -69.969343,0.264945,124.3 -69.969062,0.264732,125.6 -69.968755,0.264564,127.4 -69.968548,0.264517,127.2 -69.968235,0.264495,126.6 -69.968145,0.264504,126.6 -69.968002,0.264564,126.1 -69.967822,0.264618,125.2 -69.967763,0.264598,124.9 -69.967694,0.264646,124.1 -69.967191,0.26477,125.0 -69.966889,0.264877,125.9 -69.966758,0.264902,124.7 -69.966673,0.264941,124.4 -69.966589,0.264957,124.2 -69.966411,0.264964,125.0 -69.966009,0.264924,126.0 -69.965797,0.264914,126.7 -69.965525,0.264877,128.2 -69.965488,0.264855,127.9 -69.96524,0.264766,129.2 -69.965064,0.26469,129.8 -69.964829,0.264568,130.5 -69.964556,0.264399,131.3 -69.964482,0.264334,131.1 -69.964451,0.264293,131.4 -69.964198,0.264039,130.3 -69.964129,0.263916,128.8 -69.964107,0.263844,128.4 -69.964092,0.263693,126.0 -69.964072,0.263647,127.4 -69.964044,0.263604,126.0 -69.964003,0.263567,126.0 -69.963966,0.263551,123.0 -69.963934,0.263562,124.0 -69.963908,0.263585,123.0 -69.963912,0.263617,123.0 -69.96409,0.263801,124.0 -69.964135,0.263881,124.0 -69.964175,0.264032,124.0 -69.964195,0.264073,124.0 -69.964288,0.264203,126.0 -69.964383,0.264274,126.0 -69.964444,0.264304,126.0 -69.964523,0.264391,128.0 -69.96455,0.264405,129.0 -69.964588,0.264379,130.0 -69.96464,0.264367,129.0 -69.964679,0.264377,129.0 -69.964688,0.264416,131.4 -69.964652,0.264398,129.0 -69.964575,0.264435,132.0 -69.964539,0.264427,130.0 -69.964534,0.264387,131.0 -69.964567,0.264371,132.0 -69.964602,0.264392,130.0 -69.964574,0.264405,130.0 -69.964527,0.264397,132.0 -69.96465,0.264491,133.0 -69.964588,0.264482,130.0 -69.964547,0.264442,132.0 -69.964531,0.264408,130.0 -69.96459,0.264411,133.0 -69.964558,0.264364,132.0 -69.964578,0.264323,132.0 -69.964579,0.264264,134.0 -69.964565,0.264238,132.0 -69.96449,0.264248,132.0 -69.964413,0.264297,132.0 -69.964373,0.264221,132.0 -69.964343,0.264203,132.0 -69.964285,0.264121,132.0 -69.964218,0.263993,132.0 -69.964201,0.263917,129.0 -69.964171,0.263859,129.0 -69.964175,0.263822,130.0 -69.964205,0.263796,128.0 -69.9642,0.263851,126.0 -69.964157,0.263784,129.0 -69.964141,0.263709,126.0 -69.964127,0.263726,126.0 -69.964089,0.263695,124.0 -69.963906,0.263431,124.0 -69.963836,0.263293,124.0 -69.963711,0.263117,124.0 -69.963603,0.263006,126.0 -69.963493,0.262866,127.4 -69.963298,0.262644,128.3 -69.962989,0.26246,125.3 -69.962808,0.262416,124.2 -69.962738,0.262389,123.5 -69.962659,0.262383,123.3 -69.962581,0.262361,123.7 -69.962271,0.262329,123.4 -69.962199,0.262306,123.1 -69.961911,0.262245,123.1 -69.961798,0.2622,122.9 -69.961536,0.262032,122.8 -69.961265,0.26183,122.2 -69.96115,0.261759,121.7 -69.961004,0.261676,121.4 -69.960806,0.261594,120.7 -69.960726,0.261572,120.2 -69.960612,0.261561,119.5 -69.960444,0.261571,119.0 -69.960361,0.261565,119.0 -69.959961,0.261619,118.4 -69.959591,0.261646,118.1 -69.959437,0.261672,117.2 -69.959031,0.261715,117.0 -69.958876,0.26172,117.0 -69.958836,0.261704,117.2 -69.958313,0.261746,116.1 -69.957986,0.261749,115.9 -69.957791,0.261774,116.0 -69.957747,0.261749,116.5 -69.9577,0.261751,116.2 -69.957614,0.261767,116.3 -69.9573,0.261795,117.0 -69.956997,0.261848,116.8 -69.956739,0.261909,116.9 -69.956691,0.261911,116.8 -69.956452,0.261976,116.4 -69.956366,0.262012,116.7 -69.956291,0.262059,116.6 -69.956082,0.262219,117.3 -69.955856,0.262485,117.7 -69.955752,0.262653,118.7 -69.955672,0.262855,119.5 -69.955636,0.263165,119.4 -69.955603,0.263353,120.1 -69.955586,0.26359,121.7 -69.955601,0.263876,122.7 -69.955583,0.264166,123.1 -69.955561,0.264339,123.0 -69.955467,0.264632,123.9 -69.955375,0.264877,124.3 -69.955255,0.26511,125.9 -69.955209,0.265179,126.0 -69.955128,0.26527,126.4 -69.955056,0.265331,126.9 -69.954763,0.265515,127.4 -69.954739,0.265539,127.5 -69.954697,0.265558,127.4 -69.954581,0.265649,126.9 -69.954511,0.265682,127.1 -69.954421,0.2657,126.0 -69.95438,0.265722,127.3 -69.954327,0.265786,125.0 -69.954311,0.265828,126.0 -69.954325,0.265865,126.0 -69.954357,0.265897,120.0 -69.954479,0.265798,128.0 -69.954493,0.26563,125.0 -69.954528,0.265632,129.0 -69.954599,0.265732,126.0 -69.954537,0.265695,129.0 -69.95445,0.265608,129.8 -69.954413,0.265633,128.0 -69.95438,0.265674,126.0 -69.954386,0.265637,120.0 -69.954317,0.265621,126.0 -69.954338,0.265576,128.0 -69.954352,0.265598,128.0 -69.954392,0.265596,129.0 -69.954416,0.265636,129.0 -69.95442,0.2657,128.0 -69.954378,0.265745,128.0 -69.954307,0.265774,127.0 -69.954191,0.265785,126.0 -69.954101,0.265761,128.1 -69.954023,0.265773,128.0 -69.953966,0.265766,128.0 -69.953941,0.265823,129.1 -69.953884,0.265795,128.9 -69.953752,0.265754,129.4 -69.953723,0.265765,129.6 -69.953674,0.265763,129.6 -69.953603,0.265775,129.0 -69.953521,0.26576,131.1 -69.953453,0.265732,131.2 -69.953414,0.265749,131.3 -69.95328,0.265772,132.0 -69.953109,0.265723,131.9 -69.952976,0.265711,131.3 -69.952871,0.265673,131.2 -69.952768,0.265651,132.1 -69.952609,0.265638,131.8 -69.952532,0.265622,132.1 -69.952457,0.265571,131.9 -69.952335,0.265526,131.9 -69.95209,0.265399,132.4 -69.95196,0.265307,132.7 -69.951919,0.265308,132.6 -69.951885,0.265283,132.6 -69.951875,0.265253,132.5 -69.951844,0.265225,132.4 -69.951773,0.265191,132.7 -69.951654,0.265093,132.2 -69.951566,0.265047,131.5 -69.95154,0.265015,131.4 -69.951498,0.265005,130.5 -69.951438,0.264952,130.2 -69.951414,0.264917,130.1 -69.951342,0.264869,129.2 -69.95122,0.264762,128.2 -69.951182,0.264746,128.0 -69.951101,0.264676,127.9 -69.950962,0.264532,128.0 -69.950925,0.264506,128.9 -69.950825,0.264468,129.0 -69.95085,0.264513,130.0 -69.950707,0.26448,131.8 -69.95062,0.2645,132.5 -69.950506,0.264499,133.6 -69.950292,0.264473,134.2 -69.950094,0.264466,134.2 -69.950017,0.264445,134.5 -69.949131,0.263983,133.9 -69.949014,0.263867,133.8 -69.948736,0.263711,133.6 -69.948538,0.263558,133.7 -69.948479,0.263561,133.7 -69.948418,0.263545,134.1 -69.948371,0.263544,134.1 -69.948162,0.263464,135.0 -69.947897,0.263698,136.7 -69.947066,0.263916,135.8 -69.947017,0.263967,135.7 -69.946954,0.263991,135.0 -69.9469,0.264024,134.0 -69.945726,0.26579,136.1 -69.945665,0.26581,136.3 -69.94569,0.26583,136.4 -69.945672,0.265858,135.6 -69.945682,0.265941,134.7 -69.945729,0.266016,134.6 -69.945772,0.266172,134.6 -69.945865,0.26622,134.7 -69.945928,0.266382,134.9 -69.946006,0.26651,135.1 -69.946018,0.266579,135.0 -69.946141,0.266737,134.9 -69.946168,0.266785,135.0 -69.946233,0.266854,135.1 -69.946266,0.266908,134.0 -69.946495,0.267931,136.0 -69.946388,0.268277,136.4 -69.946392,0.268428,136.0 -69.945989,0.269396,135.4 -69.945933,0.269459,135.3 -69.945537,0.270411,133.0 -69.945574,0.270438,132.8 -69.94531,0.271152,133.3 -69.945284,0.271175,133.7 -69.945261,0.271235,133.4 -69.945231,0.271262,133.5 -69.944717,0.271939,132.1 -69.944701,0.271985,132.6 -69.944642,0.272023,132.4 -69.944508,0.272148,132.2 -69.944497,0.272181,132.3 -69.944103,0.272746,132.0 -69.94407,0.272766,131.7 -69.943994,0.272907,131.9 -69.943926,0.272942,131.3 -69.943703,0.273409,131.0 -69.943695,0.273454,131.0 -69.943639,0.27352,131.2 -69.943625,0.273781,130.9 -69.943585,0.273801,131.1 -69.943557,0.273839,130.7 -69.943537,0.273888,130.6 -69.943508,0.273911,130.6 -69.94355,0.273958,130.9 -69.943584,0.274028,130.6 -69.943585,0.274069,130.9 -69.943603,0.274109,130.5 -69.943544,0.274158,131.3 -69.943544,0.274191,130.8 -69.943528,0.274229,130.8 -69.943576,0.274344,130.5 -69.943666,0.27471,130.3 -69.943668,0.274752,130.0 -69.943697,0.274816,130.8 -69.943696,0.274882,130.0 -69.943721,0.27502,131.0 -69.943707,0.275106,116.0 -69.943828,0.275979,129.2 -69.943929,0.276064,129.4 -69.94401,0.276216,129.2 -69.944009,0.276333,129.7 -69.943412,0.277001,132.2 -69.943254,0.276986,132.3 -69.943217,0.277,132.4 -69.943187,0.277035,131.8 -69.942558,0.276754,131.6 -69.942535,0.27682,131.2 -69.942313,0.276888,130.8 -69.941843,0.2769,129.9 -69.941746,0.276876,129.5 -69.940411,0.277484,127.1 -69.940381,0.277469,126.6 -69.940144,0.277605,126.8 -69.938548,0.278124,126.5 -69.938476,0.278084,126.6 -69.9384,0.278079,126.6 -69.938298,0.277895,126.5 -69.938314,0.277446,127.2 -69.938349,0.277414,127.3 -69.938941,0.276603,127.3 -69.938976,0.276526,127.2 -69.939081,0.276436,127.0 -69.939077,0.276402,127.1 -69.939112,0.276372,127.0 -69.939185,0.275976,127.7 -69.93944,0.275336,127.8 -69.939415,0.275259,127.8 -69.939453,0.275153,128.0 -69.939464,0.275077,128.2 -69.939352,0.274933,128.5 -69.939335,0.274864,128.9 -69.939362,0.274829,128.9 -69.939385,0.274739,128.8 -69.939473,0.274588,129.2 -69.93946,0.274547,129.5 -69.939479,0.274506,129.6 -69.939477,0.274463,129.5 -69.939496,0.274417,129.4 -69.939591,0.274343,129.9 -69.939765,0.273706,127.5 -69.939797,0.273507,127.4 -69.939772,0.273462,126.9 -69.939821,0.273328,127.1 -69.939828,0.273276,126.0 -69.940126,0.272708,126.4 -69.940202,0.272648,126.8 -69.940242,0.272569,126.8 -69.940301,0.272496,127.0 -69.940304,0.27246,127.0 -69.940449,0.272211,126.9 -69.940818,0.271973,126.8 -69.940882,0.271918,126.0 -69.941025,0.271894,126.8 -69.941106,0.271943,124.0 -69.941162,0.272065,126.0 -69.941117,0.272088,126.0 -69.941067,0.272153,126.0 -69.941019,0.272089,126.0 -69.941126,0.272078,124.0 -69.941178,0.272098,122.0 -69.941204,0.272097,115.0 -69.941204,0.272068,119.0 -69.941257,0.271867,120.0 -69.941318,0.271878,120.0 -69.941308,0.271915,125.5 -69.941396,0.271947,111.1 -69.941359,0.271945,125.9 -69.941418,0.271931,121.0 -69.941393,0.271885,120.0 -69.941404,0.271854,117.0 -69.941345,0.271851,120.0 -69.941319,0.271831,119.0 -69.94131,0.271766,118.0 -69.941353,0.271634,116.0 -69.941456,0.271413,117.9 -69.941458,0.271375,118.4 -69.941514,0.2713,119.1 -69.941519,0.271259,118.0 -69.94156,0.271216,118.0 -69.941579,0.271168,120.0 -69.941603,0.270935,122.9 -69.941603,0.270857,120.0 -69.941576,0.27083,122.0 -69.941456,0.270594,122.8 -69.941424,0.270489,122.0 -69.941363,0.270387,123.0 -69.941252,0.270289,121.9 -69.940931,0.270075,119.9 -69.940715,0.269984,119.5 -69.940517,0.269935,119.9 -69.940177,0.269878,119.5 -69.940019,0.269833,119.0 -69.939916,0.269827,119.3 -69.939684,0.269775,119.7 -69.939464,0.269682,119.1 -69.939341,0.269609,118.0 -69.939274,0.269551,120.3 -69.939164,0.269411,120.0 -69.938984,0.269117,119.2 -69.93891,0.268929,117.6 -69.938879,0.268798,116.9 -69.938833,0.268668,117.5 -69.938805,0.268528,116.8 -69.938771,0.26819,114.0 -69.938795,0.268095,115.0 -69.938856,0.268011,116.0 -69.938921,0.267995,114.0 -69.938959,0.268,114.0 -69.938994,0.268021,114.0 -69.939069,0.268106,116.0 -69.939215,0.268241,118.0 -69.939361,0.268312,120.0 -69.939363,0.268194,120.0 -69.939309,0.268189,122.0 -69.939331,0.268066,118.0 -69.93931,0.268099,119.0 -69.939315,0.268132,122.0 -69.939193,0.268075,123.0 -69.939174,0.268103,122.0 -69.938302,0.267775,124.0 -69.938339,0.267734,120.0 -69.938391,0.267802,120.0 -69.938369,0.267745,120.0 -69.938273,0.267979,123.7 -69.938077,0.268074,123.7 -69.920627,0.276211,113.9 -69.920497,0.276334,113.6 -69.920469,0.276392,118.2 -69.920275,0.27663,118.0 -69.920071,0.276921,117.5 -69.919695,0.277523,117.1 -69.919543,0.277743,117.8 -69.919417,0.277868,118.3 -69.919208,0.278039,119.0 -69.919004,0.278125,119.3 -69.918875,0.278132,119.2 -69.91875,0.278102,119.4 -69.918681,0.278062,118.8 -69.918431,0.277829,119.5 -69.918256,0.277569,120.9 -69.918118,0.27739,121.1 -69.918084,0.277363,121.4 -69.918038,0.277281,120.7 -69.917955,0.27717,120.5 -69.917886,0.277106,121.0 -69.917727,0.277,119.9 -69.917532,0.276883,117.5 -69.917277,0.276773,116.8 -69.917223,0.276789,117.3 -69.917179,0.276762,118.8 -69.917093,0.276742,117.8 -69.9167,0.276691,124.5 -69.916431,0.276608,123.1 -69.916264,0.276515,124.6 -69.91616,0.27642,124.1 -69.9161,0.27635,123.9 -69.915786,0.275889,121.7 -69.915177,0.275109,117.4 -69.915062,0.274907,116.9 -69.914967,0.274702,116.8 -69.914855,0.27449,116.4 -69.914718,0.27427,115.9 -69.914689,0.274206,115.9 -69.91461,0.273935,114.0 -69.914626,0.273759,114.0 -69.914688,0.273704,105.0 -69.914665,0.273684,107.0 -69.91469,0.273683,112.0 -69.914709,0.273659,112.0 -69.914722,0.273597,114.0 -69.914688,0.273521,116.0 -69.914664,0.273499,117.0 -69.914453,0.273412,114.0 -69.914458,0.273416,116.0 -69.914387,0.273417,117.0 -69.914304,0.273369,116.0 -69.914329,0.273341,114.7 -69.914335,0.273319,114.0 -69.914295,0.273244,108.0 -69.91428,0.273184,112.0 -69.914069,0.272917,116.0 -69.914023,0.272806,116.0 -69.914003,0.272658,116.0 -69.914016,0.27248,118.0 -69.913999,0.27245,117.0 -69.914007,0.27239,117.0 -69.913981,0.272375,115.0 -69.913975,0.272336,115.0 -69.913935,0.272286,117.0 -69.913915,0.272195,118.0 -69.913874,0.27214,114.0 -69.913881,0.272095,114.0 -69.913867,0.272065,116.0 -69.913833,0.272035,108.0 -69.913752,0.272008,114.0 -69.913778,0.272046,111.0 -69.91374,0.272069,113.0 -69.913734,0.272106,113.0 -69.913753,0.272104,114.0 -69.913732,0.27208,110.0 -69.913745,0.272111,100.0 -69.913676,0.272147,113.0 -69.913634,0.272089,104.0 -69.913537,0.272041,108.0 -69.913378,0.271931,107.7 -69.913343,0.271914,106.0 -69.913293,0.271905,106.0 -69.913249,0.27191,106.0 -69.91321,0.271934,106.0 -69.913146,0.271996,104.6 -69.913007,0.272176,104.0 -69.912958,0.272252,102.0 -69.912869,0.272469,100.0 -69.912832,0.272628,102.5 -69.912713,0.272814,103.6 -69.912621,0.27291,102.5 -69.912561,0.272943,102.7 -69.912114,0.273056,103.5 -69.912037,0.273061,103.3 -69.911963,0.273053,104.0 -69.911797,0.273008,104.5 -69.911563,0.27296,102.7 -69.911366,0.272937,102.2 -69.910899,0.272838,103.2 -69.910859,0.272844,101.8 -69.910814,0.272825,102.9 -69.910731,0.272809,104.0 -69.910427,0.272799,104.1 -69.910384,0.272782,104.6 -69.910252,0.272774,104.2 -69.910026,0.272769,106.3 -69.909889,0.272778,107.5 -69.909657,0.272769,109.3 -69.909605,0.272755,108.6 -69.909465,0.272745,108.6 -69.909325,0.272755,109.3 -69.909225,0.272746,108.9 -69.908812,0.272753,109.9 -69.90876,0.272761,110.2 -69.908617,0.272738,110.9 -69.908512,0.272738,111.4 -69.90836,0.272748,112.6 -69.907653,0.27276,114.6 -69.907399,0.272782,115.6 -69.90725,0.27282,116.1 -69.907109,0.272883,117.2 -69.90686,0.27297,117.7 -69.906823,0.272999,118.9 -69.906219,0.273321,119.9 -69.906182,0.273372,120.0 -69.906128,0.273393,119.0 -69.906,0.273493,118.3 -69.905877,0.27356,118.7 -69.905812,0.273574,118.3 -69.90569,0.273641,117.0 -69.905353,0.273743,114.3 -69.905047,0.2738,114.3 -69.904898,0.273804,113.3 -69.904849,0.273814,113.7 -69.904588,0.273814,112.9 -69.904541,0.27381,112.8 -69.904494,0.27379,114.3 -69.904393,0.273786,112.6 -69.904206,0.273749,110.5 -69.903986,0.273654,109.9 -69.903707,0.273453,107.9 -69.903572,0.273391,107.6 -69.903482,0.273362,107.3 -69.903439,0.273362,107.8 -69.903308,0.273403,107.4 -69.903097,0.27351,107.6 -69.902851,0.273602,106.9 -69.902743,0.273628,106.9 -69.90246,0.27362,106.0 -69.902129,0.273553,106.4 -69.901868,0.273438,106.2 -69.901822,0.273406,106.3 -69.901754,0.27333,105.7 -69.901598,0.273113,106.2 -69.90125,0.272702,106.3 -69.901107,0.272491,105.4 -69.900889,0.272209,104.7 -69.900693,0.272036,104.9 -69.900521,0.271914,105.1 -69.90031,0.271795,104.6 -69.900121,0.27174,104.7 -69.899835,0.271702,105.1 -69.899739,0.271714,105.4 -69.899556,0.271782,106.1 -69.899256,0.271953,106.2 -69.899136,0.272054,106.5 -69.899002,0.27221,107.0 -69.898885,0.272317,108.0 -69.898382,0.272701,108.0 -69.898288,0.272747,108.5 -69.898248,0.272783,108.5 -69.898156,0.272836,108.5 -69.897945,0.272983,109.4 -69.897736,0.273213,111.0 -69.897673,0.273264,110.9 -69.897564,0.273319,111.1 -69.89744,0.273352,111.5 -69.897207,0.273509,112.5 -69.897129,0.273592,112.9 -69.897026,0.273652,113.6 -69.896997,0.273698,113.6 -69.89692,0.273762,114.2 -69.896865,0.273784,114.0 -69.8967,0.273917,114.3 -69.896566,0.274083,114.4 -69.896498,0.27415,114.4 -69.896467,0.274198,114.4 -69.896078,0.2744,112.8 -69.896046,0.274435,113.4 -69.895949,0.274486,112.0 -69.8959,0.274502,111.6 -69.895643,0.274498,107.5 -69.895602,0.27448,105.6 -69.895493,0.274469,105.2 -69.895419,0.274445,104.8 -69.89529,0.274422,102.9 -69.895211,0.274467,101.0 -69.895117,0.274541,101.7 -69.894982,0.274594,99.5 -69.894901,0.274599,99.3 -69.894643,0.274663,98.7 -69.894455,0.274671,98.2 -69.894293,0.274713,98.0 -69.894121,0.274769,97.3 -69.893919,0.274858,98.1 -69.893877,0.274865,98.6 -69.893757,0.274916,98.8 -69.893672,0.274939,98.6 -69.893283,0.275093,100.6 -69.893204,0.2751,99.3 -69.893078,0.275085,98.7 -69.893014,0.275045,98.9 -69.892921,0.274956,99.2 -69.892771,0.27474,100.9 -69.892733,0.274617,102.1 -69.892721,0.274491,102.5 -69.892736,0.274401,103.5 -69.892794,0.274225,103.5 -69.892855,0.274101,103.9 -69.892992,0.273959,103.6 -69.893186,0.273793,104.4 -69.893341,0.273686,103.5 -69.893437,0.273587,103.5 -69.893512,0.273475,104.2 -69.893557,0.273354,104.2 -69.893575,0.273226,105.5 -69.893571,0.27318,105.5 -69.893495,0.27288,106.5 -69.893402,0.272722,106.8 -69.893344,0.272653,107.2 -69.893221,0.272575,107.6 -69.893139,0.272545,107.7 -69.893023,0.272537,108.5 -69.892992,0.272566,108.7 -69.892918,0.272591,109.5 -69.892761,0.272691,110.1 -69.892584,0.272749,108.6 -69.892487,0.272749,108.0 -69.892344,0.272722,107.3 -69.892208,0.272649,106.5 -69.89197,0.272468,105.3 -69.891784,0.272282,105.2 -69.891623,0.272144,105.1 -69.891388,0.272011,105.6 -69.891132,0.271926,107.3 -69.890983,0.271915,107.6 -69.890777,0.271917,108.2 -69.890725,0.271893,109.1 -69.890675,0.271897,109.5 -69.890624,0.271927,109.9 -69.890437,0.271969,111.5 -69.890281,0.27203,112.3 -69.889862,0.272237,115.5 -69.889753,0.272269,116.1 -69.889684,0.272272,115.9 -69.889606,0.27232,115.7 -69.889536,0.272323,116.0 -69.889308,0.272452,115.7 -69.889233,0.272459,115.8 -69.889135,0.272506,115.9 -69.88908,0.272516,115.9 -69.88898,0.272557,115.6 -69.888896,0.272608,116.2 -69.888866,0.272597,115.7 -69.888818,0.272614,114.6 -69.888728,0.272691,115.4 -69.888516,0.272744,113.7 -69.888413,0.272786,113.5 -69.888371,0.27279,113.7 -69.88826,0.272765,112.7 -69.888097,0.272799,112.4 -69.887755,0.272799,110.5 -69.8877,0.272791,110.3 -69.887588,0.2728,110.1 -69.887432,0.272783,109.6 -69.887137,0.272706,108.6 -69.886962,0.272619,107.9 -69.886813,0.272491,108.3 -69.88674,0.272415,108.9 -69.886615,0.272245,109.9 -69.886556,0.272096,109.3 -69.886491,0.271863,109.0 -69.886494,0.271709,109.1 -69.886532,0.271559,109.6 -69.886531,0.271496,109.0 -69.886609,0.271301,108.4 -69.886608,0.271236,107.2 -69.886634,0.271129,107.3 -69.886727,0.271002,106.2 -69.886766,0.270908,106.5 -69.886887,0.270685,106.8 -69.886949,0.270548,106.1 -69.886984,0.270507,106.0 -69.887133,0.270269,104.5 -69.887418,0.269886,103.7 -69.887689,0.269429,105.1 -69.88778,0.269236,105.7 -69.887875,0.268988,106.2 -69.887929,0.268725,107.1 -69.887913,0.268572,107.3 -69.887863,0.268373,108.2 -69.887845,0.268332,108.4 -69.887657,0.268106,109.0 -69.887506,0.267972,109.4 -69.887236,0.267833,110.3 -69.887189,0.267819,110.2 -69.887092,0.267802,109.9 -69.886937,0.267794,109.9 -69.886894,0.267811,110.0 -69.886801,0.267815,110.1 -69.886755,0.26783,110.1 -69.88662,0.267891,111.0 -69.886579,0.267925,111.8 -69.886477,0.267978,113.0 -69.886328,0.268044,113.7 -69.886272,0.268059,113.8 -69.886082,0.268159,114.6 -69.8856,0.268366,114.0 -69.88545,0.268452,114.7 -69.885236,0.268538,113.3 -69.885192,0.268569,113.0 -69.885026,0.268636,112.8 -69.884874,0.268719,112.8 -69.884659,0.268799,112.9 -69.884572,0.268862,112.2 -69.884179,0.269007,111.6 -69.884088,0.269011,111.9 -69.883851,0.2691,111.9 -69.883793,0.269101,112.0 -69.883445,0.269164,111.3 -69.883182,0.269171,111.5 -69.883071,0.269154,111.1 -69.882963,0.269169,110.5 -69.882816,0.269149,110.2 -69.882558,0.269091,108.1 -69.882397,0.269073,106.0 -69.882185,0.269029,104.6 -69.881503,0.268954,102.1 -69.881399,0.268969,103.1 -69.881238,0.268952,102.6 -69.88097,0.268984,102.7 -69.880861,0.268971,102.3 -69.880805,0.26897,102.5 -69.880752,0.268983,102.2 -69.880597,0.268971,102.8 -69.880496,0.269008,102.9 -69.880399,0.269014,103.8 -69.88034,0.269042,103.9 -69.880291,0.269045,104.4 -69.880242,0.269078,104.6 -69.879958,0.269208,107.0 -69.879913,0.269246,107.1 -69.87987,0.269258,107.2 -69.879788,0.269304,107.2 -69.879698,0.269377,108.3 -69.879623,0.269405,109.1 -69.879448,0.269572,110.2 -69.879394,0.269593,110.1 -69.879296,0.269654,110.4 -69.879239,0.26966,111.0 -69.87918,0.269736,110.9 -69.879069,0.269838,110.4 -69.878779,0.270072,109.4 -69.878744,0.270119,109.7 -69.878537,0.2703,110.9 -69.878412,0.270394,111.3 -69.878001,0.270648,112.5 -69.877815,0.27072,110.5 -69.877654,0.270755,110.1 -69.877453,0.270757,109.4 -69.877349,0.270731,108.9 -69.877266,0.270692,109.2 -69.877213,0.270679,109.1 -69.876835,0.270497,108.8 -69.876756,0.270427,108.0 -69.876709,0.270409,108.2 -69.876438,0.270224,107.3 -69.876134,0.269975,106.9 -69.876097,0.269922,107.6 -69.876047,0.269896,107.4 -69.876002,0.269854,107.8 -69.875941,0.269748,107.9 -69.875904,0.269712,108.2 -69.875851,0.269622,106.8 -69.875715,0.269501,106.0 -69.875479,0.269247,106.0 -69.875284,0.268995,103.3 -69.874922,0.268578,101.0 -69.874674,0.268379,101.4 -69.874593,0.268303,102.0 -69.874158,0.267963,102.7 -69.874019,0.267873,102.4 -69.873922,0.267824,102.5 -69.873514,0.267672,102.9 -69.873304,0.267636,103.1 -69.873148,0.267635,103.3 -69.873048,0.267648,103.1 -69.872892,0.267696,103.2 -69.872676,0.267732,102.5 -69.872163,0.267779,101.8 -69.872055,0.267811,102.2 -69.87191,0.267899,103.4 -69.871821,0.267967,103.1 -69.871429,0.268334,106.2 -69.870927,0.268767,108.3 -69.870748,0.268883,107.8 -69.870648,0.268958,108.8 -69.870609,0.269002,108.9 -69.870338,0.269194,110.4 -69.870312,0.269244,110.5 -69.870174,0.269342,111.2 -69.870012,0.26948,112.5 -69.869641,0.26964,108.4 -69.869345,0.269804,108.7 -69.869263,0.269822,109.3 -69.869169,0.269891,108.9 -69.869117,0.269912,108.4 -69.869069,0.269961,108.6 -69.868972,0.270003,108.0 -69.868881,0.270071,107.7 -69.868829,0.270085,107.3 -69.868775,0.270085,106.8 -69.868671,0.270121,106.8 -69.868566,0.270107,106.8 -69.868517,0.270117,106.7 -69.868467,0.270113,106.2 -69.868262,0.270068,105.8 -69.868008,0.269961,105.9 -69.868127,0.270009,102.0 -69.86803,0.27012,105.0 -69.857803,0.261163,117.7 -69.857823,0.260991,120.8 -69.857761,0.260976,120.7 -69.857702,0.260865,120.8 -69.857324,0.259825,121.4 -69.857381,0.259675,121.8 -69.857362,0.259596,121.5 -69.857338,0.259556,121.5 -69.857204,0.258843,122.7 -69.856914,0.258175,122.3 -69.85642,0.257964,123.2 -69.85212,0.259574,112.6 -69.85174,0.261299,112.6 -69.851742,0.262068,115.2 -69.85151,0.264071,117.6 -69.851553,0.264174,118.0 -69.851412,0.265112,118.6 -69.851421,0.265191,118.6 -69.851334,0.265221,117.7 -69.851272,0.265339,118.3 -69.851239,0.265457,118.3 -69.851153,0.265577,117.8 -69.851129,0.265636,118.3 -69.851046,0.265693,118.9 -69.850964,0.265822,118.7 -69.850443,0.266012,119.1 -69.850359,0.265995,118.9 -69.850311,0.266007,118.8 -69.85025,0.265987,119.0 -69.850092,0.266009,118.6 -69.849623,0.265996,118.9 -69.849506,0.266023,119.0 -69.849496,0.266079,119.0 -69.849467,0.266047,119.5 -69.849412,0.266066,119.4 -69.849374,0.266091,119.5 -69.849171,0.266099,119.4 -69.848023,0.266296,103.9 -69.847967,0.266231,105.0 -69.847913,0.266235,106.1 -69.846349,0.265796,119.3 -69.84628,0.26574,118.6 -69.84622,0.26571,118.7 -69.846176,0.265641,118.6 -69.846149,0.265572,118.8 -69.846035,0.265229,117.3 -69.846007,0.265183,117.8 -69.845979,0.265092,117.3 -69.845802,0.264189,114.3 -69.845836,0.264121,114.2 -69.845836,0.26407,114.0 -69.846465,0.263701,113.0 -69.846517,0.263631,113.2 -69.84705,0.26347,113.0 -69.84713,0.263415,112.9 -69.847188,0.263405,112.4 -69.847222,0.263448,112.3 -69.847327,0.263446,112.0 -69.847398,0.263421,112.2 -69.847447,0.263351,112.3 -69.84752,0.263311,110.0 -69.847587,0.263254,111.8 -69.847663,0.26317,111.7 -69.847676,0.263081,111.5 -69.847723,0.263024,111.5 -69.847859,0.262718,111.4 -69.847829,0.262053,110.9 -69.847837,0.261984,110.7 -69.847806,0.261944,110.6 -69.847764,0.261917,110.4 -69.847774,0.26184,110.7 -69.847738,0.261733,110.2 -69.847752,0.261679,110.4 -69.847721,0.261628,110.1 -69.847677,0.26158,110.3 -69.847655,0.26151,109.9 -69.847643,0.261417,109.8 -69.847618,0.26137,109.7 -69.847615,0.261317,109.8 -69.847628,0.26127,109.5 -69.847629,0.261217,109.4 -69.847621,0.261169,109.2 -69.847536,0.26093,109.6 -69.84751,0.260898,108.8 -69.847479,0.260785,108.5 -69.847359,0.260546,109.5 -69.847245,0.259493,110.4 -69.84722,0.259446,110.7 -69.847261,0.259323,110.0 -69.847285,0.259056,110.7 -69.847315,0.258978,110.2 -69.847318,0.258931,110.1 -69.847379,0.258897,110.0 -69.847375,0.258648,109.7 -69.847397,0.25839,109.3 -69.846685,0.258199,113.8 -69.846613,0.25817,114.9 -69.846515,0.258156,114.7 -69.846464,0.258138,115.1 -69.846396,0.258096,115.8 -69.84634,0.258081,116.0 -69.846231,0.258023,115.8 -69.84615,0.258035,114.0 -69.846078,0.258087,115.8 -69.846036,0.258075,116.1 -69.845979,0.25803,116.1 -69.845928,0.258023,116.3 -69.845861,0.258081,116.3 -69.845761,0.258083,116.7 -69.845724,0.258116,117.1 -69.845673,0.258115,117.4 -69.845596,0.258069,117.4 -69.845562,0.258112,117.6 -69.845491,0.258083,117.3 -69.845433,0.258073,117.6 -69.845285,0.258007,117.6 -69.845225,0.257995,117.5 -69.845119,0.257999,117.7 -69.845019,0.257915,117.4 -69.844906,0.257797,117.2 -69.844764,0.257599,117.9 -69.844577,0.257381,117.1 -69.844408,0.257246,114.3 -69.844331,0.257162,112.8 -69.844225,0.256975,109.7 -69.84415,0.256772,108.1 -69.844103,0.256672,107.1 -69.843942,0.256449,106.5 -69.843805,0.256284,106.5 -69.843395,0.255939,107.8 -69.843284,0.255814,108.0 -69.84307,0.255619,107.0 -69.843021,0.255586,106.6 -69.842915,0.25554,106.8 -69.842586,0.255447,103.9 -69.842,0.255348,102.5 -69.841795,0.255338,102.2 -69.841646,0.255372,102.2 -69.84125,0.255542,101.5 -69.840991,0.255633,101.7 -69.840724,0.255706,101.8 -69.839613,0.25591,101.9 -69.838718,0.25605,102.2 -69.838198,0.256158,102.6 -69.837847,0.256245,102.7 -69.838069,0.256188,102.0 -69.837406,0.256378,102.9 -69.837123,0.256498,102.4 -69.836948,0.256603,102.8 -69.836538,0.256923,103.8 -69.836221,0.257198,105.1 -69.836107,0.257311,104.9 -69.835794,0.257667,104.7 -69.835377,0.258221,105.3 -69.834921,0.25894,105.0 -69.834003,0.260255,101.9 -69.833558,0.26083,101.9 -69.833309,0.261095,101.4 -69.832966,0.261397,103.0 -69.832193,0.262013,101.9 -69.831805,0.26228,101.9 -69.831267,0.262591,101.7 -69.831076,0.262672,101.4 -69.830828,0.262737,101.7 -69.830674,0.262744,102.9 -69.830574,0.262737,103.6 -69.830721,0.262723,103.6 -69.830397,0.262687,104.7 -69.830273,0.262621,105.8 -69.830194,0.262556,106.6 -69.83014,0.262453,107.0 -69.830153,0.262409,107.4 -69.830115,0.262332,107.6 -69.830075,0.26206,109.3 -69.830037,0.261983,110.3 -69.830023,0.26192,110.7 -69.830025,0.261875,110.9 -69.829972,0.261664,112.1 -69.829922,0.261543,112.4 -69.829892,0.261495,112.2 -69.829919,0.26148,112.6 -69.829918,0.261411,113.1 -69.829899,0.261342,113.3 -69.82983,0.261229,113.8 -69.829786,0.261108,114.5 -69.829764,0.261083,114.6 -69.829787,0.260981,115.2 -69.829748,0.260826,115.0 -69.829757,0.260779,115.3 -69.829745,0.260729,115.6 -69.829681,0.260577,114.0 -69.829638,0.260513,115.7 -69.829599,0.260427,115.8 -69.82959,0.260366,115.8 -69.829596,0.260286,116.1 -69.82955,0.260222,116.0 -69.829516,0.260125,115.9 -69.829472,0.260092,116.1 -69.829441,0.259987,115.7 -69.82937,0.25994,116.2 -69.829342,0.2599,116.3 -69.829313,0.259836,116.3 -69.829282,0.259729,115.9 -69.829279,0.259683,115.6 -69.829211,0.25955,116.1 -69.829191,0.259487,114.0 -69.829143,0.259459,115.6 -69.829117,0.259432,115.4 -69.829033,0.259305,115.0 -69.829002,0.259232,115.0 -69.828836,0.258949,114.0 -69.828825,0.25889,113.8 -69.828788,0.258851,113.0 -69.828756,0.258798,111.9 -69.828189,0.258117,105.2 -69.827727,0.257619,103.7 -69.827433,0.257331,105.2 -69.827571,0.257461,105.2 -69.82706,0.256973,105.2 -69.826826,0.256766,104.4 -69.826386,0.256313,103.6 -69.826113,0.256065,103.3 -69.825943,0.255934,102.6 -69.825904,0.255895,102.8 -69.825882,0.255855,102.5 -69.825713,0.25572,102.5 -69.825611,0.255605,102.9 -69.825567,0.255575,103.1 -69.825426,0.255436,102.7 -69.824927,0.25492,102.0 -69.824626,0.254558,103.1 -69.82455,0.254486,103.0 -69.82447,0.25436,103.1 -69.82437,0.254269,103.2 -69.824341,0.254221,104.1 -69.82432,0.254151,104.3 -69.824268,0.25413,104.3 -69.824183,0.253979,105.0 -69.824106,0.253969,104.9 -69.824097,0.253936,105.6 -69.823866,0.253668,103.3 -69.823783,0.253601,103.1 -69.823717,0.253525,103.2 -69.823603,0.253418,103.0 -69.823539,0.253341,104.6 -69.823424,0.253237,103.3 -69.82313,0.253044,104.7 -69.82294,0.252976,105.6 -69.822378,0.253482,110.6 -69.822354,0.253524,111.2 -69.822359,0.25358,110.6 -69.822293,0.25365,111.7 -69.822034,0.254186,112.4 -69.821972,0.254396,113.5 -69.821979,0.254469,113.6 -69.821903,0.254691,114.5 -69.821879,0.254725,114.7 -69.82183,0.254744,114.3 -69.82172,0.254907,115.1 -69.821725,0.254962,115.9 -69.821529,0.255551,116.9 -69.821527,0.255599,117.0 -69.821478,0.255685,114.9 -69.821408,0.255928,110.1 -69.821352,0.256067,108.3 -69.821276,0.256327,107.5 -69.821096,0.256821,106.5 -69.821046,0.256902,106.2 -69.821001,0.257059,105.3 -69.820754,0.257561,104.3 -69.820722,0.257663,104.2 -69.820573,0.258003,102.8 -69.820379,0.25855,104.5 -69.820334,0.258643,104.3 -69.820155,0.258948,103.1 -69.819909,0.259343,101.6 -69.819861,0.259435,101.4 -69.819955,0.259265,101.7 -69.819698,0.259764,101.6 -69.819676,0.259864,101.3 -69.819263,0.260615,99.9 -69.819176,0.260743,99.8 -69.819075,0.26086,99.6 -69.818921,0.260996,99.6 -69.818837,0.261051,99.5 -69.818744,0.261091,99.5 -69.818647,0.261113,100.0 -69.818504,0.26112,100.3 -69.818407,0.261096,100.3 -69.818282,0.26103,100.0 -69.818144,0.26089,100.3 -69.818066,0.260767,99.5 -69.817698,0.259918,101.0 -69.817642,0.259702,101.5 -69.817579,0.259545,101.4 -69.817411,0.259272,102.0 -69.817315,0.259148,101.7 -69.817194,0.259045,102.1 -69.817025,0.258933,102.0 -69.816995,0.258903,101.5 -69.816852,0.258833,100.3 -69.816501,0.258717,101.8 -69.816347,0.258681,102.6 -69.815999,0.258565,103.2 -69.815626,0.258399,105.3 -69.81541,0.258254,104.5 -69.815329,0.258185,104.4 -69.815263,0.25811,103.7 -69.815166,0.257985,104.1 -69.815079,0.257853,104.3 -69.815039,0.257712,104.9 -69.815051,0.257552,104.5 -69.815075,0.25747,103.9 -69.815145,0.25734,103.5 -69.815213,0.257262,103.9 -69.815401,0.257095,103.0 -69.815458,0.25701,102.9 -69.81562,0.256685,102.7 -69.815684,0.256479,102.6 -69.815785,0.256062,102.0 -69.815852,0.255618,100.5 -69.815852,0.25542,99.9 -69.81584,0.255658,100.0 -69.815822,0.25513,100.1 -69.815712,0.254482,100.7 -69.815637,0.253739,100.8 -69.815607,0.253589,101.0 -69.815609,0.253533,101.2 -69.815562,0.25316,103.2 -69.81544,0.252567,104.5 -69.815118,0.251361,103.2 -69.81504,0.251101,103.6 -69.814881,0.250666,104.1 -69.814827,0.250575,104.4 -69.814582,0.250285,105.7 -69.814509,0.250218,105.4 -69.81419,0.249848,105.3 -69.814009,0.249502,104.6 -69.813931,0.249273,104.6 -69.813902,0.249127,104.9 -69.813846,0.248478,105.4 -69.813861,0.248269,104.8 -69.813908,0.248011,103.3 -69.81396,0.247815,102.4 -69.814065,0.24753,103.3 -69.814564,0.246399,105.1 -69.814815,0.245771,105.5 -69.814932,0.245327,104.6 -69.814974,0.245127,105.0 -69.815051,0.244664,104.5 -69.815059,0.244309,105.4 -69.815048,0.244061,106.4 -69.815064,0.243944,106.0 -69.815058,0.243734,106.8 -69.815032,0.243521,106.2 -69.814964,0.243111,106.7 -69.814999,0.243295,106.5 -69.814878,0.24281,106.2 -69.814753,0.242527,105.7 -69.81468,0.242389,105.9 -69.814533,0.242169,106.7 -69.814419,0.242075,103.7 -69.814319,0.241965,104.6 -69.814145,0.24185,105.0 -69.814053,0.241803,105.0 -69.813701,0.241738,103.9 -69.813223,0.2417,103.4 -69.813064,0.241714,102.9 -69.812965,0.241748,103.2 -69.812874,0.241799,103.1 -69.812476,0.242142,102.0 -69.812299,0.242257,101.7 -69.812117,0.242357,101.6 -69.811928,0.242444,102.0 -69.81044,0.242974,101.2 -69.81011,0.243101,101.2 -69.809834,0.243226,101.3 -69.809669,0.243342,101.8 -69.809598,0.243408,102.2 -69.809784,0.24327,101.8 -69.809274,0.244033,101.7 -69.80914,0.24447,99.8 -69.809064,0.244772,99.6 -69.809019,0.245026,99.1 -69.808973,0.24559,99.7 -69.808922,0.245994,99.1 -69.808851,0.246346,99.7 -69.808679,0.246983,99.8 -69.808597,0.247167,99.4 -69.808526,0.247297,98.9 -69.808089,0.24787,99.2 -69.807552,0.248492,100.3 -69.807188,0.248839,99.7 -69.806993,0.249073,99.4 -69.806625,0.249565,99.2 -69.80633,0.249918,100.1 -69.805841,0.250362,100.9 -69.805161,0.250902,101.9 -69.803926,0.251786,99.5 -69.803589,0.252095,99.9 -69.803504,0.25222,99.4 -69.803443,0.252355,99.3 -69.803393,0.252547,98.6 -69.803352,0.252901,98.4 -69.80331,0.253619,97.9 -69.80327,0.253917,98.1 -69.803216,0.254161,98.3 -69.803253,0.25399,98.2 -69.803133,0.254448,98.3 -69.802832,0.255449,98.1 -69.802682,0.256031,98.8 -69.802495,0.256665,98.8 -69.802386,0.257002,99.6 -69.802092,0.257828,99.3 -69.801844,0.258391,99.3 -69.801698,0.258599,99.2 -69.801596,0.258711,99.7 -69.801395,0.25886,99.5 -69.801127,0.258996,100.0 -69.800778,0.259203,100.4 -69.800506,0.259334,100.0 -69.800023,0.259467,99.7 -69.799593,0.259602,100.2 -69.799299,0.259679,101.2 -69.797607,0.260203,99.2 -69.797365,0.260269,99.1 -69.797166,0.260311,99.5 -69.797337,0.260274,99.4 -69.796662,0.260367,100.0 -69.796512,0.260366,99.5 -69.796366,0.260346,99.6 -69.796222,0.260307,99.6 -69.796079,0.260252,99.3 -69.795995,0.260202,98.8 -69.795884,0.260104,99.6 -69.795769,0.259948,99.2 -69.795732,0.259861,98.6 -69.795712,0.259728,98.0 -69.795734,0.259545,97.8 -69.795751,0.259454,97.8 -69.795857,0.259079,97.2 -69.796158,0.258112,97.8 -69.796085,0.258331,96.0 -69.796214,0.257912,98.4 -69.796556,0.256637,97.6 -69.796688,0.256255,97.0 -69.796791,0.256023,97.4 -69.796902,0.255854,97.4 -69.797003,0.255746,97.8 -69.797158,0.255627,98.0 -69.797334,0.255537,97.8 -69.79714,0.255651,96.0 -69.797703,0.255379,98.1 -69.797919,0.255238,98.3 -69.798023,0.255123,98.6 -69.798073,0.25504,97.8 -69.798164,0.254806,97.5 -69.798221,0.254603,98.2 -69.798233,0.2545,97.9 -69.798227,0.254394,98.2 -69.798194,0.2543,98.7 -69.798142,0.254204,98.6 -69.797999,0.254068,98.5 -69.797869,0.254008,98.4 -69.797773,0.253979,98.4 -69.797676,0.253963,98.5 -69.797479,0.253966,98.2 -69.797226,0.253954,97.8 -69.797074,0.253935,97.5 -69.796672,0.253844,97.0 -69.796401,0.253714,97.0 -69.796554,0.253787,96.0 -69.796273,0.253644,96.8 -69.795886,0.253425,97.0 -69.79539,0.253098,97.8 -69.794732,0.252587,96.9 -69.794477,0.252362,96.7 -69.79427,0.252154,96.7 -69.794112,0.251964,97.3 -69.793849,0.251609,98.5 -69.793714,0.251457,97.8 -69.793568,0.251342,96.0 -69.793477,0.251298,98.0 -69.793368,0.251281,98.0 -69.793237,0.251306,95.0 -69.793182,0.251348,96.0 -69.79311,0.251323,100.0 -69.793087,0.251367,91.0 -69.793035,0.251401,98.0 -69.792925,0.251498,100.0 -69.792883,0.25149,102.0 -69.792809,0.251509,105.0 -69.792475,0.251629,108.0 -69.792425,0.251635,109.9 -69.792385,0.251667,108.0 -69.792234,0.251698,108.0 -69.792096,0.251756,108.0 -69.792067,0.251782,108.0 -69.791978,0.251819,110.0 -69.791777,0.251936,108.0 -69.791677,0.251956,108.0 -69.791505,0.252042,112.5</coordinates>
                </LineString>
            </MultiGeometry>
        </Placemark>
        <Placemark id="9">
            <name>Caruru</name>
            <description/>
            <styleUrl>#10</styleUrl>
            <Point id="8">
                <coordinates>-69.91418,0.27301,120</coordinates>
            </Point>
        </Placemark>
        <Placemark id="14">
            <name>Connaraceae</name>
            <description/>
            <styleUrl>#15</styleUrl>
            <Point id="13">
                <coordinates>-69.96254,0.26221,120</coordinates>
            </Point>
        </Placemark>
    </Document>
</kml>
