<?xml version="1.0" encoding="UTF-8"?>
<kml xmlns="http://www.opengis.net/kml/2.2" xmlns:gx="http://www.google.com/kml/ext/2.2">
    <Document id="1">
        <Placemark id="3">
            <Style id="6">
                <LineStyle id="7">
                    <color>ffBC26A7</color>
                    <colorMode>normal</colorMode>
                    <width>1</width>
                </LineStyle>
            </Style>
            <name>Bela adormecida Rio até o acampamento 1</name>
            <description/>
            <MultiGeometry id="2">
                <LineString id="4">
                    <extrude>0</extrude>
                    <altitudeMode>clampToGround</altitudeMode>
                    <coordinates>-66.854224,-0.233529,62.7 -66.854161,-0.233572,60.0 -66.854116,-0.233579,60.0 -66.854102,-0.233612,60.0 -66.853984,-0.233668,60.0 -66.853945,-0.233674,51.0 -66.853882,-0.233716,62.0 -66.853796,-0.233806,60.0 -66.853756,-0.233818,55.0 -66.853687,-0.233812,60.0 -66.853618,-0.233827,60.0 -66.853555,-0.233865,56.0 -66.853524,-0.233914,60.0 -66.85346,-0.233971,62.0 -66.853444,-0.234019,64.0 -66.853375,-0.234068,64.0 -66.853358,-0.234125,65.0 -66.853332,-0.234193,66.0 -66.853305,-0.234215,60.0 -66.853253,-0.234298,66.0 -66.853202,-0.2343,66.0 -66.853167,-0.234321,66.0 -66.853092,-0.234394,67.0 -66.853079,-0.234426,66.0 -66.853052,-0.23445,66.0 -66.852958,-0.234469,66.0 -66.852938,-0.234503,66.0 -66.852938,-0.234575,66.0 -66.852799,-0.234667,65.0 -66.852722,-0.234742,63.0 -66.852643,-0.234785,68.0 -66.852457,-0.234755,66.0 -66.852398,-0.234797,54.0 -66.852339,-0.234798,66.0 -66.852325,-0.234775,66.0 -66.852292,-0.23478,67.0 -66.852224,-0.234814,66.0 -66.852186,-0.234806,67.0 -66.852156,-0.23485,69.0 -66.852095,-0.234886,67.0 -66.852048,-0.234889,68.0 -66.852009,-0.234853,68.0 -66.851876,-0.234964,68.7 -66.85186,-0.234949,68.0 -66.851799,-0.234961,68.5 -66.851832,-0.234956,68.0 -66.851814,-0.235014,66.0 -66.851818,-0.235054,68.0 -66.851795,-0.235097,67.0 -66.851763,-0.235133,69.0 -66.851673,-0.235155,71.0 -66.851671,-0.235214,63.0 -66.851695,-0.23524,66.0 -66.851677,-0.235297,66.0 -66.851577,-0.235336,64.0 -66.851558,-0.235307,68.0 -66.85155,-0.235345,70.8 -66.851577,-0.235357,70.0 -66.851556,-0.235384,70.9 -66.851499,-0.235361,66.0 -66.85147,-0.235336,69.0 -66.851467,-0.235366,70.0 -66.851419,-0.23544,68.0 -66.851374,-0.235458,69.0 -66.851397,-0.235494,70.0 -66.851427,-0.235497,69.0 -66.851452,-0.235471,68.0 -66.851424,-0.235424,69.0 -66.851417,-0.235453,71.2 -66.851456,-0.235468,70.0 -66.85139,-0.235472,66.0 -66.851403,-0.235503,68.0 -66.851398,-0.235536,68.0 -66.851375,-0.23557,69.0 -66.851369,-0.235646,72.0 -66.851346,-0.235674,72.0 -66.851316,-0.235691,72.0 -66.851313,-0.235753,74.0 -66.85128,-0.235756,72.0 -66.851255,-0.235736,72.0 -66.851211,-0.235728,71.0 -66.851136,-0.235725,72.0 -66.851074,-0.235771,71.0 -66.851051,-0.235843,70.0 -66.850929,-0.236001,75.0 -66.850898,-0.236106,72.0 -66.850845,-0.236159,76.0 -66.850836,-0.236194,75.0 -66.850791,-0.236248,75.0 -66.850703,-0.236276,74.0 -66.850694,-0.236318,70.0 -66.850721,-0.23635,84.0 -66.850666,-0.236399,80.0 -66.850584,-0.236506,75.0 -66.850546,-0.236512,74.0 -66.85051,-0.236505,74.0 -66.850438,-0.236525,75.0 -66.850377,-0.236583,72.0 -66.850348,-0.236595,76.0 -66.850363,-0.236526,72.0 -66.85039,-0.236509,72.0 -66.850427,-0.23652,68.0 -66.850451,-0.236544,76.0 -66.850432,-0.236517,76.0 -66.850372,-0.236483,75.0 -66.850359,-0.236521,79.1 -66.850352,-0.236504,75.0 -66.850391,-0.236529,77.0 -66.850444,-0.236495,74.0 -66.850465,-0.236545,70.0 -66.850427,-0.236542,72.0 -66.850396,-0.236492,76.7 -66.850399,-0.236522,76.7 -66.850367,-0.236523,77.2 -66.850361,-0.23658,77.0 -66.850357,-0.23655,79.0 -66.850393,-0.236509,74.0 -66.850268,-0.236619,77.0 -66.850208,-0.236747,75.0 -66.850177,-0.23678,77.0 -66.85012,-0.2368,77.0 -66.850014,-0.236861,76.0 -66.849944,-0.236841,77.0 -66.849907,-0.236848,75.0 -66.849853,-0.236903,74.0 -66.849744,-0.2369,75.0 -66.849671,-0.236885,75.0 -66.849616,-0.236935,78.0 -66.849523,-0.236976,72.0 -66.849434,-0.23703,78.0 -66.849351,-0.237052,76.0 -66.849282,-0.237135,75.0 -66.849196,-0.2372,68.0 -66.849151,-0.237214,77.0 -66.849101,-0.237253,75.0 -66.849063,-0.237314,75.0 -66.849006,-0.237348,72.0 -66.848969,-0.237357,72.0 -66.84897,-0.237404,76.9 -66.848963,-0.237388,74.0 -66.84892,-0.23739,78.0 -66.848884,-0.237458,78.0 -66.848852,-0.23748,78.0 -66.848792,-0.237576,78.0 -66.848701,-0.237643,81.2 -66.848636,-0.237666,78.0 -66.848533,-0.237674,76.0 -66.848443,-0.237708,72.0 -66.848421,-0.237732,72.0 -66.848367,-0.237745,77.3 -66.848365,-0.237765,77.0 -66.848275,-0.237831,78.0 -66.84814,-0.237871,74.0 -66.848074,-0.238073,76.0 -66.848096,-0.238113,72.0 -66.848042,-0.238152,75.0 -66.848037,-0.238193,75.0 -66.848009,-0.238218,74.0 -66.848032,-0.238253,72.0 -66.848044,-0.238296,74.0 -66.848016,-0.238384,72.0 -66.848022,-0.238462,79.4 -66.84806,-0.238505,80.0 -66.848059,-0.238591,78.0 -66.848046,-0.23866,78.0 -66.848062,-0.23872,75.0 -66.848039,-0.238819,75.0 -66.848036,-0.238918,78.0 -66.848014,-0.239005,79.0 -66.84802,-0.239201,83.0 -66.847994,-0.239286,84.0 -66.847998,-0.239337,83.0 -66.847966,-0.239422,78.0 -66.847965,-0.239511,81.0 -66.847925,-0.239606,84.0 -66.847904,-0.239622,84.0 -66.847895,-0.239688,85.0 -66.847915,-0.239732,84.0 -66.847917,-0.239787,85.0 -66.847892,-0.239843,83.0 -66.847899,-0.239922,86.0 -66.847886,-0.239964,83.0 -66.847844,-0.239962,80.0 -66.847878,-0.240024,84.0 -66.847884,-0.240073,83.0 -66.847806,-0.24006,84.0 -66.847776,-0.24008,84.0 -66.84776,-0.240146,83.0 -66.847759,-0.240213,81.0 -66.847735,-0.240293,84.0 -66.84776,-0.240276,87.0 -66.84778,-0.240332,82.0 -66.847701,-0.240423,80.0 -66.847683,-0.240454,84.0 -66.847666,-0.240523,84.0 -66.847633,-0.240568,85.0 -66.847556,-0.240621,84.0 -66.847519,-0.240627,84.0 -66.847458,-0.240657,80.0 -66.847362,-0.240656,82.0 -66.847328,-0.240706,80.0 -66.847318,-0.240776,80.0 -66.847297,-0.240813,79.0 -66.847312,-0.240879,84.0 -66.847352,-0.240929,83.0 -66.847364,-0.240965,84.0 -66.847406,-0.241002,82.0 -66.847409,-0.241113,82.0 -66.847388,-0.241216,82.0 -66.847425,-0.241334,82.0 -66.847461,-0.241378,84.0 -66.847474,-0.241412,84.0 -66.847459,-0.241489,87.0 -66.847487,-0.241568,87.0 -66.847434,-0.241589,87.0 -66.847408,-0.241634,87.0 -66.84737,-0.241798,87.0 -66.84737,-0.241835,85.0 -66.847348,-0.241865,87.0 -66.847394,-0.241932,85.0 -66.847428,-0.242029,84.0 -66.847418,-0.242061,84.0 -66.847451,-0.24211,86.0 -66.847464,-0.242167,80.0 -66.847457,-0.242198,84.0 -66.847389,-0.242262,86.0 -66.84727,-0.242246,83.0 -66.847174,-0.242275,82.0 -66.847124,-0.242348,85.0 -66.84711,-0.242448,84.0 -66.847044,-0.242528,84.0 -66.847013,-0.242632,84.0 -66.846961,-0.242679,87.0 -66.846852,-0.242817,87.0 -66.846818,-0.242836,86.0 -66.846811,-0.242896,84.0 -66.846787,-0.24292,87.0 -66.846725,-0.242941,85.0 -66.846688,-0.242978,86.0 -66.846671,-0.243028,85.8 -66.846627,-0.243079,84.0 -66.846611,-0.243141,84.0 -66.84662,-0.243215,84.0 -66.846574,-0.24334,86.0 -66.846551,-0.243374,84.0 -66.846516,-0.243372,87.0 -66.846342,-0.243299,90.0 -66.846309,-0.243298,91.0 -66.846264,-0.24327,90.0 -66.84622,-0.243256,89.0 -66.846089,-0.243287,85.0 -66.845952,-0.24335,88.0 -66.845919,-0.243379,87.0 -66.845861,-0.243395,88.0 -66.845825,-0.24342,90.0 -66.845728,-0.24353,84.0 -66.845677,-0.243677,86.0 -66.845631,-0.243738,85.0 -66.845604,-0.243818,85.0 -66.845541,-0.243909,80.0 -66.845422,-0.243971,84.0 -66.845412,-0.244011,88.0 -66.845385,-0.244029,87.0 -66.845369,-0.244074,87.0 -66.845345,-0.244103,87.0 -66.845311,-0.244124,84.0 -66.845283,-0.24417,91.0 -66.845226,-0.244221,92.0 -66.84517,-0.24425,92.0 -66.845032,-0.244361,90.0 -66.844932,-0.244584,84.0 -66.844845,-0.244712,85.0 -66.844856,-0.244757,88.8 -66.84485,-0.244774,87.0 -66.844751,-0.244887,84.0 -66.844708,-0.244913,85.0 -66.84467,-0.244911,85.0 -66.844627,-0.244963,84.0 -66.844581,-0.24498,86.0 -66.844534,-0.245019,85.0 -66.844427,-0.245043,85.0 -66.844309,-0.24503,84.0 -66.844272,-0.245042,84.0 -66.844238,-0.245076,86.0 -66.844249,-0.245101,87.0 -66.844139,-0.245137,81.0 -66.84411,-0.245254,81.0 -66.844109,-0.245293,81.1 -66.844074,-0.245385,77.0 -66.844099,-0.24541,76.0 -66.844151,-0.245423,79.7 -66.844099,-0.245421,72.0 -66.84407,-0.245441,84.0 -66.844141,-0.24545,84.0 -66.844097,-0.245551,85.9 -66.844034,-0.245514,84.0 -66.844001,-0.245512,84.0 -66.843991,-0.245482,82.0 -66.843958,-0.24549,83.9 -66.844077,-0.245454,83.0 -66.844135,-0.245424,81.0 -66.844123,-0.2454,80.0 -66.844087,-0.245403,74.0 -66.843982,-0.245442,79.6 -66.844023,-0.245421,85.0 -66.84408,-0.245395,84.0 -66.8441,-0.245433,85.8 -66.844086,-0.2454,80.0 -66.844055,-0.245414,80.0 -66.844008,-0.245454,80.0 -66.843997,-0.245521,81.0 -66.844005,-0.245567,84.0 -66.843954,-0.245608,84.0 -66.843941,-0.245664,86.0 -66.84392,-0.245695,86.0 -66.843894,-0.245785,89.0 -66.843883,-0.24589,90.0 -66.843895,-0.245914,89.0 -66.843894,-0.245957,89.0 -66.843924,-0.246109,84.0 -66.843901,-0.246173,82.0 -66.843919,-0.246288,88.0 -66.8439,-0.246373,88.0 -66.843903,-0.246414,87.0 -66.84387,-0.24648,85.0 -66.84383,-0.246509,85.0 -66.843777,-0.246598,84.0 -66.843748,-0.246617,84.0 -66.843704,-0.24668,84.0 -66.843693,-0.246743,84.0 -66.84372,-0.246772,84.0 -66.84369,-0.246797,84.0 -66.843597,-0.246828,80.0 -66.84355,-0.246886,80.0 -66.843624,-0.247018,82.0 -66.843579,-0.247122,78.0 -66.84358,-0.247173,78.0 -66.843551,-0.247237,80.0 -66.843547,-0.24727,78.0 -66.843572,-0.247319,80.4 -66.843538,-0.247413,80.0 -66.84354,-0.247456,78.0 -66.843526,-0.247541,75.0 -66.843576,-0.247621,78.0 -66.843657,-0.247796,75.0 -66.843764,-0.24794,75.0 -66.843799,-0.248079,70.0 -66.843835,-0.248107,72.0 -66.843868,-0.248117,75.0 -66.843895,-0.248176,72.0 -66.843937,-0.248206,73.3 -66.843978,-0.248293,72.0 -66.843947,-0.24831,72.0 -66.843946,-0.248397,72.0 -66.843897,-0.248431,74.0 -66.843938,-0.24852,70.0 -66.843902,-0.248657,72.0 -66.843902,-0.248732,70.0 -66.843923,-0.248809,75.0 -66.843901,-0.248817,76.0 -66.843919,-0.248815,75.0 -66.843945,-0.248836,78.0 -66.843974,-0.248842,76.0 -66.843987,-0.248885,72.0 -66.843972,-0.249058,76.0 -66.843983,-0.249136,78.0 -66.843956,-0.249222,78.0 -66.84402,-0.24932,78.0 -66.844038,-0.249378,72.0 -66.844096,-0.249363,78.0 -66.844133,-0.249378,74.0 -66.84415,-0.249443,75.0 -66.844185,-0.24949,76.0 -66.844247,-0.249546,76.0 -66.844268,-0.24961,78.0 -66.844198,-0.249653,80.0 -66.844187,-0.249695,78.0 -66.844221,-0.249813,78.0 -66.844223,-0.249884,80.0 -66.844259,-0.249984,83.0 -66.844238,-0.250016,84.0 -66.844207,-0.25004,84.0 -66.844194,-0.250084,84.0 -66.8442,-0.250114,85.0 -66.844186,-0.250155,84.0 -66.844111,-0.250253,84.0 -66.844102,-0.25039,78.0 -66.844067,-0.250478,78.0 -66.844006,-0.250556,80.0 -66.843999,-0.25059,79.0 -66.843923,-0.25067,84.0 -66.84392,-0.250726,84.0 -66.843866,-0.250819,84.0 -66.843805,-0.250893,85.0 -66.84381,-0.250918,85.0 -66.843759,-0.250961,84.0 -66.843806,-0.250944,88.0 -66.843728,-0.250986,89.9 -66.843756,-0.251007,87.0 -66.843546,-0.251039,80.0 -66.843651,-0.251026,80.0 -66.843711,-0.25099,84.0 -66.843776,-0.250986,72.0 -66.84374,-0.251006,84.0 -66.843726,-0.25098,81.0 -66.843829,-0.250844,82.0 -66.843896,-0.250805,84.0 -66.843929,-0.250758,84.0 -66.843898,-0.250754,82.0 -66.843918,-0.250723,80.0 -66.843888,-0.250803,84.0 -66.843802,-0.250898,84.0 -66.843764,-0.250968,84.0 -66.843703,-0.250993,85.0 -66.843705,-0.251036,84.0 -66.843607,-0.251051,81.0 -66.843574,-0.251018,84.0 -66.843451,-0.251143,87.0 -66.84334,-0.25121,84.0 -66.843322,-0.251235,85.0 -66.843252,-0.251282,84.0 -66.843198,-0.251341,85.0 -66.843127,-0.25135,85.0 -66.843035,-0.251389,83.0 -66.842997,-0.251432,80.0 -66.842914,-0.251472,85.0 -66.842885,-0.25153,84.0 -66.842854,-0.251563,84.0 -66.842814,-0.251649,84.0 -66.84279,-0.251672,84.0 -66.842771,-0.251728,84.0 -66.842743,-0.251768,84.0 -66.842748,-0.251821,82.0 -66.842662,-0.251941,83.0 -66.842687,-0.251971,85.0 -66.842657,-0.251982,85.0 -66.842618,-0.252015,85.0 -66.842611,-0.252104,87.0 -66.842592,-0.252144,88.2 -66.842601,-0.252188,85.0 -66.842583,-0.252218,88.0 -66.842585,-0.25225,84.0 -66.842567,-0.252286,87.0 -66.842568,-0.252316,88.0 -66.842587,-0.252364,87.0 -66.842555,-0.252352,85.0 -66.842509,-0.252509,84.0 -66.842503,-0.252618,84.0 -66.842418,-0.252739,87.0 -66.842426,-0.252835,87.0 -66.842487,-0.252915,86.0 -66.842506,-0.252977,84.0 -66.842492,-0.25301,84.0 -66.842498,-0.253048,84.0 -66.842483,-0.253083,84.0 -66.84248,-0.253204,83.0 -66.842441,-0.253223,81.0 -66.842343,-0.253329,81.0 -66.842269,-0.25335,72.0 -66.842188,-0.253435,76.0 -66.842085,-0.253451,72.0 -66.841994,-0.25352,72.0 -66.841998,-0.25355,72.0 -66.841915,-0.253663,72.0 -66.841876,-0.253691,70.0 -66.841854,-0.253797,70.0 -66.841878,-0.253864,72.0 -66.841812,-0.253953,75.0 -66.84174,-0.254083,76.0 -66.841712,-0.254171,75.0 -66.841715,-0.254246,75.0 -66.841704,-0.254277,72.0 -66.8417,-0.254352,80.0 -66.841717,-0.254385,80.0 -66.841654,-0.254572,80.0 -66.841627,-0.254595,80.0 -66.841634,-0.254665,81.0 -66.841541,-0.254831,81.0 -66.841507,-0.25485,82.0 -66.841496,-0.254879,80.0 -66.841458,-0.254904,80.0 -66.841415,-0.254959,75.0 -66.841431,-0.255023,76.0 -66.84141,-0.255089,76.0 -66.841387,-0.255121,76.0 -66.841347,-0.255141,78.0 -66.841331,-0.255171,78.0 -66.841333,-0.255209,78.5 -66.841248,-0.255283,76.0 -66.841222,-0.25532,76.0 -66.841237,-0.255364,76.0 -66.841247,-0.25552,79.0 -66.84126,-0.25555,79.0 -66.84129,-0.255563,80.0 -66.84132,-0.255621,80.0 -66.841317,-0.255842,80.0 -66.841333,-0.255902,76.0 -66.841324,-0.256049,81.0 -66.841363,-0.25613,80.0 -66.841397,-0.256251,81.0 -66.841322,-0.256523,76.0 -66.84132,-0.256599,75.0 -66.841267,-0.256681,76.0 -66.841251,-0.256814,78.0 -66.841257,-0.256846,76.0 -66.841233,-0.256884,70.0 -66.841214,-0.256946,78.0 -66.841215,-0.25705,80.0 -66.841183,-0.257096,78.0 -66.841171,-0.257183,78.0 -66.841181,-0.257224,79.0 -66.841152,-0.257335,78.0 -66.841176,-0.257363,76.0 -66.841145,-0.257569,79.0 -66.84112,-0.25765,78.0 -66.841133,-0.257679,76.0 -66.841126,-0.257748,75.0 -66.841071,-0.257893,75.0 -66.841069,-0.257923,75.0 -66.841102,-0.258029,76.0 -66.841106,-0.258091,76.0 -66.84113,-0.258135,75.0 -66.841132,-0.25817,75.0 -66.841154,-0.258227,78.0 -66.841155,-0.258274,76.0 -66.841121,-0.25831,74.0 -66.841135,-0.258359,72.0 -66.841115,-0.258391,76.0 -66.841125,-0.258423,75.0 -66.841112,-0.258516,75.0 -66.841143,-0.258655,75.0 -66.841128,-0.258724,75.0 -66.84117,-0.258974,80.0 -66.841152,-0.259016,80.0 -66.841162,-0.259087,80.0 -66.841149,-0.259125,80.0 -66.841126,-0.25915,78.0 -66.841154,-0.259179,76.0 -66.841192,-0.259279,77.0 -66.84113,-0.259366,77.0 -66.841123,-0.259401,75.0 -66.841145,-0.259433,80.0 -66.84115,-0.259524,80.0 -66.841143,-0.259568,82.8 -66.841178,-0.259582,80.0 -66.841147,-0.259576,82.0 -66.841133,-0.259624,82.3 -66.841183,-0.259638,82.2 -66.841197,-0.259668,80.0 -66.841266,-0.259722,80.0 -66.841291,-0.259756,80.0 -66.841327,-0.259744,79.0 -66.841348,-0.259771,78.0 -66.841357,-0.259806,78.0 -66.841445,-0.259876,78.0 -66.841445,-0.259927,75.0 -66.841496,-0.259945,76.0 -66.84147,-0.260009,76.0 -66.841501,-0.260023,78.0 -66.841516,-0.26005,78.0 -66.841533,-0.260112,78.0 -66.841519,-0.260223,78.0 -66.841542,-0.260251,76.0 -66.841619,-0.260296,77.0 -66.841652,-0.260303,76.0 -66.841711,-0.260288,77.0 -66.841677,-0.260271,74.0 -66.84167,-0.260217,64.0 -66.841726,-0.26016,84.0 -66.841679,-0.260256,77.0 -66.841634,-0.260274,80.0 -66.841599,-0.260304,82.0 -66.841622,-0.260264,79.0 -66.841658,-0.260262,79.0 -66.841615,-0.260314,80.3</coordinates>
                </LineString>
            </MultiGeometry>
        </Placemark>
    </Document>
</kml>
