<?xml version="1.0" encoding="UTF-8"?>
<kml xmlns="http://www.opengis.net/kml/2.2" xmlns:gx="http://www.google.com/kml/ext/2.2">
    <Document id="1">
        <Style id="10">
            <IconStyle id="11">
                <colorMode>normal</colorMode>
                <scale>1</scale>
                <heading>0</heading>
                <Icon id="12">
                    <href>red-pin-down.png</href>
                </Icon>
            </IconStyle>
        </Style>
        <Style id="15">
            <IconStyle id="16">
                <colorMode>normal</colorMode>
                <scale>1</scale>
                <heading>0</heading>
                <Icon id="17">
                    <href>red-pin-down.png</href>
                </Icon>
            </IconStyle>
        </Style>
        <Style id="20">
            <IconStyle id="21">
                <colorMode>normal</colorMode>
                <scale>1</scale>
                <heading>0</heading>
                <Icon id="22">
                    <href>red-pin-down.png</href>
                </Icon>
            </IconStyle>
        </Style>
        <Placemark id="3">
            <Style id="6">
                <LineStyle id="7">
                    <color>ff8C7A5E</color>
                    <colorMode>normal</colorMode>
                    <width>1</width>
                </LineStyle>
            </Style>
            <name>Igarapé próximo a roça do seu Orlando </name>
            <description/>
            <MultiGeometry id="2">
                <LineString id="4">
                    <extrude>0</extrude>
                    <altitudeMode>clampToGround</altitudeMode>
                    <coordinates>-69.971128,0.26572,127.5 -69.971089,0.26575,127.4 -69.971183,0.265729,127.0 -69.971215,0.265677,126.0 -69.97125,0.265672,126.0 -69.971447,0.265426,128.0 -69.971529,0.265354,128.0 -69.971621,0.265291,127.0 -69.97179,0.265047,126.0 -69.971782,0.264974,128.0 -69.971739,0.264904,128.0 -69.971658,0.264905,124.0 -69.971581,0.264994,126.0 -69.971494,0.265014,130.0 -69.971454,0.264993,131.0 -69.971419,0.264941,129.0 -69.971371,0.264909,125.0 -69.971321,0.264828,123.0 -69.971302,0.264718,126.0 -69.971314,0.264685,125.0 -69.97135,0.264671,128.0 -69.971381,0.264685,125.0 -69.971406,0.264721,127.0 -69.971389,0.264746,129.0 -69.971422,0.264817,125.0 -69.971447,0.264835,120.0 -69.971477,0.26484,122.0 -69.971489,0.26498,128.0 -69.971404,0.264989,124.0 -69.971453,0.264958,128.0 -69.971403,0.26502,132.0 -69.9714,0.265008,133.0 -69.97145,0.265035,127.0 -69.971485,0.265023,126.0 -69.971553,0.265026,128.0 -69.971552,0.26504,110.0 -69.971503,0.265053,129.0 -69.97146,0.265044,130.0 -69.971297,0.264932,131.0 -69.971262,0.26493,130.0 -69.971237,0.264898,131.0 -69.971202,0.264804,132.0 -69.971229,0.264719,134.9 -69.971314,0.264643,134.0 -69.971297,0.264599,133.0 -69.971374,0.26456,132.0 -69.971398,0.264415,129.0 -69.971386,0.264382,129.0 -69.971402,0.264318,131.0 -69.971394,0.264267,128.0 -69.971289,0.264152,129.0 -69.971226,0.264159,130.1 -69.971193,0.264147,130.2 -69.971054,0.264044,130.0 -69.971008,0.263904,128.0 -69.970914,0.263786,128.0 -69.970918,0.263732,130.0 -69.971039,0.263628,128.0 -69.971211,0.263583,126.1 -69.971262,0.263542,124.0 -69.971369,0.263524,120.0 -69.971387,0.263496,120.0 -69.971389,0.263461,120.0 -69.971371,0.263435,119.0 -69.971275,0.263363,119.0 -69.971373,0.263463,123.0 -69.971332,0.263447,120.0 -69.971372,0.263471,122.0 -69.971329,0.263465,122.0 -69.971305,0.263431,124.9 -69.971358,0.263507,120.0 -69.971376,0.263433,126.0 -69.971314,0.26346,128.0 -69.971325,0.263411,124.0 -69.971263,0.263329,127.0 -69.971202,0.263204,129.0 -69.97121,0.263161,129.0 -69.971245,0.263077,126.0 -69.971185,0.263064,125.9 -69.971226,0.2631,126.0 -69.971257,0.26307,126.0 -69.971192,0.26306,125.0 -69.971215,0.263046,126.0 -69.971217,0.263086,120.0 -69.971193,0.263039,124.0 -69.971274,0.262917,126.0 -69.971308,0.262896,124.0 -69.971358,0.262844,123.0 -69.971357,0.262771,124.0 -69.971453,0.262716,124.0 -69.971474,0.262683,124.0 -69.971618,0.262616,125.0 -69.971706,0.262524,128.0 -69.971736,0.262455,125.0 -69.971806,0.262353,130.0 -69.971877,0.262223,128.0 -69.971957,0.262157,128.0 -69.971986,0.262093,126.0 -69.972034,0.262035,125.0 -69.972058,0.261973,124.0 -69.972195,0.261871,123.0 -69.972208,0.26184,124.0 -69.972336,0.261746,123.0 -69.972295,0.261705,128.0 -69.972269,0.261705,127.0 -69.972259,0.261728,129.0 -69.972328,0.261732,130.0 -69.972323,0.261699,135.0 -69.972339,0.261669,137.0 -69.972354,0.261669,135.0 -69.972346,0.261636,135.0 -69.972365,0.261635,131.0 -69.972413,0.261655,132.0 -69.972441,0.261651,132.0 -69.972464,0.261607,130.0 -69.972367,0.261654,136.0 -69.972391,0.261633,135.0 -69.972456,0.261613,134.0 -69.972496,0.261614,132.0 -69.972438,0.261572,124.0 -69.972499,0.261647,126.0 -69.972502,0.261675,128.0 -69.972566,0.261704,129.0 -69.972504,0.261627,127.0 -69.972555,0.261666,125.0 -69.972549,0.261634,124.0 -69.972476,0.261617,125.0 -69.972433,0.261559,128.9 -69.972413,0.261468,128.0 -69.972389,0.261572,128.0 -69.972455,0.261661,129.2 -69.97257,0.261709,127.0 -69.972598,0.261665,129.0 -69.972593,0.26161,126.0 -69.972635,0.261598,126.0 -69.972601,0.261592,128.0 -69.972631,0.261551,128.0 -69.972616,0.26151,130.0 -69.972635,0.261485,132.3 -69.972648,0.261501,131.0 -69.972643,0.261438,132.0 -69.972659,0.261401,130.0 -69.972665,0.261433,135.5 -69.972687,0.261471,134.0 -69.972685,0.261374,132.0 -69.972655,0.261387,132.7 -69.972637,0.26136,132.0 -69.972668,0.261363,132.0 -69.972679,0.261252,132.0 -69.972639,0.261266,130.0 -69.97261,0.261239,129.0 -69.972653,0.261228,129.0 -69.972666,0.261255,129.0 -69.972663,0.261201,130.0 -69.972683,0.261224,131.1 -69.972674,0.261193,131.3 -69.972691,0.261236,130.0 -69.97258,0.261244,130.0 -69.97258,0.261211,126.0 -69.972629,0.261199,133.0 -69.972695,0.26122,132.0 -69.972733,0.261209,131.0 -69.97271,0.261193,131.0 -69.972734,0.261164,130.0 -69.972698,0.261154,129.0 -69.972712,0.261128,130.0 -69.972764,0.261084,130.0 -69.972725,0.261089,130.0 -69.972742,0.261073,131.0 -69.972772,0.261136,121.0 -69.972728,0.261067,132.0 -69.972764,0.261091,132.0 -69.972806,0.2611,130.0 -69.97281,0.261021,132.0 -69.972793,0.260996,132.0 -69.972828,0.26101,132.0 -69.972865,0.261005,132.0 -69.972855,0.260953,130.0 -69.972935,0.260994,138.0 -69.972858,0.261001,136.0 -69.972888,0.260954,136.0 -69.972846,0.260982,136.2 -69.97286,0.261011,134.0 -69.972873,0.260976,133.8 -69.972833,0.26092,130.0 -69.97293,0.261015,132.0 -69.972934,0.260936,132.0 -69.97297,0.260947,132.0 -69.972975,0.260893,130.0 -69.972933,0.260865,135.0 -69.972926,0.260829,139.0 -69.972982,0.26085,126.0 -69.973028,0.260846,138.0 -69.972981,0.260842,136.0 -69.972984,0.260868,130.0 -69.973017,0.260923,134.0 -69.972994,0.260978,132.0 -69.972956,0.260998,132.0 -69.972959,0.261076,128.0 -69.973013,0.261056,134.0 -69.973045,0.261056,132.0 -69.973069,0.26102,134.0 -69.973067,0.261059,133.0 -69.973041,0.261041,135.0 -69.972968,0.261127,133.3 -69.972959,0.261087,133.9 -69.972911,0.261091,132.0 -69.972991,0.260933,132.0 -69.972945,0.260962,132.0 -69.972939,0.26102,132.0 -69.973049,0.260985,128.0 -69.972956,0.260985,129.0 -69.972996,0.260997,132.0 -69.973002,0.261024,132.0 -69.97299,0.26107,131.0 -69.972956,0.260998,130.0 -69.972908,0.260982,132.0 -69.97294,0.261081,132.0 -69.972991,0.261072,133.0 -69.973058,0.261035,133.0 -69.973059,0.261082,134.0 -69.973012,0.261091,134.6 -69.972915,0.261133,134.0 -69.972875,0.261118,135.3 -69.97292,0.261085,134.0 -69.972907,0.260993,130.0 -69.972992,0.260994,133.0 -69.973029,0.260905,132.0 -69.97303,0.26085,132.0 -69.973059,0.260898,132.0 -69.973045,0.260931,132.0 -69.973013,0.260914,132.0 -69.972973,0.260921,132.0 -69.972961,0.260955,133.0 -69.972985,0.261029,138.0 -69.972999,0.260963,136.0 -69.973052,0.260924,134.0 -69.973089,0.260934,134.1 -69.973103,0.260961,132.0 -69.973058,0.260985,131.0 -69.972981,0.260993,133.0 -69.972937,0.261061,134.2 -69.972882,0.261106,134.7 -69.972915,0.261177,135.0 -69.973017,0.261077,134.0 -69.973062,0.260963,134.0 -69.973048,0.261003,133.0 -69.973076,0.260992,132.0 -69.97304,0.260957,132.0 -69.972978,0.26094,129.0 -69.972981,0.260985,132.0 -69.973037,0.26098,132.4 -69.973105,0.261012,130.0 -69.973086,0.260975,132.3 -69.973058,0.260953,132.0 -69.973034,0.260989,131.0 -69.973043,0.261038,135.0 -69.973084,0.261038,132.0 -69.973049,0.261069,132.0 -69.973067,0.261006,126.0 -69.973058,0.261039,131.0 -69.972988,0.261063,133.5 -69.972928,0.26106,132.0 -69.972977,0.260989,132.0 -69.973022,0.260984,132.0 -69.972934,0.260986,132.0 -69.972962,0.261,130.9 -69.972966,0.261033,130.5 -69.972897,0.260995,132.0 -69.972918,0.260963,132.0 -69.972878,0.26101,135.0 -69.972968,0.260857,135.7 -69.972978,0.260886,134.0 -69.97304,0.260971,132.0 -69.973009,0.260973,130.0 -69.972964,0.26096,132.8 -69.972931,0.260981,132.0 -69.972873,0.261041,133.4 -69.9729,0.261025,133.4 -69.972935,0.260964,129.0 -69.972927,0.260933,132.0 -69.973007,0.260965,132.0 -69.973055,0.260968,132.0 -69.973054,0.261007,133.2 -69.973022,0.261021,133.1 -69.97296,0.261011,132.0 -69.972985,0.26095,134.0 -69.972937,0.260964,135.0 -69.972957,0.260938,135.3 -69.972918,0.260937,134.7 -69.972992,0.260932,131.0 -69.972968,0.260991,135.5 -69.972959,0.260962,135.5 -69.9729,0.260971,132.0 -69.972917,0.260963,131.0 -69.972966,0.260964,127.0 -69.973001,0.260996,126.0 -69.972963,0.261007,130.0 -69.97299,0.26101,130.0 -69.973032,0.260978,126.0 -69.973044,0.260941,130.0 -69.973073,0.260912,133.0 -69.973042,0.260911,134.0 -69.973021,0.26093,134.0 -69.973,0.260978,132.0 -69.973031,0.260988,130.0 -69.973078,0.260984,130.0 -69.973044,0.260989,132.0 -69.973035,0.261037,129.0 -69.973022,0.261015,130.0 -69.972934,0.261039,130.0 -69.972907,0.261006,131.0 -69.972943,0.260945,132.0 -69.972967,0.260956,132.0 -69.973027,0.260956,132.1 -69.973044,0.260987,132.0 -69.973037,0.260955,128.0 -69.972994,0.261002,130.0 -69.973046,0.260963,126.0 -69.973023,0.260995,130.0 -69.972981,0.261011,128.0 -69.972928,0.260995,129.0 -69.972905,0.261031,133.3 -69.972903,0.261089,132.0 -69.972935,0.261078,132.8 -69.972986,0.261009,131.0 -69.972958,0.261029,121.0 -69.972924,0.261102,130.8 -69.972888,0.261114,130.0 -69.972896,0.261076,129.0 -69.97288,0.261047,132.5 -69.972939,0.260945,132.6 -69.972967,0.260991,128.0 -69.972981,0.260949,131.6 -69.972971,0.261033,120.0 -69.97294,0.261067,126.0 -69.97293,0.261008,128.0 -69.97287,0.260989,129.0 -69.972915,0.261041,134.0 -69.972859,0.261091,134.0 -69.97284,0.261135,135.0 -69.972861,0.261082,135.3 -69.972833,0.261049,133.0 -69.972846,0.261033,134.0 -69.972857,0.261076,132.0 -69.972794,0.26114,136.0 -69.972905,0.261062,133.0 -69.97294,0.261074,134.0 -69.972909,0.260969,130.0 -69.972965,0.260894,132.0 -69.973013,0.260918,133.0 -69.97303,0.26096,133.0 -69.973018,0.260987,131.0 -69.972971,0.261024,131.6 -69.972913,0.261049,126.0 -69.97293,0.261012,130.0 -69.972983,0.260942,128.0 -69.972951,0.260974,129.0 -69.972955,0.261007,130.0 -69.973027,0.261028,130.4 -69.973041,0.26098,131.0 -69.973065,0.260999,130.8 -69.97305,0.260985,131.0 -69.97304,0.260935,133.1 -69.973005,0.260971,130.0 -69.973005,0.260937,115.0 -69.973043,0.260995,134.4 -69.973043,0.261063,134.2 -69.973013,0.261038,134.3 -69.97295,0.261032,134.4 -69.972928,0.261099,132.0 -69.972977,0.261099,134.0 -69.972966,0.260957,134.0 -69.972936,0.261016,134.9 -69.97291,0.261105,135.8 -69.97296,0.261024,130.0 -69.972938,0.261059,132.0 -69.972902,0.261054,130.0 -69.972925,0.261031,132.0 -69.973023,0.261034,128.0 -69.97301,0.26114,130.0 -69.973025,0.261088,129.0 -69.973011,0.261002,126.0 -69.973015,0.260908,129.4 -69.973035,0.261003,133.0 -69.973054,0.260927,136.0 -69.973009,0.260927,133.0 -69.973035,0.260975,134.0 -69.973003,0.26097,136.0 -69.972992,0.261003,134.0 -69.972951,0.261017,132.0 -69.972956,0.261054,133.9 -69.972997,0.260986,132.0 -69.973028,0.260965,132.0 -69.973053,0.261057,134.7 -69.973094,0.261091,134.8 -69.972996,0.261104,134.0 -69.972973,0.261031,130.0 -69.972986,0.261026,126.0 -69.97301,0.26107,129.2 -69.973046,0.261109,128.0 -69.973044,0.261059,128.0 -69.973074,0.261058,128.0 -69.973103,0.261033,128.0 -69.973076,0.26107,132.0 -69.973084,0.261105,133.6 -69.973117,0.26111,132.0 -69.973086,0.261116,128.0 -69.973055,0.261139,130.0 -69.973039,0.261172,132.0 -69.972976,0.261183,131.0 -69.972949,0.261206,132.0 -69.972939,0.261274,126.0 -69.972989,0.261304,124.0 -69.973011,0.261247,128.0 -69.972952,0.26127,126.0 -69.972916,0.261271,126.0 -69.972959,0.261248,124.0 -69.972998,0.261251,126.0 -69.972965,0.261278,128.0 -69.972893,0.261313,128.0 -69.972866,0.261339,126.0 -69.972803,0.261442,128.0 -69.972755,0.261482,126.0 -69.972704,0.261513,126.0 -69.972676,0.261509,126.6 -69.972641,0.261518,126.0 -69.972573,0.261551,126.0 -69.972551,0.26158,121.0 -69.972581,0.261609,124.0 -69.972591,0.261543,124.0 -69.972597,0.261572,119.0 -69.972656,0.261513,128.0 -69.972668,0.261554,132.0 -69.972541,0.261614,125.0 -69.972542,0.26167,128.0 -69.972486,0.261699,129.0 -69.972481,0.261648,129.0 -69.972514,0.261616,125.0 -69.972484,0.261599,126.0 -69.97232,0.261738,129.0 -69.972328,0.261762,128.0 -69.972296,0.261688,125.0 -69.972202,0.261722,123.0 -69.972172,0.261721,124.0 -69.972162,0.261681,124.8 -69.972141,0.261652,124.9 -69.972081,0.261609,124.0 -69.972051,0.261568,126.0 -69.972018,0.261544,126.0 -69.972003,0.261572,126.6 -69.971873,0.261524,126.0 -69.971798,0.261519,127.3 -69.971721,0.261546,126.0 -69.971676,0.261595,125.0 -69.971642,0.261617,124.0 -69.97139,0.261646,123.0 -69.971358,0.261666,124.0 -69.971275,0.261748,122.0 -69.971189,0.26176,122.0 -69.971104,0.261831,122.0 -69.970893,0.261829,126.0 -69.970864,0.261845,126.0 -69.970832,0.261845,126.0 -69.970755,0.261922,124.0 -69.970656,0.261916,127.0 -69.97063,0.26199,128.0 -69.970599,0.262025,126.0 -69.970535,0.26205,126.0 -69.970545,0.262096,126.0 -69.970501,0.262098,128.0 -69.970532,0.262077,131.8 -69.970508,0.262021,132.1 -69.97048,0.262002,132.0 -69.970431,0.261938,132.0 -69.970409,0.261816,132.0 -69.970384,0.261748,132.3 -69.970319,0.261678,132.0 -69.970373,0.261634,126.0 -69.97043,0.261472,130.0 -69.970389,0.261436,130.0 -69.970391,0.261397,128.0 -69.970356,0.261353,129.0 -69.970369,0.261292,130.5 -69.970342,0.261241,131.0 -69.97036,0.26121,130.0 -69.970347,0.261102,128.0 -69.970389,0.261055,129.0 -69.970431,0.260972,129.0 -69.97043,0.260884,131.2 -69.970457,0.260842,130.0 -69.97057,0.260746,128.0 -69.970635,0.26061,130.7 -69.970661,0.260614,129.0 -69.970751,0.260574,127.0 -69.970789,0.260531,132.0 -69.970828,0.260513,132.0 -69.970889,0.260439,126.0 -69.970876,0.260351,120.0 -69.970958,0.260301,126.0 -69.971105,0.260155,126.0 -69.971168,0.260158,121.0 -69.971207,0.260179,120.0 -69.971131,0.260292,124.0 -69.971086,0.260226,128.0 -69.971089,0.260161,126.0 -69.971113,0.260166,116.0 -69.971082,0.260147,128.0 -69.971151,0.26011,128.0 -69.971239,0.2601,127.0 -69.971279,0.26005,129.0 -69.971364,0.260051,128.0 -69.971443,0.259929,124.0 -69.971468,0.259806,124.0 -69.971543,0.259795,123.0 -69.971612,0.259751,123.0 -69.971649,0.259753,123.0 -69.971686,0.259733,123.0 -69.971717,0.259706,121.0 -69.971709,0.259664,122.0 -69.971745,0.259645,122.0 -69.971769,0.259616,120.0 -69.971878,0.259578,119.0 -69.971929,0.259478,120.0 -69.972003,0.259441,120.8 -69.972039,0.259395,120.0 -69.972117,0.259342,122.0 -69.972151,0.259329,122.0 -69.972238,0.259322,122.0 -69.972362,0.259271,123.0 -69.97243,0.259222,125.0 -69.972487,0.259157,128.0 -69.972632,0.259104,128.0 -69.97289,0.258871,130.8 -69.973073,0.258931,131.1 -69.973211,0.258636,134.1 -69.973191,0.25861,134.3 -69.973254,0.258609,134.7 -69.973281,0.258642,135.0 -69.973327,0.258542,135.9 -69.973306,0.258806,136.2 -69.973398,0.258794,136.3 -69.973399,0.258685,136.0 -69.973431,0.258634,136.0 -69.97354,0.25822,141.3 -69.973721,0.258254,142.1 -69.97382,0.258079,142.0 -69.973872,0.258059,141.0 -69.973891,0.258022,142.0 -69.973842,0.257947,142.0 -69.973846,0.257916,142.0 -69.973999,0.257773,142.0 -69.974247,0.257519,142.2 -69.974308,0.257424,142.8 -69.974276,0.257406,142.0 -69.974317,0.257425,143.2 -69.973803,0.257467,141.4 -69.974001,0.257506,137.2 -69.974086,0.257533,136.8 -69.974116,0.257568,134.0 -69.974171,0.257569,136.0 -69.97425,0.257536,135.0 -69.974324,0.257453,138.0 -69.974369,0.257267,136.0 -69.97436,0.257238,135.0 -69.974307,0.25718,136.0 -69.974274,0.257166,134.0 -69.974174,0.25716,132.0 -69.974065,0.257198,134.0 -69.973726,0.257271,132.0 -69.973614,0.257305,130.0 -69.973517,0.257261,135.6 -69.97342,0.257308,132.0 -69.97338,0.257313,132.0 -69.973346,0.257301,132.0 -69.973199,0.257334,128.0 -69.973163,0.257324,131.0 -69.973107,0.257279,132.0 -69.973081,0.257277,134.0 -69.973056,0.257255,133.0 -69.972942,0.25721,136.0 -69.972856,0.257123,138.0 -69.972813,0.257062,138.0 -69.972745,0.257005,138.0 -69.972717,0.256969,138.5 -69.972676,0.256865,138.0 -69.972674,0.256819,138.0 -69.97271,0.256695,138.0 -69.972664,0.256566,138.0 -69.972706,0.256485,138.0 -69.972615,0.25625,135.0 -69.972635,0.256273,137.0 -69.972614,0.256305,133.0 -69.972614,0.256345,128.0 -69.97267,0.256382,137.7 -69.972658,0.256321,138.5 -69.972577,0.256352,138.1 -69.972531,0.256408,136.0 -69.972578,0.256341,138.0 -69.972583,0.256383,132.0 -69.97265,0.256386,131.0 -69.97264,0.256437,130.4 -69.972575,0.256514,134.1 -69.972618,0.256461,126.0 -69.972722,0.256422,122.0 -69.972693,0.256417,123.0 -69.972655,0.256395,131.7 -69.972612,0.256402,128.0 -69.972646,0.256426,128.0 -69.972588,0.256466,125.0 -69.972497,0.256565,128.0 -69.972456,0.256568,132.0 -69.972505,0.256551,126.0 -69.972535,0.256526,130.0 -69.972515,0.256477,129.0 -69.972552,0.256426,129.0 -69.97258,0.256421,120.0 -69.972573,0.256481,128.0 -69.972581,0.256528,126.0 -69.972614,0.25656,124.0 -69.97265,0.256565,124.8 -69.972632,0.256548,122.0 -69.972631,0.256505,120.0 -69.972662,0.256497,126.0 -69.972677,0.256539,131.0 -69.972704,0.256568,130.0 -69.972659,0.256534,126.0 -69.9726,0.256551,127.0 -69.97267,0.256489,129.0 -69.97263,0.256465,134.0 -69.972632,0.25655,136.0 -69.972651,0.256583,136.0 -69.972706,0.25664,136.0 -69.972697,0.25668,136.0 -69.972709,0.256756,136.0 -69.97275,0.256852,138.0 -69.972769,0.256923,138.0 -69.972807,0.256946,137.9 -69.972813,0.256981,135.0 -69.972802,0.257034,138.0 -69.972828,0.257066,137.0 -69.972805,0.257111,136.0 -69.972744,0.257109,138.0 -69.972785,0.257092,136.0 -69.972792,0.25713,137.9 -69.972824,0.257147,135.0 -69.972869,0.257139,138.0 -69.973251,0.257233,139.2 -69.97328,0.257218,139.1 -69.973403,0.257222,138.0 -69.973452,0.257093,138.7 -69.973609,0.256968,136.3 -69.973731,0.25704,134.0 -69.973829,0.257048,133.7 -69.973869,0.25715,133.5 -69.973944,0.257186,134.0 -69.97394,0.257261,133.9 -69.973986,0.257394,133.3 -69.973977,0.257443,132.0 -69.974008,0.257524,133.7 -69.974018,0.257593,134.0 -69.974002,0.257648,134.0 -69.974013,0.257704,134.0 -69.974041,0.257684,135.7 -69.974109,0.257575,136.9 -69.97399,0.257571,137.5 -69.973982,0.257536,137.0 -69.974013,0.257451,139.0 -69.973969,0.257376,139.2 -69.973963,0.257263,139.4 -69.973983,0.257351,138.0 -69.973943,0.257368,137.0 -69.973923,0.257455,136.0 -69.973911,0.257411,136.0 -69.97392,0.257323,131.0 -69.973774,0.257263,129.0 -69.973756,0.257178,128.0 -69.973778,0.256999,129.3 -69.973814,0.256913,128.0 -69.973701,0.256969,131.7 -69.973727,0.257016,132.0 -69.973719,0.257056,132.4 -69.973729,0.257085,132.0 -69.973635,0.257368,134.0 -69.973644,0.257309,135.4 -69.973632,0.257276,134.0 -69.973676,0.257267,135.0 -69.97368,0.25721,128.0 -69.973731,0.257224,134.0 -69.973741,0.257243,132.0 -69.973795,0.25729,132.0 -69.973822,0.257245,127.0 -69.973868,0.257303,127.0 -69.97388,0.257395,128.0 -69.973913,0.257467,130.0 -69.973944,0.25746,130.7 -69.97396,0.257474,130.0 -69.973996,0.257466,132.0 -69.97408,0.257319,132.0 -69.974136,0.257278,132.0 -69.974175,0.257286,134.0 -69.974194,0.257315,134.0 -69.974186,0.257351,135.0 -69.974139,0.257427,136.0 -69.974112,0.257277,137.3 -69.97413,0.257236,136.0 -69.97421,0.257233,136.8 -69.974192,0.257306,136.6 -69.974155,0.257307,135.0 -69.974171,0.257348,134.0 -69.974073,0.257547,135.4 -69.974065,0.25763,134.8 -69.974045,0.257711,134.6 -69.973983,0.257731,134.5 -69.973863,0.257731,133.7 -69.973833,0.257746,132.0 -69.973731,0.257853,132.0 -69.973634,0.257905,134.0 -69.973567,0.258009,133.8 -69.973575,0.258056,134.2 -69.973531,0.258072,134.1 -69.973513,0.258146,133.0 -69.97352,0.25819,134.4 -69.973503,0.258259,134.0 -69.973469,0.258275,134.0 -69.973404,0.258273,132.0 -69.973273,0.258237,130.0 -69.973244,0.258348,132.0 -69.973209,0.258382,132.0 -69.973134,0.258495,132.0 -69.973089,0.258519,132.0 -69.973079,0.258563,131.9 -69.97305,0.258578,131.4 -69.973059,0.258619,131.5 -69.972999,0.258651,130.0 -69.972973,0.258696,129.0 -69.972891,0.258769,128.0 -69.972854,0.258769,129.2 -69.972828,0.258751,128.0 -69.972832,0.258786,128.7 -69.972804,0.258805,128.8 -69.972796,0.258846,128.0 -69.97275,0.258952,128.0 -69.97271,0.258971,128.0 -69.972649,0.259029,128.0 -69.972611,0.259037,128.0 -69.972574,0.259059,127.0 -69.972499,0.259037,127.3 -69.972372,0.259061,127.0 -69.97232,0.259096,127.6 -69.972213,0.259089,127.2 -69.972123,0.259097,127.5 -69.972153,0.259123,126.0 -69.972053,0.259269,124.0 -69.971986,0.259398,124.1 -69.971944,0.259398,124.2 -69.971865,0.259478,124.0 -69.971814,0.259488,124.0 -69.971744,0.259537,122.0 -69.971693,0.259537,122.2 -69.971664,0.259551,122.0 -69.971567,0.259688,122.0 -69.971497,0.259735,122.0 -69.971469,0.259777,121.0 -69.971428,0.259801,121.4 -69.971295,0.259802,121.0 -69.97126,0.25981,120.0 -69.971202,0.259878,121.6 -69.971194,0.259921,120.0 -69.971151,0.259958,120.0 -69.97111,0.259976,121.8 -69.97111,0.260021,121.3 -69.971053,0.260107,120.0 -69.971012,0.26006,121.9 -69.970953,0.260079,121.7 -69.970931,0.260169,121.7 -69.970901,0.260192,121.6 -69.970784,0.260226,121.0 -69.970744,0.260251,123.0 -69.970659,0.260381,124.4 -69.970589,0.260422,125.2 -69.970597,0.260498,125.2 -69.97054,0.260535,125.2 -69.970542,0.260579,125.7 -69.970426,0.260734,128.0 -69.970426,0.260773,128.7 -69.970326,0.260914,129.0 -69.970133,0.261003,129.2 -69.969991,0.261225,135.2 -69.970307,0.261333,132.0 -69.970337,0.261371,132.3 -69.97028,0.261482,129.0 -69.970277,0.261535,125.0 -69.970256,0.261585,127.0 -69.970223,0.261619,128.0 -69.970242,0.261838,126.0 -69.970273,0.261883,127.0 -69.970364,0.261943,126.0 -69.970347,0.261988,128.1 -69.970457,0.262126,128.0 -69.970516,0.262129,128.0 -69.970559,0.26208,127.0 -69.97064,0.262078,129.0 -69.970681,0.2621,130.0 -69.970734,0.262093,130.0 -69.970791,0.2621,131.0 -69.970821,0.262069,130.6 -69.970905,0.262044,130.0 -69.970969,0.262062,130.0 -69.971008,0.262036,132.0 -69.971085,0.26201,130.0 -69.9711,0.26197,132.0 -69.971208,0.261919,132.0 -69.971252,0.261874,131.7 -69.971345,0.261831,129.0 -69.971532,0.261778,128.1 -69.971691,0.261672,126.4 -69.971768,0.261673,124.0 -69.971804,0.261699,125.6 -69.971846,0.261679,125.5 -69.971976,0.261657,124.0 -69.972113,0.261665,124.0 -69.972195,0.261683,124.0 -69.972246,0.261665,123.0 -69.972309,0.261687,124.0 -69.972298,0.261726,123.0 -69.972328,0.261821,125.6 -69.972329,0.261853,125.8 -69.972312,0.261911,126.0 -69.97227,0.261966,126.0 -69.972239,0.261943,126.0 -69.97217,0.261932,126.0 -69.972086,0.261898,126.0 -69.972054,0.261864,122.0 -69.972085,0.261945,124.0 -69.97212,0.261981,124.0 -69.972101,0.262063,124.0 -69.972064,0.262115,123.7 -69.97201,0.262101,122.0 -69.971966,0.262053,124.0 -69.971955,0.262018,123.0 -69.972006,0.262037,122.0 -69.972044,0.262008,120.0 -69.972155,0.261957,118.0 -69.972247,0.261938,120.0 -69.97231,0.261889,124.0 -69.972308,0.261907,126.0 -69.972345,0.261929,126.0 -69.97229,0.26188,126.0 -69.972361,0.261848,128.0 -69.972332,0.261816,129.0 -69.972313,0.261935,125.0 -69.97233,0.261972,129.0 -69.972312,0.261912,120.0 -69.972371,0.261858,126.0 -69.972335,0.261853,128.0 -69.972263,0.261913,119.0 -69.972134,0.26188,112.0 -69.972162,0.261939,114.0 -69.97227,0.261945,116.0 -69.972297,0.261913,120.0 -69.972248,0.261891,124.0 -69.972147,0.261902,120.0 -69.972042,0.261982,118.0 -69.97181,0.262261,118.1 -69.971803,0.262292,118.1 -69.971741,0.262401,116.0 -69.971669,0.262504,116.0 -69.97152,0.262601,118.0 -69.971439,0.262638,118.0 -69.971366,0.262694,118.0 -69.97135,0.262741,116.0 -69.971299,0.262807,116.0 -69.971218,0.262875,116.0 -69.971214,0.262953,114.0 -69.971203,0.26299,116.7 -69.971214,0.263019,116.0 -69.971248,0.26303,112.0 -69.971268,0.263065,114.0 -69.971274,0.26319,114.0 -69.971285,0.263241,114.0 -69.971325,0.263398,112.0 -69.971385,0.26355,114.0 -69.971257,0.263581,118.0 -69.971195,0.263576,120.2 -69.971076,0.263596,120.0 -69.971047,0.263622,122.0 -69.971049,0.263658,120.0 -69.971152,0.263842,124.1 -69.971151,0.26389,124.4 -69.971163,0.263924,124.6 -69.97127,0.264048,125.4 -69.971271,0.264081,124.0 -69.971317,0.264243,124.4 -69.971365,0.264246,124.6 -69.971454,0.264308,122.0 -69.971445,0.264354,122.0 -69.971468,0.264395,122.0 -69.971481,0.264462,122.0 -69.971447,0.264533,124.0 -69.971372,0.264545,123.6 -69.971304,0.264587,122.5 -69.971276,0.264719,123.4 -69.971309,0.264773,123.4 -69.971374,0.264832,122.0 -69.971441,0.264993,120.0 -69.971514,0.265012,119.0 -69.971546,0.265004,116.0 -69.971604,0.264938,118.0 -69.971644,0.264921,120.1 -69.971677,0.264857,120.5 -69.971704,0.264853,120.0 -69.971781,0.264962,122.0 -69.971786,0.264995,123.0 -69.971685,0.265057,120.0 -69.971627,0.265117,124.0 -69.971594,0.265173,125.9 -69.971583,0.265213,126.2 -69.971523,0.265204,125.9 -69.971482,0.265225,124.0 -69.971451,0.265264,124.8 -69.971347,0.265289,124.0 -69.97132,0.265305,123.6 -69.971323,0.265353,123.3 -69.97131,0.265387,122.7 -69.971287,0.265411,122.6 -69.971212,0.265455,122.2 -69.971139,0.265579,120.7 -69.971128,0.265622,120.5 -69.971089,0.26563,120.2 -69.971007,0.265809,118.0 -69.97092,0.265948,118.0 -69.97088,0.265993,118.0 -69.970858,0.266041,118.0 -69.970853,0.266137,118.0 -69.970867,0.266224,118.0 -69.971028,0.266447,117.0 -69.971143,0.266578,116.0 -69.971247,0.266664,118.0 -69.971362,0.266728,119.0 -69.971498,0.266881,120.0 -69.971594,0.266967,120.0 -69.972265,0.267356,120.0 -69.972344,0.267421,122.0 -69.972424,0.267464,120.0 -69.972663,0.267499,117.0 -69.972816,0.267483,114.0 -69.973,0.26742,112.0 -69.973173,0.267387,112.0 -69.973254,0.267351,112.0 -69.973339,0.26729,114.0 -69.973479,0.267234,112.0 -69.973591,0.26715,114.0 -69.973625,0.26714,115.0 -69.973662,0.267142,117.0 -69.973741,0.26719,116.0 -69.973767,0.267225,113.0 -69.973782,0.267278,113.0 -69.973735,0.267325,115.0 -69.973784,0.267368,120.0 -69.973845,0.267392,120.0 -69.973875,0.267424,124.0 -69.973875,0.267463,125.0 -69.973901,0.267526,123.0 -69.973969,0.267621,123.0 -69.973993,0.267692,124.0 -69.973964,0.267825,121.0 -69.974002,0.267802,125.2 -69.974095,0.267782,124.0 -69.97406,0.267791,126.0 -69.974012,0.267789,128.2 -69.973978,0.267837,125.0 -69.973938,0.267856,126.0 -69.973985,0.267851,125.0 -69.973934,0.267884,129.0 -69.973908,0.267914,120.0 -69.973955,0.267878,117.0 -69.973933,0.267864,123.0 -69.973961,0.267874,120.0 -69.974006,0.267819,123.0 -69.974047,0.2678,120.0 -69.974012,0.267793,125.0 -69.973989,0.267883,126.0 -69.974137,0.267963,127.6 -69.974317,0.267905,128.0 -69.974364,0.267956,129.0 -69.974374,0.267927,128.0</coordinates>
                </LineString>
            </MultiGeometry>
        </Placemark>
        <Placemark id="9">
            <name>Favolous</name>
            <description/>
            <styleUrl>#10</styleUrl>
            <Point id="8">
                <coordinates>-69.97297,0.26086,130</coordinates>
            </Point>
        </Placemark>
        <Placemark id="14">
            <name>Macrolobium</name>
            <description/>
            <styleUrl>#15</styleUrl>
            <Point id="13">
                <coordinates>-69.97297996281169,0.2610394808951355,131</coordinates>
            </Point>
        </Placemark>
        <Placemark id="19">
            <name>Legume </name>
            <description/>
            <styleUrl>#20</styleUrl>
            <Point id="18">
                <coordinates>-69.97404,0.25771,140</coordinates>
            </Point>
        </Placemark>
    </Document>
</kml>
