<?xml version="1.0" encoding="UTF-8"?>
<kml xmlns="http://www.opengis.net/kml/2.2" xmlns:gx="http://www.google.com/kml/ext/2.2">
    <Document id="1">
        <Placemark id="3">
            <Style id="6">
                <LineStyle id="7">
                    <color>ff0062FF</color>
                    <colorMode>normal</colorMode>
                    <width>1</width>
                </LineStyle>
            </Style>
            <name>Igarapé da Anta margem comunidade pirata poço</name>
            <description/>
            <MultiGeometry id="2">
                <LineString id="4">
                    <extrude>0</extrude>
                    <altitudeMode>clampToGround</altitudeMode>
                    <coordinates>-69.213199,0.144709,90.1 -69.213126,0.144669,92.0 -69.213115,0.144673,92.1 -69.213093,0.144648,91.8 -69.213057,0.14465,90.0 -69.21281,0.144535,89.0 -69.212631,0.144395,88.9 -69.212418,0.144199,88.2 -69.212279,0.144096,90.0 -69.212254,0.144061,89.9 -69.21217,0.144014,89.7 -69.211985,0.143875,88.9 -69.211179,0.143332,88.6 -69.21057,0.142871,88.0 -69.210326,0.142707,88.9 -69.20991,0.14246,89.0 -69.209626,0.142328,89.4 -69.209458,0.14228,89.5 -69.209239,0.142245,90.1 -69.208648,0.142184,91.2 -69.208105,0.142091,91.0 -69.207746,0.142005,91.1 -69.207612,0.141958,90.9 -69.207446,0.141874,91.1 -69.207186,0.141704,90.1 -69.20664,0.141305,89.9 -69.206291,0.141017,90.0 -69.206024,0.140775,90.0 -69.205663,0.140509,90.5 -69.205547,0.140446,90.2 -69.205468,0.140418,90.3 -69.20525,0.140389,90.5 -69.205072,0.140378,90.7 -69.204897,0.140404,90.7 -69.204678,0.140458,91.0 -69.204478,0.140553,90.5 -69.204175,0.140759,90.3 -69.204032,0.140874,90.1 -69.203905,0.141008,90.1 -69.203702,0.141189,90.0 -69.203298,0.141495,89.6 -69.203086,0.141686,89.5 -69.202857,0.141926,88.7 -69.202647,0.142176,89.5 -69.202323,0.142532,89.8 -69.202127,0.142689,90.0 -69.202056,0.142804,90.0 -69.202042,0.142868,90.0 -69.202057,0.14294,86.0 -69.202089,0.142901,90.0 -69.202211,0.142656,90.0 -69.202289,0.142543,88.0 -69.202372,0.142457,90.0 -69.202406,0.142399,88.0 -69.202398,0.142346,90.0 -69.20236,0.142313,90.8 -69.202343,0.142313,90.0 -69.202397,0.142362,95.0 -69.202414,0.142398,92.0 -69.202412,0.14247,92.0 -69.20237,0.142568,92.0 -69.202318,0.142631,92.0 -69.202211,0.142715,92.0 -69.202034,0.142826,90.0 -69.201369,0.143152,92.7 -69.200967,0.143305,92.0 -69.200515,0.14346,92.0 -69.20029,0.143526,92.0 -69.200028,0.14357,92.0 -69.199851,0.143578,92.0 -69.199566,0.143562,92.0 -69.198227,0.143385,93.2 -69.197912,0.143326,93.2 -69.197503,0.143222,93.1 -69.197033,0.143081,93.5 -69.196417,0.142936,92.6 -69.195698,0.142832,91.4 -69.195248,0.1428,91.6 -69.193475,0.142819,91.6 -69.193334,0.1428,91.0 -69.193244,0.142769,92.0 -69.193191,0.142727,92.0 -69.19316,0.142672,92.0 -69.193149,0.142543,91.0 -69.193267,0.141997,92.0 -69.193311,0.141454,93.0 -69.193376,0.141045,92.0 -69.193528,0.140248,93.0 -69.193525,0.140035,93.0 -69.193492,0.139883,90.0 -69.193429,0.139733,90.0 -69.193433,0.139759,88.0 -69.193487,0.139847,88.0 -69.193522,0.139875,88.0 -69.193535,0.139918,88.0 -69.193531,0.139954,88.0 -69.193563,0.140028,90.0 -69.193592,0.140192,94.0 -69.193584,0.140223,90.0 -69.193559,0.140138,92.0 -69.193562,0.140101,84.0 -69.193541,0.140027,84.0 -69.193452,0.139827,86.0 -69.19337,0.139574,84.0 -69.193274,0.139095,86.0 -69.193192,0.138826,84.0 -69.193251,0.139065,85.0 -69.193276,0.139024,85.0 -69.193295,0.138954,85.0 -69.193179,0.138833,87.0 -69.193076,0.138701,87.0 -69.192769,0.138419,87.0 -69.192705,0.138327,88.0 -69.192696,0.138265,90.0 -69.19273,0.138164,90.0 -69.192781,0.138111,90.0 -69.192844,0.138073,90.0 -69.19292,0.138047,87.0 -69.193162,0.137995,88.0 -69.193375,0.137931,87.0 -69.193487,0.137869,87.0 -69.193556,0.137815,87.0 -69.193638,0.137731,87.0 -69.193734,0.137603,88.0 -69.193786,0.13749,87.0 -69.193796,0.137411,87.0 -69.193787,0.137239,87.0 -69.19375,0.136918,86.0 -69.19371,0.136675,84.0 -69.193696,0.136506,87.0 -69.193715,0.136385,87.0 -69.193779,0.136244,88.0 -69.193855,0.136157,87.0 -69.194134,0.13592,87.0 -69.194254,0.135763,88.0 -69.194286,0.135672,87.0 -69.194293,0.135591,87.0 -69.194268,0.135438,87.0 -69.194207,0.135338,80.0 -69.194253,0.13545,90.0 -69.194293,0.13544,91.0 -69.194282,0.135397,90.0 -69.194209,0.135331,93.0 -69.194157,0.135311,96.0 -69.194062,0.135313,93.0 -69.193996,0.135343,93.0 -69.193621,0.135597,92.0 -69.193713,0.135567,88.0 -69.193765,0.135564,90.0 -69.19376,0.135547,90.0 -69.193464,0.13563,90.0 -69.193392,0.135632,90.0 -69.19333,0.135616,90.0 -69.193206,0.135542,90.0 -69.19307,0.135398,90.0 -69.192951,0.135234,90.0 -69.19292,0.135128,90.0 -69.192917,0.134976,90.0 -69.192953,0.134825,90.0 -69.193017,0.134726,92.0 -69.193317,0.134376,93.0 -69.193393,0.134164,93.0 -69.193491,0.133995,92.0 -69.19358,0.133815,93.0 -69.193599,0.133735,93.0 -69.193602,0.13361,90.0 -69.193567,0.133494,90.0 -69.193481,0.133379,90.0 -69.193336,0.133266,90.0 -69.193294,0.133215,90.0 -69.193264,0.133117,90.0 -69.193241,0.132869,90.0 -69.193256,0.132742,90.0 -69.193307,0.13261,91.0 -69.193325,0.132501,92.0 -69.193318,0.132467,93.0 -69.193282,0.132411,96.0 -69.193198,0.132345,94.0 -69.193101,0.132294,96.0 -69.192907,0.132219,93.0 -69.192836,0.132177,93.0 -69.192766,0.132093,90.0 -69.192655,0.131852,90.0 -69.192607,0.131811,90.0 -69.192573,0.131799,92.0 -69.192435,0.131795,90.0 -69.192222,0.131823,90.0 -69.192162,0.131815,90.2 -69.192112,0.131795,90.0 -69.192054,0.131753,90.0 -69.191985,0.131674,90.0 -69.191949,0.131502,90.0 -69.19197,0.13137,89.0 -69.191978,0.131217,88.0 -69.191967,0.131114,87.0 -69.191919,0.130987,87.0 -69.191753,0.130751,87.0 -69.191704,0.130618,88.0 -69.191723,0.130512,87.0 -69.191769,0.13046,88.0 -69.191824,0.130452,90.0 -69.191925,0.130501,87.0 -69.191952,0.130523,88.0 -69.191964,0.130559,87.0 -69.192008,0.130558,87.0 -69.192185,0.130672,87.0 -69.192273,0.130677,90.0 -69.19238,0.130642,90.0 -69.192468,0.130587,90.0 -69.192503,0.13053,92.0 -69.192514,0.130455,93.0 -69.192491,0.130165,93.0 -69.192456,0.1301,96.0 -69.192379,0.130038,96.0 -69.192174,0.129914,98.0 -69.192063,0.129863,96.0 -69.191933,0.129839,99.0 -69.191808,0.129791,97.0 -69.191752,0.129757,96.0 -69.191694,0.129686,94.0 -69.191667,0.129615,92.0 -69.191636,0.129455,92.0 -69.191651,0.129381,93.0 -69.191687,0.129328,92.0 -69.191696,0.129297,90.0 -69.191679,0.129239,94.0 -69.191609,0.129087,85.0 -69.191642,0.129186,90.0 -69.19167,0.129202,90.0 -69.191648,0.129241,90.0 -69.191693,0.12929,91.0 -69.191711,0.12933,92.0 -69.191643,0.129396,94.0 -69.191624,0.129483,93.0 -69.191632,0.129556,93.0 -69.191683,0.12967,93.0 -69.191731,0.129741,93.0 -69.191839,0.129808,94.0 -69.19221,0.129917,92.0 -69.192281,0.129949,92.0 -69.192383,0.130029,92.0 -69.192438,0.130094,92.9 -69.19248,0.13018,92.0 -69.192503,0.130285,92.0 -69.192509,0.13039,92.0 -69.192486,0.13052,92.0 -69.192455,0.130583,92.6 -69.192403,0.130638,90.0 -69.192326,0.130677,90.0 -69.192245,0.130682,90.0 -69.192168,0.130651,89.0 -69.19202,0.130523,88.0 -69.191933,0.130467,88.0 -69.191869,0.130441,88.0 -69.191797,0.130423,87.0 -69.191754,0.130427,87.0 -69.191695,0.130465,87.0 -69.191681,0.130499,88.0 -69.191678,0.130545,88.0 -69.191715,0.130663,90.0 -69.191935,0.130995,90.0 -69.191983,0.131113,90.0 -69.191996,0.131181,90.0 -69.191974,0.131498,90.0 -69.191982,0.131635,88.0 -69.192016,0.13173,90.0 -69.192039,0.131765,90.0 -69.192102,0.131816,90.0 -69.19222,0.131828,90.0 -69.192462,0.131788,90.0 -69.192542,0.131791,90.0 -69.192607,0.131808,90.0 -69.192663,0.131846,90.0 -69.192691,0.131881,90.0 -69.192839,0.132184,92.0 -69.192934,0.132274,92.0 -69.193015,0.132316,92.0 -69.193175,0.132376,91.0 -69.193235,0.132415,92.0 -69.19328,0.132464,90.0 -69.193294,0.132503,90.0 -69.193296,0.132588,90.0 -69.193252,0.13286,92.0 -69.193259,0.133076,90.0 -69.19327,0.133143,90.0 -69.193293,0.133202,90.0 -69.193357,0.133276,90.0 -69.193521,0.133411,92.0 -69.193578,0.133491,92.0 -69.193607,0.133553,92.0 -69.193622,0.133636,92.0 -69.19362,0.133684,92.0 -69.193594,0.133782,94.0 -69.193412,0.134105,92.0 -69.193372,0.134201,92.0 -69.193332,0.134342,92.0 -69.193265,0.134455,92.0 -69.193008,0.13472,90.0 -69.192951,0.134794,90.0 -69.192907,0.134896,90.0 -69.192897,0.134983,90.0 -69.192898,0.135096,90.0 -69.192918,0.135191,90.0 -69.192976,0.13531,90.0 -69.193063,0.135428,92.0 -69.193154,0.135519,90.0 -69.19327,0.135595,90.0 -69.193358,0.135634,90.0 -69.193435,0.135648,90.0 -69.193531,0.135631,90.0 -69.193908,0.135367,90.0 -69.193983,0.135328,90.0 -69.194059,0.135307,90.0 -69.194126,0.135318,90.0 -69.194204,0.135373,90.0 -69.194261,0.135456,90.0 -69.194286,0.135557,90.0 -69.194264,0.135698,90.0 -69.194209,0.135801,90.0 -69.193856,0.136184,90.0 -69.193781,0.136294,90.0 -69.193717,0.136412,90.0 -69.193687,0.136498,88.0 -69.19367,0.13665,90.0 -69.193674,0.136694,90.0 -69.193758,0.137046,90.0 -69.193785,0.137271,89.0 -69.193769,0.137455,90.0 -69.193724,0.137582,89.0 -69.193677,0.137659,88.0 -69.193584,0.13776,88.0 -69.193434,0.137858,88.0 -69.19326,0.137925,89.0 -69.192827,0.138045,90.0 -69.192741,0.138105,90.0 -69.192705,0.138149,90.6 -69.192679,0.13822,89.0 -69.192684,0.138302,90.0 -69.19271,0.138365,90.0 -69.192807,0.138484,90.0 -69.193065,0.138727,88.0 -69.19318,0.138868,88.0 -69.193238,0.138963,88.0 -69.193332,0.13922,88.0 -69.19334,0.139263,88.0 -69.193388,0.139782,89.7 -69.193458,0.140185,90.0 -69.193467,0.140288,90.0 -69.193459,0.140427,90.0 -69.193278,0.14139,94.0 -69.193227,0.141833,91.0 -69.193205,0.142236,92.0 -69.193159,0.142536,92.0 -69.193153,0.142634,92.0 -69.193178,0.142719,91.0 -69.193227,0.142788,90.0 -69.193299,0.142846,90.0 -69.1934,0.142883,91.0 -69.193904,0.14302,90.0 -69.194071,0.14306,90.0 -69.194243,0.143084,90.0 -69.194376,0.143087,91.5 -69.194667,0.143068,91.3 -69.194946,0.143027,91.5 -69.195288,0.142992,91.7 -69.195423,0.142995,90.0 -69.195526,0.142984,91.9 -69.195751,0.142997,90.0 -69.195992,0.143025,90.0 -69.198722,0.143514,88.0 -69.199119,0.143571,88.0 -69.19946,0.14359,88.0 -69.199687,0.143589,88.0 -69.200133,0.14356,88.0 -69.200569,0.14348,88.0 -69.200779,0.143422,88.0 -69.20112,0.143269,88.0 -69.201409,0.143127,88.0 -69.201694,0.142975,88.0 -69.202004,0.142765,88.0 -69.202131,0.142666,88.0 -69.202597,0.142263,86.0 -69.202812,0.142053,87.0 -69.203083,0.141836,88.0 -69.203297,0.141705,88.0 -69.203701,0.141479,88.0 -69.204055,0.141233,86.0 -69.20414,0.141159,88.0 -69.204371,0.14091,88.6 -69.204572,0.140754,88.0 -69.204711,0.140699,89.0 -69.2048,0.140678,90.0 -69.204946,0.140662,90.0 -69.205101,0.14066,92.3 -69.205383,0.140701,92.0 -69.205629,0.140762,90.0 -69.206236,0.140861,90.0 -69.206334,0.140894,90.0 -69.206427,0.14094,90.0 -69.206518,0.140999,89.0 -69.206603,0.141071,88.0 -69.206881,0.141353,88.0 -69.207219,0.141656,88.0 -69.207353,0.141751,88.0 -69.207637,0.141919,88.0 -69.208002,0.1421,88.0 -69.208124,0.142184,88.0 -69.208245,0.142279,88.0 -69.208626,0.142655,88.0 -69.208752,0.142757,90.0 -69.208851,0.142799,90.0 -69.209506,0.142955,90.0 -69.209778,0.143044,91.2 -69.21069,0.14341,91.8 -69.211055,0.143592,91.6 -69.211686,0.14393,90.6 -69.211876,0.144051,90.0 -69.212031,0.144173,90.2 -69.212224,0.144375,88.0 -69.212468,0.144705,88.0 -69.212615,0.144855,88.0 -69.212683,0.144896,88.0 -69.212791,0.144935,88.0 -69.212872,0.144949,88.0 -69.213128,0.144923,88.0 -69.213193,0.144895,87.0 -69.213372,0.144752,88.0 -69.21339,0.144718,83.0</coordinates>
                </LineString>
            </MultiGeometry>
        </Placemark>
    </Document>
</kml>
