<?xml version="1.0" encoding="UTF-8"?>
<kml xmlns="http://www.opengis.net/kml/2.2" xmlns:gx="http://www.google.com/kml/ext/2.2">
    <Document id="1">
        <Style id="14">
            <IconStyle id="15">
                <colorMode>normal</colorMode>
                <scale>1</scale>
                <heading>0</heading>
                <Icon id="16">
                    <href>red-pin-down.png</href>
                </Icon>
            </IconStyle>
        </Style>
        <Style id="19">
            <IconStyle id="20">
                <colorMode>normal</colorMode>
                <scale>1</scale>
                <heading>0</heading>
                <Icon id="21">
                    <href>red-pin-down.png</href>
                </Icon>
            </IconStyle>
        </Style>
        <Style id="24">
            <IconStyle id="25">
                <colorMode>normal</colorMode>
                <scale>1</scale>
                <heading>0</heading>
                <Icon id="26">
                    <href>red-pin-down.png</href>
                </Icon>
            </IconStyle>
        </Style>
        <Style id="29">
            <IconStyle id="30">
                <colorMode>normal</colorMode>
                <scale>1</scale>
                <heading>0</heading>
                <Icon id="31">
                    <href>red-pin-down.png</href>
                </Icon>
            </IconStyle>
        </Style>
        <Placemark id="3">
            <Style id="6">
                <LineStyle id="7">
                    <color>ff8C7A5E</color>
                    <colorMode>normal</colorMode>
                    <width>1</width>
                </LineStyle>
            </Style>
            <Style id="10">
                <LineStyle id="11">
                    <color>ff8C7A5E</color>
                    <colorMode>normal</colorMode>
                    <width>1</width>
                </LineStyle>
            </Style>
            <name>Pirara poço até São José 2</name>
            <description/>
            <MultiGeometry id="2">
                <LineString id="4">
                    <extrude>0</extrude>
                    <altitudeMode>clampToGround</altitudeMode>
                    <coordinates>-69.218789,0.160322,98.1 -69.218808,0.160412,96.7 -69.218794,0.160591,96.5 -69.218815,0.160658,95.9 -69.2188,0.160717,96.0 -69.218814,0.160965,88.7 -69.218776,0.161343,86.1 -69.218726,0.161563,86.2 -69.218597,0.161835,86.7 -69.218478,0.162034,85.9</coordinates>
                </LineString>
                <LineString id="8">
                    <extrude>0</extrude>
                    <altitudeMode>clampToGround</altitudeMode>
                    <coordinates>-69.218335,0.162205,85.7 -69.218203,0.162403,86.1 -69.217976,0.162587,90.6 -69.217733,0.162745,90.7 -69.217475,0.16288,90.5 -69.217229,0.163031,90.5 -69.217099,0.163096,90.2 -69.216588,0.163389,89.9 -69.215806,0.163795,90.0 -69.215492,0.163993,90.6 -69.215264,0.164172,90.0 -69.214781,0.164503,90.0 -69.214384,0.164821,90.1 -69.214133,0.165098,90.0 -69.213953,0.165333,90.1 -69.213797,0.165586,90.4 -69.213581,0.166054,90.9 -69.213355,0.16668,90.2 -69.213251,0.167034,90.3 -69.213222,0.167176,90.4 -69.213207,0.167396,90.5 -69.213191,0.167472,90.5 -69.213178,0.167777,90.2 -69.213181,0.167999,90.3 -69.213241,0.168806,90.7 -69.213304,0.169164,91.0 -69.213383,0.169447,91.2 -69.213538,0.169793,92.0 -69.213729,0.170093,90.8 -69.213866,0.170265,90.8 -69.214017,0.170425,90.8 -69.21433,0.170723,90.6 -69.214615,0.170953,90.3 -69.214972,0.171203,89.7 -69.215473,0.17149,89.6 -69.215797,0.171651,89.3 -69.216267,0.171853,89.3 -69.216988,0.172186,89.5 -69.217317,0.172351,89.3 -69.218063,0.172624,89.3 -69.218133,0.172634,89.1 -69.218243,0.172667,88.9 -69.218379,0.172736,88.8 -69.218734,0.172864,89.0 -69.218887,0.172898,89.8 -69.219525,0.173,88.5 -69.219887,0.173022,88.7 -69.220547,0.173004,91.0 -69.220756,0.172954,91.4 -69.221024,0.172844,90.5 -69.221216,0.172732,91.1 -69.22139,0.172605,90.5 -69.221499,0.172506,90.5 -69.221601,0.172395,90.8 -69.221796,0.172103,89.5 -69.221881,0.171904,89.9 -69.221923,0.171769,89.4 -69.22196,0.17155,90.1 -69.221963,0.170966,90.1 -69.221926,0.17045,90.0 -69.221802,0.169563,91.3 -69.22177,0.169202,90.0 -69.221735,0.168465,89.5 -69.221731,0.168165,89.9 -69.221742,0.167719,90.9 -69.221824,0.16735,90.5 -69.221857,0.167269,91.9 -69.221911,0.166897,91.9 -69.221966,0.166754,91.9 -69.222057,0.166581,91.2 -69.222144,0.16637,92.3 -69.222282,0.166132,90.6 -69.222373,0.165917,91.6 -69.222593,0.165606,93.3 -69.222651,0.165545,94.2 -69.222669,0.165503,91.5 -69.222967,0.165139,94.6 -69.222995,0.165081,94.6 -69.223239,0.164742,93.7 -69.223473,0.164375,94.3 -69.223534,0.164251,94.0 -69.223577,0.164186,94.4 -69.223681,0.163911,93.7 -69.223889,0.163432,93.8 -69.223907,0.163369,93.3 -69.223978,0.163224,93.7 -69.224079,0.162957,93.3 -69.224181,0.16276,94.0 -69.2241,0.162947,94.0 -69.224271,0.162579,94.1 -69.224387,0.162394,93.7 -69.224477,0.162288,93.8 -69.224633,0.162129,93.3 -69.224792,0.161982,93.6 -69.224908,0.161894,93.5 -69.225032,0.16182,94.3 -69.225169,0.161775,92.8 -69.225482,0.161727,94.2 -69.225627,0.161731,94.0 -69.225854,0.161764,93.7 -69.225908,0.161804,93.7 -69.225971,0.161827,94.1 -69.226029,0.16189,93.5 -69.226096,0.161934,94.1 -69.22622,0.162045,93.9 -69.226365,0.162204,93.9 -69.226464,0.162395,94.1 -69.226501,0.162598,94.2 -69.226499,0.162741,94.0 -69.226458,0.162976,94.4 -69.226354,0.163321,94.1 -69.226203,0.163876,93.8 -69.226082,0.16446,93.8 -69.225975,0.164904,94.0 -69.225936,0.165197,93.7 -69.225932,0.165351,93.1 -69.225956,0.165808,93.7 -69.225981,0.165962,94.1 -69.226069,0.166236,93.4 -69.226153,0.166435,93.5 -69.22626,0.166626,93.3 -69.226346,0.16675,92.9 -69.226489,0.166925,93.3 -69.226763,0.167169,93.0 -69.226947,0.167291,93.5 -69.22721,0.167421,93.9 -69.227284,0.167448,93.7 -69.227671,0.167535,93.6 -69.228673,0.167736,90.2 -69.229523,0.16794,89.8 -69.229954,0.168022,90.2 -69.230316,0.168067,90.4 -69.230531,0.168105,90.6 -69.23153,0.168372,91.6 -69.23168,0.168404,91.3 -69.231807,0.168446,92.0 -69.232038,0.168499,91.7 -69.232495,0.168686,93.1 -69.23254,0.168717,93.0 -69.232753,0.168816,93.7 -69.233053,0.169017,93.4 -69.233274,0.169208,93.6 -69.233375,0.169312,93.8 -69.233436,0.169439,94.5 -69.233576,0.169682,94.5 -69.233659,0.169899,95.0 -69.233647,0.169944,94.8 -69.233684,0.170021,95.1 -69.233715,0.170171,95.4 -69.233676,0.17038,95.4 -69.233653,0.170595,95.4 -69.233619,0.170653,95.5 -69.233615,0.170726,95.8 -69.233592,0.170801,95.4 -69.233526,0.170944,96.1 -69.233521,0.170997,95.8 -69.233428,0.171196,95.6 -69.233107,0.172142,95.6 -69.233079,0.1722,95.4 -69.232992,0.172476,95.9 -69.232922,0.172857,96.1 -69.232843,0.17363,96.6 -69.232836,0.174069,95.8 -69.232803,0.174306,96.2 -69.232775,0.174745,96.2 -69.232737,0.174873,95.9 -69.232698,0.175315,94.2 -69.232626,0.175748,94.8 -69.232602,0.175973,94.9 -69.232575,0.176265,94.6 -69.232546,0.176863,95.2 -69.23254,0.177304,94.9 -69.232587,0.177668,94.4 -69.232721,0.178245,94.4 -69.232924,0.178953,93.9 -69.233125,0.179583,93.3 -69.233325,0.180129,92.3 -69.233463,0.180548,91.6 -69.233828,0.18151,92.1 -69.233996,0.181833,91.4 -69.23418,0.182146,91.6 -69.234678,0.182871,91.6 -69.234775,0.182987,91.7 -69.234929,0.18314,91.9 -69.235474,0.183633,90.6 -69.235715,0.183806,91.0 -69.236026,0.184001,91.1 -69.236156,0.184063,90.9 -69.236296,0.184111,90.9 -69.236518,0.184155,90.5 -69.236734,0.18418,90.6 -69.236958,0.184171,90.5 -69.237108,0.184142,90.7 -69.237323,0.184053,91.0 -69.237518,0.183941,91.2 -69.237626,0.183845,91.3 -69.237717,0.183736,91.3 -69.237847,0.183485,91.1 -69.237954,0.183058,91.4 -69.237978,0.182915,91.2 -69.238059,0.182197,90.2 -69.238188,0.181618,91.1 -69.238312,0.181191,91.3 -69.238389,0.180986,91.4 -69.238483,0.180787,91.2 -69.238599,0.1806,90.9 -69.238861,0.180248,90.5 -69.239208,0.179859,91.2 -69.239526,0.179562,91.9 -69.239817,0.179343,91.4 -69.24018,0.179125,91.2 -69.240408,0.179023,91.5 -69.240734,0.178925,90.0 -69.240765,0.178898,90.0 -69.240781,0.178869,90.0 -69.240778,0.178833,90.0 -69.240759,0.178797,90.0 -69.240729,0.178769,90.0 -69.24069,0.178753,90.0 -69.240605,0.178757,91.2 -69.240478,0.178818,90.0 -69.240366,0.178908,92.0 -69.240253,0.179025,92.6 -69.240066,0.179181,92.8 -69.239657,0.179422,91.9 -69.239565,0.179469,90.0 -69.239474,0.179501,90.0 -69.239375,0.179517,90.0 -69.239301,0.179516,91.2 -69.239234,0.179492,90.0 -69.239208,0.179461,90.0 -69.239194,0.179383,90.0 -69.239266,0.17926,90.0 -69.239275,0.179204,90.0 -69.239261,0.179171,74.0 -69.239256,0.179119,92.0 -69.239259,0.179192,85.0 -69.23932,0.17921,94.7 -69.239278,0.179152,92.0 -69.239214,0.179101,93.0 -69.239215,0.179136,94.8 -69.239245,0.179177,92.0 -69.239319,0.179176,93.0 -69.239244,0.179265,87.0 -69.2392,0.179226,88.0 -69.239184,0.179256,89.0 -69.239257,0.179256,90.0 -69.239525,0.179201,90.0 -69.239703,0.179144,90.4 -69.240029,0.178997,89.8 -69.240419,0.178842,90.0 -69.240673,0.178769,89.6 -69.240973,0.178662,89.7 -69.241345,0.178468,89.9 -69.241383,0.178436,90.2 -69.241983,0.178072,90.7 -69.242406,0.177828,90.3 -69.242586,0.177714,90.4 -69.242882,0.177502,90.5 -69.243189,0.177299,91.0 -69.243359,0.177164,90.4 -69.243437,0.177133,90.6 -69.243546,0.177057,90.9 -69.243814,0.176945,92.0 -69.244059,0.17682,91.8 -69.244127,0.176808,91.9 -69.244421,0.176712,91.5 -69.244769,0.176637,91.4 -69.244966,0.176616,91.6 -69.245396,0.176608,91.7 -69.245823,0.176668,91.3 -69.246374,0.176826,90.8 -69.246628,0.176935,90.0 -69.2469,0.177003,89.9 -69.247103,0.17708,89.9 -69.247252,0.177123,90.6 -69.24732,0.17714,90.7 -69.247371,0.177141,90.8 -69.247443,0.17718,90.9 -69.24765,0.177258,90.3 -69.247929,0.17733,90.9 -69.248633,0.17748,90.9 -69.248986,0.177576,90.9 -69.249124,0.177626,91.3 -69.249255,0.177689,90.9 -69.249551,0.177891,91.7 -69.249591,0.17795,91.5 -69.249646,0.177999,91.6 -69.249683,0.178051,91.5 -69.249711,0.178137,91.9 -69.249753,0.178202,91.7 -69.249868,0.17828,92.0 -69.249888,0.178353,92.5 -69.249964,0.17849,92.5 -69.25001,0.178621,92.5 -69.250046,0.178867,92.8 -69.250111,0.17909,93.1 -69.250061,0.1793,93.1 -69.250064,0.17936,93.4 -69.250047,0.179448,93.1 -69.250058,0.179524,93.2 -69.250055,0.179578,93.3 -69.250025,0.179663,93.6 -69.250008,0.179888,93.7 -69.250027,0.179958,92.4 -69.250032,0.180106,91.5 -69.250021,0.180529,91.7 -69.25006,0.180666,91.5 -69.25018,0.180949,91.6 -69.250382,0.181269,90.8 -69.250489,0.181377,90.6 -69.250609,0.181468,90.6 -69.250671,0.181503,90.9 -69.250878,0.181562,91.0 -69.251024,0.181559,92.0 -69.251173,0.181539,90.6 -69.251303,0.181488,91.7 -69.251421,0.181417,91.9 -69.251597,0.181284,91.2 -69.251642,0.181234,91.1 -69.251805,0.181103,91.7 -69.251834,0.181026,91.6 -69.252184,0.180575,91.4 -69.252479,0.18016,90.5 -69.252557,0.180035,90.7 -69.252846,0.179703,90.9 -69.253278,0.17935,90.6 -69.253353,0.179317,90.9 -69.253431,0.179265,90.6 -69.253906,0.179074,90.2 -69.254118,0.179016,90.1 -69.254191,0.179011,89.6 -69.254474,0.178951,90.5 -69.254622,0.17896,91.1 -69.254838,0.178943,91.5 -69.255213,0.178974,92.0 -69.255339,0.179028,91.6 -69.255619,0.179103,91.5 -69.256152,0.179336,91.1 -69.256799,0.179674,91.2 -69.256929,0.179729,91.1 -69.257122,0.179845,90.8 -69.257585,0.180066,90.5 -69.258111,0.18034,90.1 -69.258623,0.180627,91.1 -69.258965,0.180834,91.1 -69.259095,0.180896,91.4 -69.259168,0.180946,91.0 -69.259492,0.181078,91.7 -69.259865,0.181171,91.1 -69.260085,0.181207,91.1 -69.260229,0.181214,91.4 -69.260385,0.181196,91.5 -69.260532,0.181162,91.7 -69.260739,0.181089,92.6 -69.260937,0.180987,91.6 -69.26105,0.180904,90.7 -69.261151,0.180808,90.6 -69.261314,0.180629,90.6 -69.261349,0.180564,90.9 -69.261358,0.18051,91.0 -69.261386,0.180441,90.6 -69.261702,0.179719,90.2 -69.261809,0.179539,90.4 -69.261827,0.179469,90.2 -69.262233,0.178722,89.9 -69.262485,0.178356,90.3 -69.262793,0.178039,89.7 -69.263269,0.177666,89.1 -69.26333,0.177647,89.4 -69.263591,0.177499,89.5 -69.264179,0.177195,90.3 -69.264932,0.176743,91.2 -69.265523,0.176439,91.5 -69.266283,0.176154,90.3 -69.266617,0.176019,91.2 -69.267112,0.175872,90.2 -69.267752,0.175739,92.6 -69.26779,0.175752,92.9 -69.267859,0.175699,93.4 -69.268118,0.175669,93.3 -69.268245,0.175634,93.1 -69.268483,0.17563,93.0 -69.268544,0.17561,93.2 -69.26869,0.175608,92.6 -69.268801,0.175583,92.9 -69.268877,0.175586,92.4 -69.268944,0.175572,93.0 -69.269089,0.175588,93.5 -69.269156,0.175567,93.4 -69.269318,0.175566,93.5 -69.269601,0.175496,94.2 -69.269678,0.175514,94.2 -69.269755,0.175517,93.7 -69.269834,0.175542,93.5 -69.270362,0.175578,91.8 -69.270653,0.175616,91.1 -69.270727,0.175617,91.4 -69.271101,0.175687,91.3 -69.271313,0.175714,91.4 -69.271621,0.175719,91.2 -69.272127,0.175646,92.7 -69.272478,0.175492,92.1 -69.272677,0.175388,91.2 -69.272924,0.175218,90.9 -69.273157,0.175022,91.4 -69.273316,0.174862,91.4 -69.273457,0.174687,91.4 -69.273539,0.174561,91.5 -69.273665,0.174067,90.3 -69.273709,0.173502,89.6 -69.273713,0.173285,89.9 -69.273725,0.17321,89.9 -69.273721,0.172985,89.9 -69.273733,0.172841,89.3 -69.273718,0.172759,89.3 -69.273747,0.172386,89.1 -69.27374,0.172238,89.5 -69.27376,0.171933,89.0 -69.273808,0.171565,88.8 -69.273886,0.171205,88.6 -69.274085,0.170496,89.1 -69.274267,0.170017,89.6 -69.274418,0.169751,88.4 -69.274826,0.169233,89.4 -69.274974,0.169072,89.8 -69.275091,0.168985,90.5 -69.275286,0.168894,90.7 -69.275423,0.168865,91.0 -69.275567,0.168864,90.4 -69.275711,0.168884,90.7 -69.276269,0.169037,91.5 -69.27663,0.169115,90.6 -69.276917,0.16919,90.6 -69.277061,0.169212,90.4 -69.277358,0.169228,90.2 -69.277504,0.16921,90.4 -69.277715,0.169155,90.5 -69.277913,0.169071,90.4 -69.278217,0.168884,90.4 -69.278602,0.168576,90.4 -69.279041,0.168182,90.4 -69.279214,0.168041,90.4 -69.279398,0.167923,90.3 -69.279669,0.16781,89.7 -69.279883,0.167756,89.5 -69.280104,0.167716,89.9 -69.2804,0.167688,90.3 -69.280624,0.167683,90.4 -69.280915,0.167721,90.9 -69.280882,0.167742,91.1 -69.281055,0.16776,91.2 -69.281188,0.167818,90.8 -69.281755,0.168152,89.6 -69.281927,0.168285,89.1 -69.282035,0.168389,89.0 -69.282197,0.168624,88.3 -69.282262,0.168755,88.2 -69.282314,0.168892,88.4 -69.282471,0.169382,89.2 -69.282672,0.169939,89.0 -69.283123,0.171039,89.0 -69.283308,0.171448,88.6 -69.283413,0.171646,88.4 -69.283498,0.171769,88.5 -69.283594,0.171881,89.5 -69.283751,0.17204,89.5 -69.284685,0.172779,89.3 -69.284993,0.172991,90.1 -69.285044,0.173038,89.8 -69.285229,0.173156,89.7 -69.285359,0.173218,89.8 -69.285566,0.173293,89.6 -69.285925,0.173361,89.8 -69.286144,0.173363,90.2 -69.286363,0.173333,90.1 -69.286576,0.173271,90.3 -69.286774,0.173175,90.2 -69.28696,0.173053,90.4 -69.287188,0.17286,90.3 -69.287342,0.172698,90.3 -69.287519,0.172459,90.5 -69.287591,0.172331,90.4 -69.287673,0.172124,90.5 -69.28771,0.171984,90.0 -69.287734,0.171763,89.8 -69.287729,0.171621,89.6 -69.287696,0.171326,89.2 -69.28764,0.170959,89.2 -69.287583,0.170742,89.5 -69.287414,0.170339,89.6 -69.287237,0.170017,90.1 -69.286942,0.169598,89.9 -69.286766,0.169366,90.1 -69.286484,0.169033,90.2 -69.286303,0.168798,90.4 -69.286253,0.168712,89.8 -69.286199,0.168651,89.5 -69.286179,0.168598,90.1 -69.286096,0.168491,89.2 -69.285893,0.168187,90.0 -69.285709,0.167871,90.7 -69.285596,0.1676,90.6 -69.285415,0.16704,90.6 -69.285345,0.166754,90.7 -69.285321,0.166606,90.7 -69.28538,0.166162,91.0 -69.285412,0.166019,90.9 -69.285534,0.165748,90.6 -69.285574,0.165685,91.0 -69.285671,0.165576,91.2 -69.285778,0.16548,91.0 -69.285899,0.1654,91.1 -69.286026,0.165337,91.3 -69.286161,0.165295,91.4 -69.286302,0.165278,91.4 -69.286443,0.165278,91.1 -69.286582,0.165298,90.8 -69.286719,0.165333,90.6 -69.286993,0.165422,90.3 -69.287599,0.165658,90.3 -69.288056,0.165893,90.1 -69.288755,0.166305,89.3 -69.289351,0.166604,89.9 -69.289697,0.166745,89.8 -69.289905,0.166816,89.9 -69.290685,0.167022,89.7 -69.291115,0.167091,89.8 -69.291406,0.167111,89.7 -69.291845,0.16709,89.6 -69.292065,0.167065,89.8 -69.292504,0.166985,89.5 -69.293074,0.166823,90.6 -69.293282,0.166745,90.4 -69.293684,0.166565,90.6 -69.293941,0.166419,90.2 -69.294065,0.166337,90.3 -69.294363,0.166111,90.7 -69.294587,0.16592,90.9 -69.294734,0.16576,91.1 -69.294859,0.16558,90.9 -69.294955,0.165403,90.6 -69.294998,0.165292,90.4 -69.295053,0.165016,90.0 -69.295041,0.164829,88.0 -69.295008,0.164722,90.0 -69.294939,0.16461,90.2 -69.294754,0.164377,90.2 -69.294643,0.164271,90.4 -69.294395,0.164122,91.2 -69.294063,0.16394,91.8 -69.293693,0.16376,91.9 -69.293383,0.163587,91.3 -69.292575,0.163082,93.1 -69.292329,0.162915,93.3 -69.292094,0.16273,93.1 -69.291926,0.162581,92.7 -69.291657,0.162317,92.4 -69.291401,0.162038,91.4 -69.291266,0.161861,91.3 -69.291111,0.161608,91.0 -69.290983,0.161335,91.0 -69.290907,0.161125,90.6 -69.290851,0.160909,90.6 -69.290826,0.160757,89.8 -69.290826,0.16054,90.3 -69.290853,0.160395,89.9 -69.29093,0.16019,90.1 -69.291043,0.159999,90.5 -69.291221,0.159765,90.7 -69.29132,0.15966,90.8 -69.291376,0.159616,90.9 -69.29156,0.159506,90.8 -69.29169,0.159454,90.7 -69.292691,0.159278,89.9 -69.293047,0.159194,90.0 -69.293187,0.159151,89.9 -69.293666,0.158967,90.3 -69.293865,0.158877,90.4 -69.293989,0.158809,90.6 -69.2943,0.158621,91.1 -69.294728,0.158328,91.0 -69.295108,0.158096,90.7 -69.29531,0.158004,90.7 -69.29559,0.157906,90.8 -69.295802,0.157849,91.4 -69.296021,0.157832,90.9 -69.296167,0.157842,90.6 -69.296381,0.157902,89.8 -69.296579,0.158002,89.7 -69.296643,0.158045,89.5 -69.296755,0.158144,89.4 -69.296905,0.158314,89.1 -69.297023,0.158505,89.2 -69.297078,0.158637,89.7 -69.297104,0.158775,89.8 -69.297104,0.158913,90.0 -69.297078,0.159122,90.0 -69.297023,0.159404,90.5 -69.296778,0.160336,91.2 -69.296737,0.160557,91.3 -69.296718,0.160779,90.9 -69.296726,0.161074,90.5 -69.296811,0.161663,90.9 -69.296935,0.162245,90.5 -69.297037,0.162529,90.0 -69.297255,0.162994,90.3 -69.297469,0.163384,90.5 -69.297788,0.163879,90.5 -69.297872,0.163995,90.3 -69.297943,0.164128,90.4 -69.298206,0.164487,91.0 -69.2983,0.164603,90.9 -69.298191,0.164458,90.0 -69.298769,0.165183,91.1 -69.298983,0.165394,91.0 -69.299218,0.165575,91.3 -69.299603,0.165801,90.9 -69.300075,0.166014,90.9 -69.300289,0.166079,90.9 -69.300581,0.166134,90.7 -69.3008,0.166152,91.0 -69.30102,0.166148,91.3 -69.301314,0.166113,91.2 -69.301531,0.166065,91.5 -69.301744,0.165999,91.9 -69.302224,0.165798,91.3 -69.302359,0.165734,91.5 -69.302549,0.165615,91.3 -69.302725,0.165482,91.5 -69.302835,0.165385,91.7 -69.302934,0.165278,92.1 -69.303019,0.165159,92.0 -69.303188,0.164837,92.1 -69.303588,0.163804,92.4 -69.303924,0.162833,92.7 -69.303981,0.162623,92.9 -69.304118,0.162209,93.8 -69.304317,0.16142,91.9 -69.304389,0.16106,91.4 -69.304462,0.16078,91.6 -69.304598,0.16029,91.7 -69.304727,0.159874,91.4 -69.304864,0.159328,92.7 -69.304927,0.159175,91.9 -69.30494,0.159112,91.9 -69.305011,0.158908,91.6 -69.305123,0.158636,91.9 -69.305248,0.158376,91.7 -69.305273,0.158303,92.5 -69.30548,0.157844,92.4 -69.305702,0.157388,92.7 -69.305808,0.157197,92.5 -69.305847,0.157134,92.6 -69.30574,0.157325,92.0 -69.306087,0.156762,92.2 -69.306343,0.156321,93.4 -69.30674,0.155782,92.7 -69.306925,0.155549,92.7 -69.307081,0.155392,92.7 -69.307193,0.155296,92.7 -69.307311,0.155206,92.3 -69.307496,0.155085,92.5 -69.307626,0.155016,92.4 -69.307827,0.154927,92.0 -69.308032,0.154852,92.4 -69.308175,0.154828,92.5 -69.308393,0.15481,93.4 -69.308538,0.154814,93.4 -69.308826,0.154864,92.8 -69.309031,0.154934,92.5 -69.309163,0.155001,92.3 -69.309286,0.155078,92.1 -69.309406,0.155164,91.9 -69.309318,0.155123,92.2 -69.310163,0.155746,92.2 -69.310384,0.15595,91.8 -69.310531,0.156104,91.5 -69.310849,0.156518,92.0 -69.310962,0.156712,91.7 -69.310999,0.156853,92.0 -69.311017,0.157075,92.3 -69.310993,0.157375,92.5 -69.310971,0.157524,92.6 -69.310932,0.15767,92.3 -69.310877,0.157808,92.4 -69.310809,0.157936,92.0 -69.310724,0.158056,92.2 -69.310518,0.158266,92.1 -69.309842,0.158699,92.9 -69.310009,0.158588,90.0 -69.30949,0.158975,92.4 -69.309044,0.159371,93.0 -69.308883,0.159528,92.8 -69.308733,0.159694,93.4 -69.308596,0.159874,93.8 -69.308528,0.160006,93.6 -69.308423,0.16029,93.3 -69.308358,0.160587,92.7 -69.308294,0.160962,92.9 -69.308274,0.161192,92.8 -69.308268,0.161496,93.3 -69.308275,0.161647,93.1 -69.308296,0.161797,93.5 -69.308331,0.161943,93.5 -69.308384,0.162081,92.9 -69.308521,0.162338,93.2 -69.308731,0.162644,92.5 -69.308937,0.163037,92.8 -69.309157,0.163428,93.2 -69.309387,0.163894,93.2 -69.309442,0.164028,93.4 -69.309483,0.164167,93.4 -69.309544,0.164452,93.6 -69.309557,0.164739,93.9 -69.309604,0.165031,93.6 -69.309625,0.165402,93.4 -69.30962,0.165542,93.8 -69.30963,0.165616,93.9 -69.309669,0.165768,94.0 -69.309745,0.166205,93.7 -69.30989,0.166787,94.7 -69.310028,0.167146,93.3 -69.310093,0.167283,93.4 -69.310224,0.16747,92.5 -69.310331,0.167577,92.2 -69.310516,0.167705,91.9 -69.31072,0.167804,91.6 -69.310936,0.167889,92.4 -69.311236,0.167977,92.8 -69.311462,0.168017,92.8 -69.311609,0.16802,93.0 -69.311825,0.167989,92.7 -69.312026,0.167912,92.5 -69.312213,0.167805,92.8 -69.312383,0.167672,93.0 -69.312589,0.167471,93.0 -69.312837,0.167206,93.1 -69.31322,0.166861,93.5 -69.313688,0.166503,93.6 -69.314208,0.166075,93.7 -69.314447,0.165896,93.5 -69.314995,0.165529,91.4 -69.315342,0.165374,93.1 -69.315556,0.16532,92.8 -69.31615,0.165271,92.9 -69.316278,0.165272,92.4 -69.316508,0.165306,93.0 -69.316795,0.165386,92.8 -69.317007,0.165472,93.1 -69.317052,0.165508,92.6 -69.317123,0.165541,92.8 -69.317242,0.165627,93.0 -69.317391,0.165778,92.5 -69.317507,0.165958,92.7 -69.317967,0.16702,92.0 -69.318178,0.167652,91.9 -69.318405,0.168431,91.8 -69.318667,0.169056,91.7 -69.31874,0.169188,91.7 -69.318825,0.169312,91.6 -69.318921,0.169424,91.8 -69.319087,0.169574,91.4 -69.319207,0.169661,91.5 -69.319529,0.169856,91.5 -69.319793,0.169989,91.9 -69.319934,0.170034,92.0 -69.320224,0.170092,92.6 -69.320664,0.170158,92.4 -69.320882,0.170204,92.4 -69.321871,0.170516,92.3 -69.323446,0.170853,92.5 -69.324419,0.171133,92.7 -69.324769,0.171221,92.5 -69.32511,0.171348,92.2 -69.325511,0.171533,92.2 -69.325651,0.171575,92.3 -69.3258,0.171595,92.2 -69.325942,0.171582,92.1 -69.326001,0.171561,92.0 -69.326082,0.171556,92.8 -69.326224,0.17152,93.2 -69.326643,0.171388,92.6 -69.327196,0.171178,93.2 -69.327625,0.171049,92.7 -69.328025,0.1709,92.0 -69.328215,0.170817,91.6 -69.328426,0.170744,92.1 -69.328641,0.170691,92.2 -69.329008,0.170628,92.6 -69.329877,0.170452,92.6 -69.330156,0.170367,93.5 -69.330716,0.170147,93.9 -69.330922,0.170054,94.0 -69.33136,0.169924,93.3 -69.331728,0.169851,93.9 -69.331876,0.169837,93.6 -69.332026,0.169837,93.6 -69.332101,0.169842,93.5 -69.332242,0.169876,93.9 -69.332443,0.169955,94.3 -69.332509,0.169972,93.8 -69.332708,0.170074,93.8 -69.33283,0.170152,93.7 -69.33311,0.17039,92.9 -69.333604,0.170838,92.3 -69.334242,0.171349,91.8 -69.33459,0.171643,91.6 -69.334899,0.17186,91.8 -69.335159,0.172016,91.5 -69.33537,0.172096,91.7 -69.336187,0.17223,92.4 -69.336337,0.172229,92.6 -69.336481,0.172206,92.7 -69.336548,0.172181,92.6 -69.336674,0.17211,92.2 -69.336935,0.171865,92.8 -69.337159,0.171679,92.8 -69.337748,0.171234,92.5 -69.337861,0.171133,92.7 -69.337895,0.171078,92.8 -69.338114,0.170873,94.2 -69.33817,0.170834,93.1 -69.33824,0.170787,93.1 -69.338373,0.170718,93.4 -69.338793,0.170553,93.2 -69.338934,0.170508,93.0 -69.33908,0.17048,92.9 -69.339601,0.170415,92.7 -69.339748,0.170406,92.9 -69.340046,0.170433,92.3 -69.340482,0.170515,92.2 -69.340765,0.1706,92.5 -69.340905,0.170653,92.4 -69.34104,0.170719,92.2 -69.34123,0.170836,92.4 -69.34153,0.17107,92.2 -69.341691,0.171233,92.3 -69.341833,0.17141,92.0 -69.341905,0.171537,92.3 -69.341957,0.171673,92.6 -69.342027,0.171961,91.6 -69.342148,0.172621,93.0 -69.342268,0.17298,92.9 -69.342394,0.173484,93.5 -69.342537,0.173985,93.2 -69.342735,0.17479,92.2 -69.342839,0.175144,92.2 -69.342945,0.175575,92.5 -69.343057,0.17609,92.0 -69.343137,0.176379,92.2 -69.343177,0.17645,92.6 -69.34326,0.176735,92.6 -69.343483,0.177665,94.1 -69.343566,0.17803,93.6 -69.343586,0.178159,94.6 -69.343618,0.178233,94.3 -69.343664,0.178385,93.5 -69.343712,0.178462,92.5 -69.343809,0.179077,92.9 -69.343826,0.179535,92.8 -69.343864,0.180146,92.6 -69.343939,0.180528,92.2 -69.344079,0.180838,92.3 -69.34417,0.180926,92.5 -69.344281,0.181013,92.2 -69.344342,0.181048,92.4 -69.344541,0.181114,91.8 -69.344752,0.181141,92.3 -69.345186,0.181135,92.8 -69.345986,0.181074,92.1 -69.346431,0.181054,92.2 -69.34752,0.180953,92.8 -69.348177,0.180918,93.5 -69.34927,0.180761,95.4 -69.350216,0.180543,94.9 -69.350575,0.180432,95.0 -69.351465,0.180232,96.2 -69.35169,0.180218,96.6 -69.351916,0.180231,96.3 -69.352361,0.18032,95.2 -69.352574,0.180382,96.3 -69.352831,0.180527,95.3 -69.353015,0.180652,95.5 -69.35336,0.180944,95.7 -69.353798,0.181355,95.1 -69.354082,0.181592,95.2 -69.354446,0.181843,95.6 -69.354523,0.181877,94.7 -69.354581,0.181922,95.1 -69.355017,0.182188,94.9 -69.355511,0.182512,96.1 -69.355769,0.182651,95.3 -69.356033,0.182771,95.7 -69.356577,0.18299,96.9 -69.356716,0.18303,97.0 -69.356925,0.183116,96.5 -69.356992,0.18313,97.5 -69.357328,0.18329,96.6 -69.357676,0.183427,95.5 -69.3583,0.183652,95.0 -69.358566,0.183774,95.8 -69.35863,0.183813,95.9 -69.359119,0.184141,95.5 -69.359339,0.184332,96.4 -69.359634,0.184556,95.6 -69.360193,0.184909,95.7 -69.360546,0.185151,96.2 -69.360836,0.185369,95.9 -69.361103,0.185554,95.6 -69.361212,0.185608,95.5 -69.36154,0.185852,94.0 -69.361693,0.185934,96.0 -69.361798,0.186007,96.0 -69.362121,0.186271,98.0 -69.362441,0.18658,96.0 -69.362745,0.18681,96.0 -69.363108,0.187044,96.0 -69.363228,0.187108,96.0 -69.363709,0.187285,95.0 -69.363898,0.187374,96.0 -69.364029,0.187406,96.0 -69.364357,0.187526,96.0 -69.364487,0.187558,96.0 -69.364812,0.187674,94.0 -69.365084,0.187757,94.0 -69.365187,0.187776,95.0 -69.365589,0.18789,96.0 -69.365771,0.187912,96.0 -69.365958,0.187978,92.0 -69.366067,0.188034,96.0 -69.366184,0.188076,96.2 -69.366386,0.188119,96.2 -69.366471,0.18815,96.4 -69.366599,0.188226,97.0 -69.366693,0.188269,96.5 -69.366831,0.188326,96.9 -69.367059,0.188389,97.0 -69.367187,0.188457,97.3 -69.367406,0.188511,97.4 -69.367616,0.188589,96.9 -69.367706,0.1886,96.6 -69.368002,0.18869,97.2 -69.368131,0.188742,97.3 -69.368263,0.188765,97.4 -69.368688,0.188776,98.1 -69.369297,0.188774,98.2 -69.369481,0.188817,97.9 -69.369619,0.188861,97.7 -69.369738,0.188926,97.4 -69.369916,0.189066,96.9 -69.370034,0.189193,98.1 -69.370358,0.189501,98.3 -69.370626,0.189728,97.4 -69.370779,0.189901,97.5 -69.370881,0.190051,97.9 -69.371028,0.190334,98.3 -69.371186,0.190716,97.9 -69.371391,0.191134,97.9 -69.371434,0.191267,98.4 -69.371698,0.192389,97.4 -69.37174,0.192626,97.9 -69.371804,0.193207,97.3 -69.371832,0.193305,97.3 -69.371979,0.194127,95.4 -69.372062,0.194507,95.8 -69.372082,0.194695,96.4 -69.37209,0.194988,96.6 -69.372148,0.195577,96.3 -69.372158,0.196397,96.1 -69.372133,0.196639,96.1 -69.372095,0.196827,95.9 -69.372081,0.19697,95.6 -69.372082,0.197081,96.4 -69.372054,0.19717,96.3 -69.372055,0.197215,96.5 -69.371991,0.197561,96.2 -69.371798,0.198324,95.5 -69.371659,0.198793,95.0 -69.371583,0.199126,95.2 -69.371432,0.199596,96.2 -69.371168,0.200309,95.3 -69.371049,0.200704,95.5 -69.370949,0.200939,95.7 -69.370887,0.201125,95.8 -69.370738,0.201427,95.5 -69.370706,0.201521,95.7 -69.370583,0.201802,95.5 -69.370495,0.202041,96.2 -69.370366,0.202337,95.9 -69.370302,0.202656,94.7 -69.370283,0.202816,94.2 -69.37027,0.203143,93.8 -69.37027,0.203249,93.2 -69.370283,0.203356,93.5 -69.370326,0.203504,92.3 -69.370365,0.203597,92.4 -69.370567,0.203945,92.0 -69.370681,0.204109,91.6 -69.370789,0.204211,91.8 -69.370867,0.204274,92.1 -69.370958,0.204326,92.4 -69.371147,0.204413,92.9 -69.371288,0.204464,92.7 -69.371892,0.204606,93.9 -69.371988,0.204612,93.4 -69.372345,0.204671,94.4 -69.372608,0.204698,94.0 -69.372973,0.204754,94.0 -69.373559,0.204805,93.5 -69.373672,0.204804,93.6 -69.373832,0.204777,93.5 -69.373984,0.204733,93.4 -69.374137,0.20467,93.2 -69.374223,0.204603,93.0 -69.37428,0.204584,92.6 -69.374329,0.204549,92.8 -69.374405,0.204468,92.9 -69.374493,0.204334,92.7 -69.374562,0.204187,92.9 -69.374624,0.203995,92.5 -69.374753,0.203337,93.0 -69.374795,0.203184,92.9 -69.374888,0.202939,93.7 -69.375,0.202696,92.7 -69.375156,0.202292,92.4 -69.375257,0.202103,92.7 -69.375376,0.201926,92.7 -69.375475,0.2018,93.0 -69.375688,0.201561,93.1 -69.375803,0.201449,93.1 -69.375898,0.201401,93.7 -69.376058,0.201379,93.5 -69.376211,0.201337,93.8 -69.376366,0.201312,94.0 -69.376527,0.201313,94.0 -69.376631,0.201336,93.8 -69.376815,0.201433,94.3 -69.377028,0.201612,94.4 -69.377085,0.201647,94.3 -69.377097,0.201691,94.3 -69.377282,0.201944,93.9 -69.377409,0.202166,94.7 -69.377511,0.202353,95.5 -69.377517,0.202392,95.9 -69.377551,0.202433,96.7 -69.37771,0.202774,94.8 -69.377993,0.203581,93.8 -69.378056,0.203792,93.9 -69.378227,0.204462,93.0 -69.3784,0.204976,92.9 -69.37852,0.205508,93.2 -69.378647,0.205974,93.6 -69.378681,0.20618,93.4 -69.378707,0.206499,93.7 -69.378768,0.206618,93.2 -69.378782,0.206798,92.0 -69.378749,0.207071,92.8 -69.378757,0.207652,92.5 -69.378724,0.207862,92.0 -69.378693,0.20833,93.0 -69.378602,0.208673,90.0 -69.378611,0.208704,90.0 -69.378657,0.208712,92.0 -69.378623,0.208715,84.0 -69.378608,0.208667,91.0 -69.378679,0.208547,90.0 -69.378683,0.208499,85.0 -69.3789,0.208653,92.7 -69.379163,0.208912,92.5 -69.379527,0.209312,92.0 -69.380038,0.209766,92.8 -69.380373,0.210105,93.3 -69.380502,0.210218,92.0 -69.380559,0.210289,92.0 -69.380657,0.210366,93.0 -69.380708,0.210419,94.0 -69.380767,0.210441,88.0 -69.380828,0.210436,88.0 -69.38086,0.210457,93.0 -69.380975,0.210582,94.0 -69.381085,0.210659,94.7 -69.381312,0.210851,94.4 -69.381444,0.21095,94.5 -69.381631,0.21107,94.3 -69.381878,0.211195,94.6 -69.382188,0.211293,94.5 -69.382508,0.211346,94.5 -69.38267,0.211354,94.9 -69.382832,0.211348,95.1 -69.383102,0.211317,95.2 -69.38347,0.211228,95.1 -69.383824,0.211102,95.3 -69.384105,0.210954,95.5 -69.384372,0.21078,95.0 -69.384719,0.210537,95.7 -69.38507,0.210278,95.7 -69.38545,0.209979,96.1 -69.385809,0.209733,96.1 -69.386285,0.209371,96.3 -69.387084,0.20882,94.6 -69.387535,0.208569,94.0 -69.38784,0.208439,93.6 -69.388628,0.207978,95.2 -69.388903,0.207867,95.2 -69.389123,0.207848,95.0 -69.389387,0.207857,95.1 -69.389484,0.20788,95.1 -69.38958,0.20792,94.9 -69.389664,0.207974,94.6 -69.389904,0.208163,94.0 -69.390015,0.208276,93.7 -69.39008,0.20836,93.6 -69.39013,0.208453,93.5 -69.39019,0.2086,93.5 -69.390321,0.209064,93.3 -69.390461,0.209472,93.4 -69.390513,0.209566,93.1 -69.390613,0.209696,93.1 -69.390689,0.209771,93.0 -69.390778,0.20983,92.8 -69.390932,0.209883,92.5 -69.391093,0.209901,92.4 -69.391256,0.209896,92.2 -69.391415,0.209862,92.4 -69.391618,0.209784,92.5 -69.391807,0.209681,93.2 -69.391932,0.209578,93.4 -69.392038,0.209459,93.8 -69.392097,0.209375,94.4 -69.392223,0.209145,95.4 -69.39234,0.208844,95.3 -69.392432,0.208478,94.7 -69.392524,0.207993,94.4 -69.392638,0.207118,94.7 -69.392675,0.206956,94.1 -69.392746,0.206514,94.8 -69.392749,0.206402,96.0 -69.392784,0.206103,94.9 -69.392834,0.205908,94.9 -69.392911,0.2057,94.9 -69.393045,0.205449,95.0 -69.393121,0.205364,94.9 -69.393257,0.205262,94.6 -69.393361,0.205216,94.5 -69.393469,0.205186,94.6 -69.393578,0.205175,94.4 -69.393688,0.205182,94.5 -69.393904,0.20522,94.4 -69.39422,0.205312,94.4 -69.394576,0.205459,94.9 -69.39552,0.205911,95.6 -69.395928,0.206132,95.6 -69.396171,0.20628,95.2 -69.396399,0.206454,95.0 -69.396568,0.206612,94.9 -69.396687,0.20674,94.8 -69.39696,0.207067,94.5 -69.397198,0.20743,94.4 -69.397251,0.207534,94.6 -69.397307,0.207744,94.4 -69.397321,0.20796,94.3 -69.397291,0.208285,94.0 -69.397194,0.208718,93.3 -69.396657,0.210389,93.8 -69.39662,0.210557,93.9 -69.396601,0.21073,93.8 -69.396603,0.210908,93.7 -69.39662,0.211024,93.8 -69.396654,0.211135,93.7 -69.396706,0.211235,93.7 -69.396773,0.211324,93.7 -69.396854,0.211397,93.6 -69.396945,0.211453,93.8 -69.397461,0.211645,94.0 -69.39778,0.211745,94.1 -69.398379,0.211875,94.5 -69.398563,0.211894,94.6 -69.398723,0.211941,94.9 -69.399154,0.212038,94.3 -69.399588,0.212112,94.2 -69.399866,0.212142,93.8 -69.400203,0.212156,93.6 -69.400595,0.212128,93.5 -69.400816,0.212083,92.9 -69.400915,0.212036,92.8 -69.401187,0.211849,92.4 -69.401443,0.211637,92.3 -69.4016,0.21148,92.3 -69.402347,0.210575,91.8 -69.402836,0.210108,91.8 -69.403016,0.209975,91.7 -69.403304,0.2098,92.5 -69.403559,0.209691,92.4 -69.404251,0.209498,92.7 -69.404899,0.209393,91.6 -69.405355,0.209413,92.9 -69.405856,0.209482,93.0 -69.405969,0.209508,92.7 -69.406239,0.209589,92.5 -69.406664,0.209743,92.7 -69.406716,0.209738,91.7 -69.406876,0.209822,91.4 -69.407717,0.210137,92.3 -69.407983,0.210219,92.6 -69.408257,0.210277,92.5 -69.408754,0.210359,93.1 -69.409086,0.210398,93.0 -69.409468,0.210419,94.3 -69.409704,0.210408,93.2 -69.409759,0.210395,93.9 -69.409923,0.210397,94.3 -69.410428,0.210429,94.2 -69.41082,0.210478,94.0 -69.41125,0.210574,94.4 -69.411723,0.210719,94.6 -69.412358,0.21094,94.6 -69.412692,0.211024,94.3 -69.412806,0.211044,94.5 -69.41292,0.211042,94.1 -69.413197,0.210976,93.8 -69.413298,0.210924,93.6 -69.41344,0.210818,92.6 -69.413561,0.210693,93.0 -69.413664,0.210557,92.8 -69.413689,0.210508,93.0 -69.413719,0.210403,93.1 -69.413726,0.209969,92.8 -69.413693,0.209585,93.2 -69.413703,0.20972,93.2 -69.413666,0.209364,93.3 -69.413508,0.208479,93.9 -69.413459,0.208028,93.8 -69.413446,0.207457,93.5 -69.413467,0.20723,93.7 -69.413589,0.20667,94.1 -69.413639,0.206503,93.8 -69.4137,0.206344,93.1 -69.413804,0.206138,92.4 -69.41394,0.205962,92.7 -69.414121,0.205807,92.5 -69.414308,0.205663,92.8 -69.414408,0.205601,93.2 -69.414518,0.205551,93.6 -69.41469,0.205494,93.9 -69.414805,0.205478,94.1 -69.414857,0.205486,93.8 -69.415022,0.205527,94.0 -69.41507,0.205557,93.9 -69.415189,0.205665,94.1 -69.415252,0.205752,93.7 -69.415525,0.206175,94.0 -69.415876,0.206769,94.9 -69.416419,0.207618,95.1 -69.416592,0.207863,95.0 -69.416768,0.208144,94.8 -69.416868,0.208269,94.0 -69.417087,0.208602,94.2 -69.417209,0.208854,94.0 -69.417271,0.209012,94.3 -69.417546,0.209924,94.1 -69.417625,0.210368,94.5 -69.417885,0.211519,95.1 -69.417964,0.211724,94.8 -69.418043,0.211872,94.6 -69.418163,0.212062,95.1 -69.418272,0.212188,94.5 -69.418397,0.212299,94.1 -69.418577,0.212435,93.9 -69.418997,0.212721,93.3 -69.419673,0.213028,93.4 -69.420056,0.213162,92.9 -69.420213,0.21323,92.8 -69.420415,0.213344,93.2 -69.420703,0.21354,94.3 -69.420913,0.213727,94.5 -69.421011,0.213862,94.6 -69.421139,0.214105,94.7 -69.42128,0.214525,94.9 -69.421386,0.21496,94.9 -69.421579,0.215961,94.9 -69.421624,0.216128,94.9 -69.421696,0.216285,94.6 -69.42179,0.21643,94.2 -69.421863,0.216522,94.5 -69.422062,0.216729,94.5 -69.422192,0.216842,94.3 -69.422339,0.216928,94.2 -69.42245,0.216957,94.1 -69.422779,0.217002,95.3 -69.422945,0.216994,95.3 -69.423618,0.216744,95.6 -69.424052,0.216632,95.2 -69.424382,0.21658,94.0 -69.424602,0.21658,93.5 -69.4251,0.216663,93.4 -69.425433,0.216751,93.3 -69.425759,0.216874,93.3 -69.425867,0.216926,93.9 -69.426017,0.217019,93.9 -69.426284,0.217224,93.9 -69.426598,0.217534,93.0 -69.426903,0.217869,93.3 -69.427266,0.2183,93.9 -69.427466,0.218496,93.9 -69.427724,0.21872,94.6 -69.427861,0.21882,94.9 -69.428004,0.218907,94.9 -69.428716,0.219224,95.0 -69.428935,0.219278,95.1 -69.429155,0.219306,94.9 -69.429438,0.219318,95.1 -69.429608,0.219296,94.7 -69.429772,0.219242,94.2 -69.429875,0.219191,94.3 -69.429971,0.219121,94.2 -69.43009,0.21899,94.3 -69.430147,0.218893,94.4 -69.430187,0.21879,94.3 -69.43021,0.218678,94.4 -69.43021,0.218572,94.6 -69.430183,0.218406,94.5 -69.430116,0.218137,94.3 -69.429977,0.217707,94.8 -69.429791,0.217227,94.8 -69.429705,0.216956,94.0 -69.429531,0.216469,94.3 -69.429456,0.216191,94.2 -69.429385,0.215796,94.3 -69.429389,0.215623,94.3 -69.429435,0.215397,94.1 -69.429532,0.215189,93.5 -69.429601,0.215092,93.9 -69.429725,0.214967,93.9 -69.429771,0.214933,94.1 -69.429871,0.214888,94.0 -69.429975,0.214858,93.8 -69.430081,0.214845,94.1 -69.43024,0.214862,94.0 -69.430448,0.214928,93.9 -69.430796,0.215096,93.9 -69.431377,0.215435,94.3 -69.432178,0.215856,94.9 -69.432442,0.215964,94.7 -69.432609,0.216012,94.2 -69.432839,0.216044,94.3 -69.433015,0.21605,94.5 -69.433129,0.216037,94.3 -69.433296,0.215996,93.9 -69.433455,0.215934,94.2 -69.433555,0.215878,94.5 -69.433695,0.215771,94.6 -69.433848,0.215598,94.6 -69.433937,0.215449,94.5 -69.434091,0.215138,94.6 -69.434133,0.215032,94.3 -69.434194,0.214818,93.9 -69.434216,0.214595,94.1 -69.434157,0.214149,93.9 -69.434086,0.21335,95.2 -69.433865,0.212269,94.7 -69.433848,0.212093,94.9 -69.433847,0.2118,95.1 -69.433866,0.211625,95.1 -69.433914,0.211455,95.0 -69.433985,0.211294,95.0 -69.434078,0.211147,94.6 -69.434191,0.211017,94.3 -69.434278,0.21094,94.1 -69.434419,0.210842,94.3 -69.434571,0.210757,94.2 -69.434782,0.21066,93.9 -69.435113,0.210562,93.8 -69.435339,0.210528,93.9 -69.435512,0.210521,93.7 -69.43573,0.210533,94.2 -69.435907,0.210559,94.1 -69.436131,0.210615,94.4 -69.436409,0.210701,94.3 -69.436621,0.210796,94.3 -69.436717,0.210859,94.3 -69.436803,0.210942,95.0 -69.436874,0.211038,95.4 -69.436926,0.211142,95.8 -69.436985,0.211304,95.9 -69.437016,0.211469,96.0 -69.437019,0.21158,95.6 -69.436989,0.212089,95.8 -69.436911,0.212535,95.5 -69.436797,0.212913,94.9 -69.436633,0.213626,95.2 -69.436611,0.213796,95.1 -69.436617,0.214137,94.9 -69.436644,0.214309,95.3 -69.436682,0.214417,95.5 -69.436767,0.214571,95.4 -69.436999,0.214841,95.3 -69.437132,0.21496,95.2 -69.437231,0.215015,94.9 -69.437492,0.21508,94.9 -69.4376,0.215079,94.8 -69.437762,0.215047,94.7 -69.437862,0.215006,94.4 -69.438356,0.214744,93.8 -69.438812,0.214523,94.0 -69.439086,0.214415,94.1 -69.439315,0.214349,93.9 -69.439493,0.214326,93.7 -69.43972,0.21433,93.9 -69.440432,0.214503,94.4 -69.44088,0.214571,94.5 -69.441168,0.214575,94.9 -69.441621,0.214516,94.6 -69.441957,0.214428,95.1 -69.442165,0.214327,95.0 -69.442355,0.214191,94.6 -69.442695,0.213879,95.0 -69.442925,0.213618,95.2 -69.443222,0.213148,95.1 -69.443576,0.212381,94.7 -69.44388,0.211834,94.9 -69.444102,0.211486,95.4 -69.444541,0.210846,95.3 -69.444591,0.210743,95.0 -69.444652,0.210576,95.5 -69.444705,0.210344,95.4 -69.444734,0.210165,95.3 -69.44474,0.210043,95.5 -69.444735,0.209925,95.7 -69.444694,0.209759,95.4 -69.444542,0.209459,95.2 -69.444171,0.208831,95.1 -69.443988,0.208477,94.9 -69.443912,0.208322,95.1 -69.443753,0.207885,95.7 -69.443699,0.207599,96.2 -69.443681,0.207136,96.5 -69.443685,0.207021,96.4 -69.443716,0.206852,96.2 -69.443756,0.206749,96.1 -69.443813,0.206655,95.7 -69.443885,0.206572,95.5 -69.443969,0.206499,95.5 -69.444294,0.206278,95.7 -69.444393,0.206223,95.4 -69.444554,0.20616,95.1 -69.444884,0.206052,95.3 -69.445058,0.206009,95.3 -69.445585,0.205923,95.0 -69.445703,0.205913,95.4 -69.445933,0.205924,94.8 -69.446155,0.205956,94.5 -69.446318,0.206,94.8 -69.446479,0.206059,95.2 -69.44663,0.206131,95.4 -69.446774,0.206221,95.5 -69.44686,0.206291,95.2 -69.446973,0.206419,94.9 -69.447067,0.206564,95.5 -69.447117,0.206669,95.8 -69.447169,0.206836,95.9 -69.447245,0.207248,95.5 -69.447259,0.207366,95.3 -69.447255,0.207542,95.3 -69.44721,0.207767,94.8 -69.44712,0.208038,95.0 -69.447012,0.208301,94.9 -69.446843,0.208659,94.6 -69.44677,0.208876,94.6 -69.446748,0.208988,94.6 -69.446738,0.209101,94.3 -69.446751,0.209274,94.2 -69.446789,0.209502,94.2 -69.446825,0.209615,94.6 -69.446875,0.209715,94.2 -69.446943,0.209811,94.5 -69.447106,0.209976,94.7 -69.447335,0.210153,94.4 -69.447479,0.210243,94.3 -69.447637,0.210314,94.3 -69.447801,0.210361,94.9 -69.447971,0.210384,95.2 -69.448083,0.210381,95.3 -69.448193,0.210365,95.6 -69.448463,0.21029,95.4 -69.44884,0.210169,95.1 -69.448999,0.210107,94.9 -69.449784,0.209735,93.3 -69.450336,0.20951,93.3 -69.450492,0.209428,93.3 -69.450687,0.209298,93.5 -69.450852,0.209134,93.5 -69.450991,0.208948,93.6 -69.45117,0.208647,93.9 -69.451557,0.207915,94.3 -69.45162,0.207814,94.5 -69.451802,0.207575,94.2 -69.451883,0.207487,94.2 -69.452022,0.207375,94.1 -69.452172,0.207283,94.0 -69.452328,0.207213,94.1 -69.452437,0.207182,94.0 -69.452609,0.207166,93.9 -69.452779,0.207191,93.7 -69.453003,0.207269,93.9 -69.45322,0.207375,94.0 -69.45332,0.207445,93.8 -69.453403,0.207535,93.8 -69.45347,0.207641,94.1 -69.453532,0.207812,94.4 -69.453537,0.207982,94.3 -69.453523,0.208094,94.3 -69.453491,0.208201,94.4 -69.453448,0.208303,94.2 -69.453392,0.208399,94.3 -69.453043,0.208911,94.0 -69.452819,0.209323,94.3 -69.452674,0.209643,94.7 -69.452617,0.209815,95.1 -69.452567,0.21005,95.0 -69.452545,0.210283,95.1 -69.452562,0.210457,94.9 -69.452622,0.210746,94.1 -69.452676,0.210917,94.3 -69.452722,0.211026,94.4 -69.452813,0.211179,94.8 -69.452981,0.21142,95.1 -69.453098,0.211549,95.2 -69.453233,0.211657,95.5 -69.453282,0.211687,95.6 -69.453387,0.211727,95.0 -69.453496,0.211751,95.2 -69.45366,0.211746,94.7 -69.453821,0.211702,95.0 -69.454031,0.211614,94.7 -69.454178,0.211515,94.9 -69.454299,0.211386,94.7 -69.454362,0.211289,94.9 -69.454454,0.211082,94.6 -69.454541,0.210811,94.4 -69.454667,0.210314,94.0 -69.454799,0.209933,94.0 -69.454876,0.209781,93.8 -69.454984,0.209644,94.1 -69.455121,0.209541,93.8 -69.455274,0.209458,93.8 -69.455485,0.209369,93.6 -69.455648,0.209317,93.7 -69.455761,0.209299,93.5 -69.455875,0.209302,93.3 -69.455988,0.209322,93.3 -69.45615,0.209376,93.3 -69.456361,0.209475,93.3 -69.456507,0.209573,93.4 -69.456724,0.209779,94.1 -69.456847,0.209911,94.3 -69.45692,0.210004,94.6 -69.457009,0.210157,94.9 -69.457058,0.210267,95.1 -69.457094,0.210381,95.5 -69.457129,0.210552,95.5 -69.457159,0.210909,95.8 -69.457199,0.211669,94.3 -69.457186,0.211902,94.2 -69.457133,0.212363,94.2 -69.457026,0.213009,94.0 -69.456908,0.213331,93.6 -69.456514,0.214164,93.5 -69.456444,0.214391,94.1 -69.456376,0.214682,94.4 -69.456357,0.214859,94.2 -69.456358,0.215105,94.2 -69.456375,0.215288,94.2 -69.456428,0.215459,94.5 -69.456514,0.215604,94.2 -69.456586,0.215686,94.3 -69.456751,0.215834,94.5 -69.457373,0.216309,94.2 -69.457651,0.216509,93.7 -69.458021,0.216801,93.7 -69.458211,0.216936,93.8 -69.458378,0.217086,93.2 -69.458528,0.217252,93.3 -69.458669,0.21743,94.0 -69.458827,0.217669,94.5 -69.458913,0.217818,95.0 -69.459196,0.218379,95.0 -69.459419,0.218771,95.6 -69.459513,0.218911,95.1 -69.459696,0.219124,94.4 -69.459898,0.219325,94.1 -69.460147,0.219547,94.1 -69.460415,0.219747,93.9 -69.460557,0.219835,93.9 -69.46066,0.219884,93.9 -69.461466,0.220193,93.5 -69.461852,0.220325,93.6 -69.462423,0.22048,94.0 -69.462752,0.22054,94.1 -69.462974,0.220597,93.8 -69.463301,0.220652,94.6 -69.463524,0.220677,95.1 -69.4638,0.22069,95.1 -69.464471,0.220675,94.0 -69.464693,0.220657,94.0 -69.46497,0.220614,93.5 -69.465818,0.22052,93.8 -69.466488,0.220385,94.4 -69.467735,0.220307,93.8 -69.468682,0.220378,93.9 -69.469678,0.220405,92.5 -69.470077,0.220385,93.1 -69.470583,0.220325,93.9 -69.47109,0.220281,94.4 -69.471816,0.220153,95.0 -69.472786,0.22004,94.2 -69.473017,0.219997,94.3 -69.474132,0.219834,95.5 -69.47431,0.2198,95.7 -69.474919,0.219589,95.1 -69.475123,0.219486,94.8 -69.475252,0.219376,94.2 -69.475325,0.219287,94.3 -69.475384,0.219188,94.0 -69.475421,0.21908,93.7 -69.475443,0.218967,93.8 -69.475445,0.218799,93.6 -69.47543,0.218686,93.6 -69.475373,0.218468,93.6 -69.475312,0.218314,94.1 -69.475208,0.218116,94.4 -69.474992,0.217851,94.6 -69.474742,0.217624,93.9 -69.474373,0.217268,93.7 -69.474133,0.21702,94.5 -69.473917,0.216835,95.1 -69.473427,0.216446,95.4 -69.473194,0.216286,94.2 -69.472783,0.215971,94.5 -69.472409,0.215709,94.7 -69.471185,0.2147,95.0 -69.470815,0.214327,94.5 -69.470677,0.214139,94.6 -69.470584,0.213988,94.6 -69.470479,0.213772,95.5 -69.470393,0.213552,95.6 -69.470371,0.213438,95.8 -69.470367,0.213321,95.5 -69.4704,0.213153,94.9 -69.470444,0.213046,94.6 -69.470549,0.212899,93.9 -69.47063,0.212817,94.3 -69.470674,0.212785,94.1 -69.470777,0.212742,94.0 -69.470937,0.212716,94.2 -69.471043,0.212735,94.2 -69.47177,0.213021,94.5 -69.472089,0.213134,94.3 -69.472257,0.213181,94.4 -69.472479,0.213219,94.2 -69.47333,0.213227,93.4 -69.473613,0.213196,93.1 -69.473776,0.213156,93.0 -69.47399,0.213083,93.2 -69.474387,0.212875,93.3 -69.474627,0.212726,93.0 -69.475121,0.212302,93.0 -69.475244,0.212173,93.2 -69.475347,0.212031,92.7 -69.475526,0.211668,92.7 -69.475591,0.211505,92.6 -69.475641,0.211334,92.7 -69.475691,0.210981,93.0 -69.475693,0.210689,93.0 -69.475678,0.210573,93.0 -69.475651,0.21046,93.1 -69.475612,0.210349,93.2 -69.475563,0.210246,93.4 -69.475445,0.210057,94.3 -69.475346,0.209919,94.7 -69.475238,0.209791,94.5 -69.47481,0.209342,95.2 -69.474365,0.208902,94.5 -69.474187,0.208679,94.7 -69.474094,0.208535,94.7 -69.474046,0.20843,94.6 -69.474007,0.208263,94.6 -69.474001,0.208149,94.5 -69.474009,0.208033,94.5 -69.474038,0.207866,93.9 -69.474115,0.207582,93.6 -69.474174,0.207415,93.7 -69.474329,0.207099,93.7 -69.474517,0.2068,93.9 -69.47474,0.206548,94.1 -69.474955,0.206352,93.8 -69.475132,0.206206,93.9 -69.475452,0.205982,94.6 -69.47579,0.20578,94.6 -69.475881,0.205708,94.6 -69.476051,0.205548,95.1 -69.476473,0.205085,95.0 -69.47656,0.205018,94.8 -69.476947,0.204798,94.3 -69.477485,0.204593,94.2 -69.477774,0.204523,94.7 -69.477892,0.20451,95.0 -69.478186,0.204514,95.1 -69.478364,0.204528,94.4 -69.47848,0.204552,93.8 -69.478651,0.204615,93.6 -69.478757,0.204673,93.4 -69.478891,0.204781,93.6 -69.478954,0.204871,93.5 -69.478977,0.204922,93.8 -69.479003,0.205028,93.7 -69.479003,0.205251,93.8 -69.478944,0.205583,93.6 -69.478863,0.206141,92.8 -69.478806,0.206421,92.9 -69.478687,0.206742,92.4 -69.478616,0.207011,93.4 -69.478601,0.207233,93.3 -69.478604,0.207398,93.5 -69.478642,0.207618,93.3 -69.478671,0.207724,93.2 -69.478713,0.207826,93.3 -69.478773,0.20792,93.3 -69.478809,0.207961,93.3 -69.478897,0.208029,93.0 -69.479047,0.208107,92.9 -69.479311,0.208224,93.5 -69.479479,0.208254,93.1 -69.479652,0.208233,93.8 -69.479762,0.208198,94.0 -69.479901,0.208116,93.4 -69.479977,0.208041,93.4 -69.480038,0.207953,93.5 -69.480092,0.207804,93.4 -69.480138,0.207418,93.4 -69.480198,0.207085,94.1 -69.48027,0.206818,93.6 -69.480399,0.206458,93.8 -69.480498,0.20625,93.7 -69.480583,0.206107,93.7 -69.480757,0.205884,93.9 -69.48088,0.205765,93.8 -69.481012,0.205664,93.7 -69.481165,0.205576,93.7 -69.481379,0.205476,93.8 -69.481592,0.205395,93.6 -69.481701,0.205368,93.5 -69.481811,0.205361,93.2 -69.481975,0.205382,93.1 -69.48208,0.205421,92.8 -69.482224,0.205507,92.9 -69.482491,0.20572,93.5 -69.483003,0.206088,93.8 -69.483361,0.206446,93.1 -69.483673,0.206689,93.0 -69.484035,0.207042,92.0 -69.484125,0.207109,92.5 -69.484382,0.207225,92.6 -69.484778,0.207453,92.9 -69.485106,0.207575,92.5 -69.485161,0.207589,92.6 -69.485277,0.207598,92.7 -69.485561,0.207566,92.9 -69.485616,0.20755,92.8 -69.485767,0.207471,92.8 -69.485898,0.207363,93.1 -69.486023,0.207242,93.5 -69.486082,0.207143,93.8 -69.486171,0.206933,94.1 -69.486399,0.206479,94.4 -69.486473,0.206266,94.5 -69.486501,0.206098,94.3 -69.486536,0.205579,94.3 -69.486496,0.205295,94.8 -69.486461,0.205186,94.9 -69.486413,0.205086,94.7 -69.486188,0.204699,95.4 -69.486062,0.20446,95.2 -69.485951,0.2042,94.7 -69.485919,0.20409,94.6 -69.485896,0.203921,94.8 -69.485895,0.203749,94.9 -69.485913,0.203637,95.3 -69.485977,0.203477,95.1 -69.486075,0.203331,94.7 -69.486202,0.203214,94.3 -69.4863,0.203157,94.1 -69.486406,0.203128,94.1 -69.48646,0.203125,93.7 -69.48662,0.203148,93.3 -69.486719,0.203193,93.3 -69.486804,0.203264,93.5 -69.486867,0.203354,93.4 -69.487002,0.203604,93.6 -69.487306,0.204026,93.7 -69.487464,0.204271,94.0 -69.487607,0.204451,94.2 -69.487686,0.204534,94.3 -69.487771,0.204606,94.0 -69.487867,0.204667,94.2 -69.487969,0.204717,94.4 -69.488128,0.204769,94.1 -69.488737,0.20486,93.4 -69.488963,0.204868,93.7 -69.489361,0.20484,93.7 -69.489917,0.204726,92.2 -69.490428,0.20464,92.5 -69.4906,0.204625,92.2 -69.490774,0.204625,92.3 -69.491005,0.204645,92.2 -69.491288,0.204707,92.1 -69.491507,0.204781,92.5 -69.491611,0.204828,92.7 -69.491804,0.204944,92.5 -69.491979,0.205098,92.2 -69.492128,0.205278,92.6 -69.49225,0.205467,93.2 -69.492301,0.205574,93.7 -69.492482,0.206116,93.8 -69.492643,0.206774,93.6 -69.492721,0.20705,94.2 -69.492811,0.207321,94.5 -69.492906,0.207529,94.5 -69.493184,0.208033,94.9 -69.493302,0.208229,94.4 -69.493398,0.208368,94.2 -69.49347,0.208453,93.9 -69.493751,0.208726,93.3 -69.494173,0.209272,94.6 -69.494411,0.20953,94.4 -69.49459,0.209761,94.1 -69.494709,0.20996,94.5 -69.494812,0.210232,94.4 -69.494852,0.2104,94.5 -69.49486,0.210567,94.2 -69.494839,0.210789,94.0 -69.494746,0.211291,93.6 -69.494651,0.211674,92.8 -69.494602,0.211973,93.6 -69.494573,0.212217,93.3 -69.494558,0.212615,94.0 -69.494598,0.212843,93.5 -69.49465,0.213005,93.9 -69.494716,0.213165,93.8 -69.494824,0.213373,94.2 -69.49497,0.213624,94.3 -69.49511,0.213795,93.8 -69.495267,0.213946,94.4 -69.495451,0.214076,93.9 -69.495857,0.214285,93.4 -69.49643,0.214537,93.4 -69.496573,0.214624,93.5 -69.497297,0.214957,93.9 -69.49749,0.215073,94.2 -69.498032,0.215464,93.7 -69.498593,0.215932,93.3 -69.498886,0.216218,93.2 -69.499149,0.21644,92.9 -69.499337,0.216544,93.4 -69.499448,0.216579,93.4 -69.499616,0.216596,93.3 -69.499674,0.216587,93.8 -69.499917,0.216598,93.9 -69.500205,0.216576,93.1 -69.500374,0.216538,93.4 -69.500482,0.216493,93.7 -69.500627,0.216399,94.5 -69.500714,0.216319,94.6 -69.500824,0.216184,94.6 -69.500917,0.216029,94.9 -69.500964,0.215926,95.1 -69.501013,0.215764,95.4 -69.501039,0.215653,96.1 -69.501037,0.215594,95.9 -69.501052,0.215478,96.1 -69.501104,0.215191,96.4 -69.501134,0.21486,96.8 -69.501174,0.214586,96.9 -69.501326,0.214082,96.3 -69.501448,0.213809,97.3 -69.50169,0.213504,97.7 -69.501774,0.21343,97.3 -69.502035,0.213153,97.7 -69.502427,0.212783,98.4 -69.502714,0.212574,99.3 -69.502871,0.212483,99.8 -69.503028,0.212413,99.0 -69.503186,0.212364,98.5 -69.50349,0.212305,98.0 -69.503811,0.212212,97.8 -69.504309,0.212027,98.3 -69.50446,0.211952,98.2 -69.504616,0.211916,97.5 -69.504652,0.211923,97.2 -69.504682,0.211898,96.7 -69.504778,0.211848,96.2 -69.505393,0.211557,95.1 -69.50594,0.211269,94.7 -69.506454,0.211036,94.7 -69.506952,0.210786,95.1 -69.507636,0.210374,95.7 -69.50776,0.21029,94.6 -69.507823,0.210263,94.9 -69.507967,0.210177,95.0 -69.508254,0.20998,95.2 -69.508406,0.20989,95.0 -69.508626,0.209791,94.9 -69.508743,0.209748,94.7 -69.50885,0.209724,95.0 -69.508968,0.209715,95.0 -69.509089,0.209726,95.5 -69.509199,0.209747,95.5 -69.509354,0.209813,95.1 -69.509496,0.209907,95.1 -69.509629,0.210031,94.8 -69.509667,0.21008,94.7 -69.509671,0.210134,95.1 -69.509792,0.210331,94.5 -69.509918,0.2106,94.5 -69.509974,0.21077,94.6 -69.510018,0.210942,94.6 -69.510043,0.211121,94.4 -69.510055,0.2113,94.3 -69.510056,0.21136,94.4 -69.510043,0.211238,94.4 -69.510052,0.211482,94.3 -69.510027,0.211725,94.5 -69.509978,0.211964,94.3 -69.509945,0.212079,94.3 -69.5099,0.212185,94.3 -69.509843,0.212284,93.8 -69.509674,0.212511,93.6 -69.50904,0.213207,94.1 -69.508695,0.213496,94.9 -69.508453,0.213737,94.4 -69.508355,0.213878,94.3 -69.508271,0.214028,94.5 -69.508189,0.214241,94.0 -69.508154,0.214303,94.1 -69.508157,0.21436,93.7 -69.508132,0.214471,93.7 -69.508118,0.2147,92.9 -69.508146,0.214738,92.5 -69.508176,0.21481,92.7 -69.508182,0.214866,92.6 -69.508242,0.215009,92.4 -69.508311,0.215101,93.2 -69.508536,0.215265,94.3 -69.508635,0.215317,94.5 -69.508777,0.215414,95.1 -69.509171,0.215643,96.2 -69.509223,0.215656,95.8 -69.509257,0.215701,96.0 -69.509311,0.215736,96.3 -69.509651,0.215892,96.7 -69.510274,0.216245,95.8 -69.510591,0.216505,95.6 -69.510708,0.216633,95.5 -69.510845,0.21681,95.8 -69.51094,0.216948,95.7 -69.511021,0.217095,95.6 -69.511125,0.217354,96.0 -69.511171,0.217514,96.0 -69.511276,0.218178,95.3 -69.511472,0.219188,94.2 -69.511556,0.219526,94.5 -69.511646,0.219801,94.4 -69.511746,0.220068,94.0 -69.511839,0.220276,94.0 -69.511928,0.220424,94.1 -69.512032,0.220562,94.0 -69.512234,0.22077,94.2 -69.512373,0.220875,94.7 -69.512472,0.220939,94.8 -69.512638,0.221003,95.6 -69.512751,0.221013,95.0 -69.512868,0.220997,95.4 -69.513027,0.22093,95.0 -69.513172,0.220836,95.2 -69.513257,0.220761,94.9 -69.513365,0.220631,95.0 -69.513447,0.220482,94.5 -69.51354,0.220272,94.2 -69.513703,0.219842,93.7 -69.513797,0.219631,94.2 -69.513874,0.219409,94.1 -69.514084,0.218456,93.9 -69.514211,0.218002,93.2 -69.514263,0.217445,93.7 -69.514271,0.21693,93.7 -69.514286,0.216644,94.1 -69.514236,0.215902,94.3 -69.51425,0.215555,95.0 -69.514291,0.215387,95.1 -69.514383,0.215174,94.8 -69.514508,0.214973,94.8 -69.514728,0.2147,95.5 -69.514896,0.214545,95.5 -69.514988,0.214476,95.7 -69.515085,0.214417,96.0 -69.515292,0.214313,95.7 -69.515402,0.214272,95.5 -69.515572,0.214242,95.4 -69.515748,0.214247,95.5 -69.515864,0.21427,95.4 -69.516032,0.214333,95.3 -69.516193,0.214423,95.2 -69.516346,0.214528,95.2 -69.516429,0.214611,95.1 -69.516514,0.214756,94.9 -69.51654,0.214865,94.9 -69.516547,0.214974,95.0 -69.516568,0.215044,96.2 -69.516535,0.215097,95.4 -69.516537,0.215137,95.4 -69.516481,0.2153,95.5 -69.516378,0.215512,95.1 -69.516243,0.215824,94.8 -69.516147,0.216204,94.4 -69.516043,0.216947,93.1 -69.516041,0.21712,93.7 -69.516091,0.217517,93.8 -69.516157,0.217735,93.6 -69.516202,0.217842,93.5 -69.516284,0.217996,93.5 -69.51635,0.218088,93.8 -69.516474,0.218201,94.0 -69.51694,0.218451,94.8 -69.517368,0.218634,95.7 -69.517593,0.218698,96.1 -69.517832,0.218717,96.7 -69.517941,0.218705,95.7 -69.518054,0.218672,95.5 -69.518217,0.218611,95.3 -69.518474,0.218489,95.1 -69.518766,0.218316,95.4 -69.519376,0.217825,94.4 -69.519514,0.217727,94.3 -69.520364,0.217257,94.5 -69.520578,0.21717,95.1 -69.520906,0.217055,95.6 -69.521358,0.216935,96.3 -69.521578,0.216859,96.2 -69.52179,0.216762,95.7 -69.521886,0.216702,95.4 -69.522021,0.216594,95.4 -69.522104,0.216506,95.9 -69.522205,0.216374,95.0 -69.522531,0.215848,94.3 -69.522719,0.215503,93.7 -69.522981,0.215063,93.7 -69.523119,0.214877,93.8 -69.523356,0.21463,94.3 -69.523445,0.214557,94.4 -69.523541,0.214496,94.4 -69.523699,0.214427,94.6 -69.523862,0.214381,94.9 -69.524083,0.214336,94.8 -69.524251,0.214318,95.0 -69.524363,0.214321,95.1 -69.524528,0.214349,95.2 -69.524635,0.214376,95.2 -69.524793,0.214441,95.4 -69.524968,0.214531,95.4 -69.525085,0.214603,95.4 -69.525499,0.21492,95.3 -69.526083,0.215469,95.2 -69.52653,0.21585,94.4 -69.526837,0.216075,94.3 -69.527056,0.216205,94.9 -69.527343,0.216344,94.9 -69.527522,0.216415,94.8 -69.527707,0.216475,95.0 -69.528217,0.216604,95.1 -69.528679,0.216662,96.0 -69.528878,0.216676,96.2 -69.529142,0.216678,96.2 -69.529402,0.216655,96.0 -69.529592,0.216623,95.6 -69.529844,0.216557,95.4 -69.530027,0.216484,95.5 -69.530144,0.216424,95.6 -69.530306,0.216316,95.4 -69.530454,0.21618,95.0 -69.530614,0.215972,94.6 -69.530759,0.215742,94.5 -69.530847,0.215556,94.7 -69.530881,0.215425,94.8 -69.530897,0.215293,95.0 -69.530889,0.215161,94.9 -69.530823,0.214911,95.0 -69.53067,0.214479,96.4 -69.530355,0.21367,95.7 -69.530256,0.213272,96.0 -69.530206,0.212868,96.0 -69.530212,0.212731,95.8 -69.530261,0.212467,95.2 -69.530307,0.212336,95.5 -69.530399,0.212155,95.0 -69.530475,0.212044,94.5 -69.530659,0.211853,94.5 -69.530877,0.211699,94.1 -69.531063,0.211615,94.0 -69.531331,0.211543,93.6 -69.531532,0.211521,94.0 -69.531739,0.211525,94.1 -69.532009,0.211565,94.8 -69.532278,0.211629,94.3 -69.532466,0.211711,94.6 -69.532523,0.211747,94.7 -69.532621,0.211834,95.0 -69.532664,0.211885,95.0 -69.532735,0.211997,95.1 -69.532792,0.21212,95.1 -69.532898,0.21251,94.0 -69.532912,0.212644,94.5 -69.532947,0.212779,94.8 -69.532996,0.213047,94.7 -69.533065,0.213314,95.0 -69.533173,0.213647,94.4 -69.5333,0.213968,94.8 -69.53339,0.214158,95.2 -69.533513,0.214402,94.5 -69.533595,0.214532,94.5 -69.533599,0.214594,94.4 -69.533653,0.214706,94.6 -69.533715,0.214827,95.5 -69.53381,0.214943,95.6 -69.533848,0.215005,95.2 -69.533908,0.215059,95.5 -69.534174,0.2152,96.6 -69.534218,0.215247,97.3 -69.534442,0.215428,97.6 -69.535287,0.215726,99.0 -69.535561,0.215789,100.1 -69.535643,0.215768,100.0 -69.535854,0.215761,100.4 -69.535994,0.215772,100.4 -69.536131,0.215795,100.1 -69.536258,0.215831,100.0 -69.536317,0.215833,100.1 -69.536379,0.215853,100.2 -69.536507,0.215865,99.0 -69.536781,0.215918,99.4 -69.537604,0.215961,98.2 -69.537936,0.216008,98.9 -69.538001,0.215994,98.8 -69.538186,0.216052,99.4 -69.538282,0.216051,99.2 -69.538431,0.216078,99.2 -69.53856,0.216128,99.4 -69.538686,0.216136,98.3 -69.538819,0.216129,97.7 -69.538954,0.216167,98.2 -69.53903,0.216175,98.1 -69.539161,0.216215,97.9 -69.539367,0.216248,98.2 -69.539509,0.216219,96.8 -69.539715,0.21621,97.2 -69.540011,0.216177,98.1 -69.5402,0.216121,98.8 -69.540641,0.215957,100.3 -69.540756,0.215903,100.5 -69.540811,0.215848,100.2 -69.540867,0.215811,99.5 -69.540991,0.215756,99.7 -69.541049,0.215705,99.4 -69.541259,0.215572,99.1 -69.541314,0.215519,99.0 -69.541369,0.215487,99.3 -69.541576,0.215318,99.3 -69.541628,0.215287,99.5 -69.541742,0.215166,100.0 -69.541801,0.215119,99.4 -69.541881,0.215021,96.4 -69.542354,0.214629,95.6 -69.542688,0.214384,95.4 -69.542974,0.214205,95.3 -69.543328,0.214006,95.5 -69.543735,0.213762,95.8 -69.543976,0.213645,96.1 -69.544544,0.213439,96.0 -69.544734,0.213384,95.8 -69.544999,0.213332,96.2 -69.545468,0.213264,96.1 -69.545669,0.21326,96.0 -69.545941,0.213284,96.4 -69.546336,0.213347,95.2 -69.546611,0.213362,96.4 -69.546676,0.213373,95.1 -69.546814,0.213371,96.4 -69.547492,0.2134,97.1 -69.548566,0.213364,96.7 -69.548768,0.213338,97.1 -69.549103,0.213276,96.3 -69.549676,0.213098,97.0 -69.550311,0.21288,97.4 -69.550877,0.212663,98.7 -69.551055,0.212567,98.5 -69.551559,0.212234,98.3 -69.551794,0.212098,98.4 -69.552186,0.211847,97.5 -69.552484,0.21168,98.2 -69.552633,0.211529,97.9 -69.552681,0.211503,97.2 -69.552777,0.211417,99.3 -69.552892,0.211332,98.6 -69.552939,0.211284,99.3 -69.553057,0.211204,99.3 -69.55314,0.211112,98.0 -69.553422,0.21091,99.3 -69.553898,0.21053,101.0 -69.554118,0.21027,101.7 -69.554275,0.210051,101.7 -69.554367,0.209948,102.4 -69.554526,0.209821,102.4 -69.554707,0.209734,102.8 -69.554842,0.209698,102.7 -69.554976,0.20969,101.6 -69.555169,0.209715,101.7 -69.555284,0.209768,102.4 -69.555378,0.209846,101.1 -69.555414,0.209895,100.8 -69.555469,0.210013,101.2 -69.555542,0.210267,101.0 -69.555554,0.210398,100.5 -69.555619,0.210796,102.0 -69.555611,0.210862,101.6 -69.555625,0.210925,101.5 -69.555648,0.211195,101.5 -69.555705,0.211464,100.8 -69.555737,0.211734,100.3 -69.55586,0.212552,101.2 -69.555905,0.213464,101.8 -69.555895,0.213603,102.1 -69.555902,0.213675,102.3 -69.55585,0.214088,102.6 -69.555829,0.21421,102.9 -69.555781,0.214395,104.0 -69.555677,0.214613,104.8 -69.555536,0.214832,104.4 -69.555474,0.214949,105.6 -69.555434,0.214994,105.8 -69.555332,0.215146,104.7 -69.555181,0.21533,104.8 -69.555146,0.215397,105.7 -69.555112,0.215434,105.7 -69.554924,0.215726,106.4 -69.554776,0.215924,105.6 -69.554715,0.216041,106.2 -69.554664,0.216089,106.2 -69.554622,0.216155,106.0 -69.554583,0.216189,106.2 -69.554436,0.216454,106.3 -69.554426,0.216522,106.4 -69.554299,0.216683,106.5 -69.554251,0.216778,106.3 -69.554191,0.216986,105.6 -69.554157,0.217038,105.7 -69.554075,0.217246,105.7 -69.554014,0.217362,105.6 -69.553918,0.217495,106.0 -69.553839,0.217658,105.9 -69.553782,0.217701,105.8 -69.553721,0.217802,105.9 -69.553713,0.217835,105.8 -69.553718,0.217865,106.0 -69.553677,0.217932,105.7 -69.553587,0.218053,105.0 -69.553552,0.218066,103.5 -69.553532,0.218089,103.5 -69.553495,0.218109,102.0 -69.553431,0.218206,101.8 -69.553357,0.218361,100.9 -69.553327,0.218459,101.0 -69.553313,0.218563,99.8 -69.553314,0.218736,100.0 -69.553324,0.218789,100.0 -69.553378,0.218837,102.5 -69.553373,0.218907,100.4 -69.553452,0.219184,98.0 -69.553533,0.21944,97.5 -69.55365,0.21973,97.3 -69.553734,0.219877,97.1 -69.553838,0.22001,97.6 -69.55399,0.22014,98.2 -69.554113,0.220209,97.8 -69.554274,0.220273,97.9 -69.554718,0.220388,98.0 -69.555,0.220442,99.9 -69.555027,0.220467,99.5 -69.555093,0.220482,99.7 -69.555366,0.220461,101.3 -69.555664,0.22038,102.4 -69.555895,0.220335,103.8 -69.556031,0.220296,104.4 -69.556222,0.220187,105.0 -69.556529,0.220114,104.0 -69.557009,0.21994,105.4 -69.557064,0.219926,105.8 -69.557176,0.219945,105.4 -69.557223,0.21992,105.1 -69.557399,0.219891,103.7 -69.557633,0.21983,101.5 -69.557806,0.219803,101.2 -69.558742,0.219532,101.2 -69.55909,0.219412,99.6 -69.560255,0.219093,99.4 -69.560426,0.219058,99.3 -69.560925,0.21893,99.6 -69.561147,0.218866,100.0 -69.561538,0.218734,100.5 -69.562392,0.218527,100.0 -69.562737,0.218419,100.1 -69.563504,0.218269,98.9 -69.563684,0.218255,98.8 -69.563868,0.218257,98.9 -69.564053,0.218273,98.8 -69.56443,0.218328,98.8 -69.56461,0.218378,98.9 -69.564718,0.218428,98.4 -69.564813,0.218494,98.1 -69.564897,0.218574,97.9 -69.565005,0.218713,97.8 -69.56529,0.219138,98.8 -69.565372,0.219294,98.9 -69.565603,0.219617,100.0 -69.565683,0.219712,100.5 -69.565962,0.220175,98.9 -69.566035,0.220271,99.6 -69.566159,0.220406,99.3 -69.56638,0.220592,98.3 -69.566674,0.22087,98.1 -69.566725,0.220901,98.0 -69.566897,0.221048,98.7 -69.567184,0.221241,98.9 -69.567982,0.221684,99.7 -69.568193,0.221775,98.7 -69.568445,0.221822,99.2 -69.568573,0.221868,100.0 -69.568674,0.221954,100.1 -69.568777,0.222009,100.6 -69.569005,0.222154,102.0 -69.569039,0.222196,102.1 -69.569093,0.222215,101.7 -69.569252,0.222313,102.1 -69.569642,0.222574,103.8 -69.570161,0.222868,100.5 -69.5704,0.223052,99.6 -69.570609,0.223265,99.3 -69.570844,0.223557,100.1 -69.571056,0.223857,100.0 -69.571142,0.224015,100.0 -69.57129,0.224404,100.1 -69.571283,0.224464,100.1 -69.571325,0.224634,100.9 -69.571341,0.224793,100.9 -69.571383,0.224854,100.9 -69.571491,0.225332,101.5 -69.571566,0.225578,102.2 -69.571567,0.225621,102.1 -69.571604,0.225773,100.2 -69.571748,0.226234,98.6 -69.571804,0.226456,98.4 -69.571862,0.226749,98.6 -69.571918,0.226946,99.3 -69.571968,0.227066,98.8 -69.572027,0.227292,99.7 -69.572135,0.227566,100.2 -69.572203,0.227642,101.3 -69.572228,0.22779,100.5 -69.572256,0.227821,100.6 -69.572265,0.227885,100.8 -69.572419,0.228209,100.8 -69.572503,0.228377,100.8 -69.572685,0.228683,101.2 -69.572695,0.228742,101.4 -69.572745,0.228795,101.5 -69.572994,0.229191,102.1 -69.573451,0.230037,102.9 -69.573575,0.23023,103.1 -69.573595,0.230279,104.2 -69.57363,0.230318,102.3 -69.573685,0.230411,102.3 -69.573864,0.230771,102.9 -69.57393,0.230875,102.9 -69.574484,0.231314,104.9 -69.574557,0.231327,104.6 -69.574698,0.231328,104.2 -69.574897,0.231307,104.4 -69.575145,0.231235,104.9 -69.575314,0.231125,105.2 -69.575336,0.231085,105.3 -69.575612,0.230851,102.8 -69.575774,0.230684,102.5 -69.575924,0.230502,102.1 -69.576131,0.230214,102.0 -69.576123,0.230259,104.4 -69.576073,0.230313,104.4 -69.576934,0.229252,104.8 -69.577153,0.228946,103.7 -69.577307,0.228767,103.8 -69.577442,0.228581,103.9 -69.577638,0.22829,103.5 -69.577663,0.228227,103.5 -69.577771,0.228086,102.9 -69.577906,0.227815,103.2 -69.577946,0.227772,102.9 -69.578024,0.227623,103.1 -69.578055,0.227588,102.7 -69.578173,0.227362,103.4 -69.578289,0.227197,102.8 -69.578477,0.226893,102.6 -69.578818,0.226286,101.6 -69.579113,0.225804,100.1 -69.579318,0.225388,100.0 -69.579473,0.225023,99.3 -69.579527,0.224813,100.7 -69.579581,0.224684,100.8 -69.579696,0.224489,100.6 -69.579826,0.224226,101.8 -69.580137,0.223707,102.2 -69.580213,0.223541,102.6 -69.580413,0.223256,100.7 -69.580431,0.223209,100.3 -69.580628,0.222907,99.1 -69.580766,0.222669,99.3 -69.580912,0.222486,98.6 -69.580958,0.22245,98.7 -69.581014,0.222348,99.4 -69.581447,0.22174,99.3 -69.581671,0.22147,98.6 -69.58198,0.221121,99.3 -69.582362,0.220755,99.8 -69.582678,0.220498,99.1 -69.582769,0.220407,100.5 -69.582883,0.220357,99.5 -69.582975,0.22029,100.2 -69.583132,0.220218,99.7 -69.583353,0.220133,101.4 -69.58352,0.22008,100.9 -69.583695,0.220064,100.9 -69.583812,0.220066,100.5 -69.584038,0.22011,100.2 -69.584258,0.220184,100.1 -69.584467,0.220277,100.0 -69.584569,0.220334,99.6 -69.58476,0.220481,100.3 -69.584912,0.220651,99.5 -69.585218,0.221072,100.5 -69.585606,0.22165,99.9 -69.586109,0.22252,99.1 -69.586275,0.222843,98.1 -69.586831,0.224077,98.3 -69.586962,0.224411,98.7 -69.587155,0.225134,99.7 -69.587233,0.225353,99.6 -69.587365,0.225606,99.0 -69.587854,0.22636,98.5 -69.58799,0.226531,98.4 -69.588185,0.226727,98.9 -69.588357,0.226867,99.4 -69.588545,0.226991,100.2 -69.58885,0.227166,100.7 -69.589164,0.227327,101.0 -69.589482,0.227471,101.4 -69.589901,0.227629,101.4 -69.590287,0.227751,101.5 -69.590677,0.227838,101.3 -69.591321,0.227915,101.3 -69.591498,0.227907,101.3 -69.591661,0.227886,101.5 -69.591765,0.22786,101.4 -69.591932,0.227792,101.9 -69.592069,0.227701,101.5 -69.592686,0.227103,101.3 -69.592791,0.22697,101.1 -69.593265,0.226262,100.7 -69.593348,0.226113,100.6 -69.593418,0.22596,100.5 -69.593524,0.225632,99.9 -69.593597,0.225352,99.9 -69.593696,0.224896,100.5 -69.593722,0.224832,101.0 -69.593733,0.224725,100.5 -69.593836,0.224154,99.6 -69.593875,0.223738,99.9 -69.593924,0.223446,99.3 -69.594138,0.222591,98.5 -69.594228,0.222139,98.4 -69.594544,0.221045,98.6 -69.594597,0.22077,98.4 -69.594669,0.22049,98.9 -69.5948,0.220054,99.2 -69.594856,0.219772,99.5 -69.59486,0.219603,99.7 -69.594829,0.21938,98.9 -69.594735,0.218847,99.0 -69.594594,0.21823,98.7 -69.594542,0.217885,98.4 -69.594526,0.217709,98.4 -69.594518,0.217353,99.0 -69.594525,0.217055,99.7 -69.594567,0.21676,99.2 -69.594706,0.216252,100.1 -69.594856,0.215869,99.5 -69.595284,0.215049,99.7 -69.595469,0.214745,100.3 -69.595624,0.214429,101.0 -69.595831,0.214116,102.3 -69.595928,0.213919,102.0 -69.596119,0.213627,101.3 -69.59644,0.21306,102.9 -69.596483,0.213007,102.8 -69.596611,0.212796,103.5 -69.596689,0.212638,103.9 -69.596984,0.212202,104.7 -69.597011,0.212146,104.9 -69.59705,0.212098,105.3 -69.597124,0.212045,105.4 -69.597301,0.211814,105.6 -69.597397,0.211662,105.5 -69.597459,0.211531,105.5 -69.597535,0.211441,104.5 -69.597689,0.211185,101.8 -69.597866,0.210959,102.2 -69.597965,0.210807,101.3 -69.598115,0.210546,100.9 -69.598238,0.210271,101.0 -69.598323,0.210042,100.9 -69.598473,0.209718,100.2 -69.59864,0.209404,99.7 -69.598846,0.209047,98.7 -69.598862,0.208984,97.2 -69.598944,0.208839,97.4 -69.599058,0.208565,98.5 -69.599483,0.207844,98.5 -69.59965,0.207471,99.3 -69.599824,0.207178,100.1 -69.600003,0.20696,100.8 -69.600134,0.206844,101.1 -69.600325,0.206715,100.3 -69.600485,0.206639,100.0 -69.600596,0.2066,99.5 -69.600821,0.206544,99.2 -69.600632,0.206602,99.4 -69.600937,0.206524,99.2 -69.601342,0.206451,100.4 -69.601744,0.206362,100.5 -69.601917,0.206351,101.4 -69.602028,0.206364,101.3 -69.602183,0.206418,101.7 -69.602236,0.206446,101.7 -69.602372,0.206552,101.2 -69.602478,0.206684,100.6 -69.602532,0.206785,100.5 -69.602589,0.206945,100.6 -69.60262,0.207116,101.3 -69.602643,0.207405,100.6 -69.60266,0.207934,99.7 -69.602689,0.208352,99.1 -69.602715,0.208587,98.8 -69.602692,0.208526,98.8 -69.602724,0.208706,99.1 -69.602736,0.208946,99.5 -69.602832,0.209705,98.9 -69.60286,0.210055,98.9 -69.602859,0.210637,98.4 -69.602844,0.211107,98.5 -69.602849,0.211404,98.8 -69.602971,0.212282,98.8 -69.602944,0.212216,98.6 -69.603145,0.213217,99.0 -69.603328,0.213907,98.2 -69.603442,0.21442,98.0 -69.603674,0.214966,98.3 -69.603852,0.215267,98.2 -69.604052,0.215547,98.2 -69.604305,0.215933,98.5 -69.604726,0.216637,98.2 -69.605244,0.217358,98.2 -69.605473,0.21764,98.2 -69.60559,0.217776,98.3 -69.605887,0.218081,98.3 -69.606412,0.218662,98.4 -69.606544,0.218853,98.4 -69.606615,0.219013,98.3 -69.606644,0.219126,98.2 -69.606656,0.21924,98.1 -69.606645,0.219414,98.1 -69.606596,0.219582,97.8 -69.606496,0.219799,97.6 -69.606291,0.220165,97.5 -69.605911,0.220901,97.5 -69.605588,0.221463,97.3 -69.605511,0.22162,97.5 -69.605476,0.221728,97.7 -69.605447,0.221899,97.6 -69.60545,0.222074,98.1 -69.60549,0.22236,98.0 -69.605589,0.222817,98.1 -69.60567,0.223042,98.1 -69.605957,0.223697,97.9 -69.60608,0.224028,98.0 -69.606347,0.224879,97.7 -69.606459,0.225291,97.8 -69.606493,0.225469,98.0 -69.606505,0.225649,98.0 -69.606501,0.225892,98.1 -69.606475,0.226132,98.1 -69.606491,0.225942,98.2 -69.606361,0.226654,98.1 -69.606209,0.227114,98.8 -69.606136,0.227281,98.9 -69.605923,0.227706,98.9 -69.605764,0.22796,98.7 -69.60557,0.228188,98.5 -69.604853,0.228921,99.2 -69.604675,0.22908,99.2 -69.604435,0.229249,99.2 -69.604086,0.229465,99.2 -69.603945,0.22958,99.2 -69.60377,0.229754,99.5 -69.603672,0.229909,97.9 -69.603657,0.230017,98.4 -69.603672,0.230123,98.5 -69.603688,0.230173,98.4 -69.603747,0.230265,98.6 -69.603909,0.230413,98.9 -69.604006,0.230469,99.3 -69.604319,0.230616,99.0 -69.605122,0.231049,99.7 -69.605441,0.231255,99.9 -69.605649,0.231403,99.4 -69.605799,0.231524,99.6 -69.605584,0.231361,99.5 -69.606075,0.231786,99.3 -69.606376,0.232115,100.0 -69.6065,0.232265,100.3 -69.606612,0.232423,100.5 -69.606819,0.232748,100.6 -69.606974,0.233022,100.5 -69.607152,0.23328,100.9 -69.60725,0.233441,100.7 -69.607488,0.233885,100.7 -69.607639,0.234258,101.0 -69.607699,0.234457,101.2 -69.60774,0.234637,101.4 -69.607784,0.234737,102.0 -69.607842,0.23482,101.9 -69.607901,0.234871,102.0 -69.608024,0.234954,102.1 -69.608153,0.235013,102.5 -69.608215,0.235032,102.5 -69.608292,0.235033,102.0 -69.608434,0.235,102.3 -69.608886,0.234802,101.8 -69.608972,0.234751,102.0 -69.609046,0.234686,102.1 -69.609207,0.234485,101.9 -69.609472,0.234096,101.3 -69.60965,0.233787,100.2 -69.60972,0.233646,100.3 -69.609727,0.233604,100.6 -69.609753,0.233549,100.5 -69.609829,0.233409,99.6 -69.61012,0.23294,99.5 -69.610267,0.232649,99.5 -69.610554,0.232128,99.0 -69.610763,0.231695,99.0 -69.61112,0.231039,98.8 -69.611285,0.230714,98.5 -69.61136,0.230517,99.0 -69.611271,0.230735,98.6 -69.611545,0.230053,99.3 -69.611807,0.229495,98.9 -69.612106,0.228946,98.3 -69.612238,0.228732,98.5 -69.612518,0.228314,98.7 -69.612937,0.227615,98.5 -69.61353,0.226581,98.3 -69.614061,0.225829,98.0 -69.61415,0.22566,96.0 -69.614203,0.225527,97.0 -69.614245,0.225399,96.0 -69.614272,0.22526,96.0 -69.614257,0.22516,96.0 -69.61421,0.225108,96.0 -69.614184,0.225055,96.0 -69.614163,0.225081,99.0 -69.614172,0.225127,98.0 -69.614169,0.22511,100.0 -69.614089,0.225031,104.0 -69.614084,0.224994,105.0 -69.613983,0.224945,107.0 -69.613916,0.224931,108.0 -69.61386,0.224954,108.0 -69.613735,0.224945,108.0 -69.613586,0.224988,108.0 -69.613561,0.224955,102.0 -69.613557,0.225018,113.0 -69.61355,0.22499,110.0 -69.613594,0.224965,112.0 -69.613622,0.224991,112.0 -69.613577,0.224971,113.6 -69.613557,0.224973,114.0 -69.613467,0.225032,116.0 -69.613385,0.225042,117.0 -69.613239,0.22502,117.0 -69.613128,0.224965,117.0 -69.613082,0.224929,116.0 -69.613061,0.224901,115.0 -69.613013,0.224756,117.0 -69.612963,0.224667,117.0 -69.612869,0.224554,114.0 -69.612656,0.224355,117.0 -69.612637,0.224325,117.0 -69.612621,0.224223,117.0 -69.612629,0.224118,117.0 -69.612659,0.223978,118.0 -69.612651,0.223938,119.0 -69.612617,0.223873,120.0 -69.612579,0.223763,117.0 -69.612573,0.223691,111.0 -69.612545,0.223674,115.0 -69.612533,0.223638,112.0 -69.612496,0.223607,114.0 -69.612491,0.223575,108.0 -69.612502,0.223604,107.0 -69.612552,0.223636,111.4</coordinates>
                </LineString>
            </MultiGeometry>
        </Placemark>
        <Placemark id="13">
            <name>Afloramento </name>
            <description/>
            <styleUrl>#14</styleUrl>
            <Point id="12">
                <coordinates>-69.47452,0.22011,100</coordinates>
            </Point>
        </Placemark>
        <Placemark id="18">
            <name>Cachoeira comprida</name>
            <description/>
            <styleUrl>#19</styleUrl>
            <Point id="17">
                <coordinates>-70.01986,0.26169,0.0</coordinates>
            </Point>
        </Placemark>
        <Placemark id="23">
            <name>São José 2</name>
            <description/>
            <styleUrl>#24</styleUrl>
            <Point id="22">
                <coordinates>-69.61165,0.22474,0.0</coordinates>
            </Point>
        </Placemark>
        <Placemark id="28">
            <name>Virola, socratea </name>
            <description/>
            <styleUrl>#29</styleUrl>
            <Point id="27">
                <coordinates>-69.23898,0.17878,100</coordinates>
            </Point>
        </Placemark>
    </Document>
</kml>
