<?xml version="1.0" encoding="UTF-8"?>
<kml xmlns="http://www.opengis.net/kml/2.2" xmlns:gx="http://www.google.com/kml/ext/2.2">
    <Document id="1">
        <Placemark id="3">
            <Style id="6">
                <LineStyle id="7">
                    <color>ff32BD4A</color>
                    <colorMode>normal</colorMode>
                    <width>1</width>
                </LineStyle>
            </Style>
            <Style id="10">
                <LineStyle id="11">
                    <color>ff32BD4A</color>
                    <colorMode>normal</colorMode>
                    <width>1</width>
                </LineStyle>
            </Style>
            <name>Porto Queiroz até Matapi</name>
            <description/>
            <MultiGeometry id="2">
                <LineString id="4">
                    <extrude>0</extrude>
                    <altitudeMode>clampToGround</altitudeMode>
                    <coordinates>-67.125541,-0.105231,63.9 -67.125692,-0.10511,63.9 -67.125986,-0.104939,64.0 -67.126391,-0.104654,63.1 -67.126589,-0.104532,65.5 -67.126938,-0.104261,66.4 -67.127138,-0.104082,66.8 -67.127669,-0.103528,67.7 -67.128085,-0.10321,67.3 -67.12817,-0.103128,67.5 -67.128488,-0.10287,67.3 -67.128702,-0.102664,67.2 -67.129153,-0.102304,67.0 -67.129411,-0.102037,67.4 -67.129637,-0.101847,67.3 -67.12968,-0.101795,67.6 -67.130257,-0.101267,67.7 -67.130487,-0.101029,68.1 -67.130718,-0.100717,68.2 -67.130806,-0.100618,68.0 -67.131197,-0.100274,67.1 -67.131249,-0.100205,67.5 -67.131345,-0.100133,67.8 -67.131572,-0.099916,67.0 -67.131934,-0.099548,65.7 -67.132351,-0.099157,65.6 -67.132537,-0.098962,65.6 -67.132749,-0.098715,65.5 -67.133118,-0.098151,66.0 -67.133539,-0.097388,66.9 -67.133584,-0.097263,66.7 -67.13371,-0.09703,66.5 -67.133823,-0.096794,66.0 -67.133892,-0.096678,66.3 -67.134377,-0.095667,65.5 -67.134412,-0.0955,65.0 -67.134424,-0.095387,65.7 -67.134415,-0.095276,64.9 -67.134359,-0.095049,63.7 -67.134354,-0.094932,64.8 -67.134373,-0.094704,64.8 -67.134409,-0.094535,65.4 -67.134494,-0.094318,65.2 -67.134628,-0.094122,65.0 -67.134875,-0.09382,64.8 -67.135151,-0.09352,65.4 -67.135364,-0.093195,65.5 -67.135644,-0.092817,66.1 -67.1359,-0.092501,65.6 -67.136536,-0.091573,65.0 -67.136737,-0.091323,64.7 -67.137076,-0.090847,64.9 -67.137319,-0.090554,64.8 -67.137593,-0.09019,64.2 -67.137685,-0.090089,64.0 -67.13784,-0.089947,64.0 -67.138193,-0.089685,63.9 -67.138294,-0.089571,64.0 -67.138421,-0.089391,63.5 -67.138786,-0.088733,64.7 -67.139129,-0.088214,64.7 -67.139379,-0.087764,65.0 -67.139606,-0.087273,65.3 -67.139797,-0.086752,65.8 -67.139893,-0.086449,65.6 -67.140008,-0.086149,66.1 -67.140088,-0.08591,66.1 -67.140208,-0.085619,66.5 -67.140506,-0.084997,65.9 -67.140808,-0.08447,65.5 -67.140962,-0.084146,64.9 -67.141222,-0.083743,64.8 -67.141477,-0.083393,64.6 -67.141702,-0.083104,65.0 -67.141804,-0.08295,65.0 -67.142049,-0.082527,65.2 -67.142292,-0.08203,65.3 -67.142693,-0.081347,66.7 -67.142824,-0.081142,67.0 -67.143301,-0.080498,67.3 -67.143551,-0.080218,67.3 -67.143708,-0.08002,67.5 -67.143817,-0.079862,67.9 -67.143997,-0.079505,68.3 -67.144071,-0.079311,67.7 -67.144138,-0.079107,67.3 -67.144284,-0.07853,66.8 -67.144472,-0.077956,66.6 -67.144671,-0.077302,66.2 -67.144908,-0.076747,65.9 -67.145045,-0.076477,66.1 -67.145383,-0.075889,66.0 -67.14558,-0.075567,66.0 -67.145884,-0.075144,65.8 -67.146163,-0.074798,66.0 -67.146521,-0.07432,65.6 -67.146805,-0.07388,65.7 -67.14697,-0.073582,65.5 -67.147149,-0.073211,65.5 -67.147303,-0.072818,65.6 -67.147519,-0.072113,65.9 -67.147669,-0.071555,66.1 -67.147838,-0.071046,66.7 -67.147891,-0.070919,67.1 -67.147984,-0.070737,66.8 -67.148291,-0.070192,66.2 -67.148563,-0.069639,66.0 -67.148886,-0.068871,66.2 -67.149043,-0.068561,66.4 -67.149301,-0.068005,66.3 -67.149826,-0.06698,66.0 -67.149931,-0.066735,66.2 -67.150384,-0.065804,65.7 -67.150891,-0.064675,66.3 -67.151177,-0.064143,66.1 -67.151555,-0.063368,66.2 -67.151678,-0.063055,66.5 -67.151723,-0.06286,67.2 -67.151746,-0.062801,67.5 -67.151764,-0.062684,66.4 -67.15186,-0.062403,65.7 -67.152203,-0.061634,66.2 -67.152347,-0.061401,64.4 -67.152481,-0.061149,63.9 -67.1526,-0.060963,63.9 -67.152808,-0.060584,64.6 -67.152844,-0.060529,64.6 -67.15301,-0.060346,64.6 -67.153309,-0.060074,64.7 -67.153527,-0.059898,64.8 -67.154043,-0.059559,65.3 -67.154395,-0.059359,65.6 -67.154682,-0.059153,65.7 -67.154762,-0.05907,65.9 -67.154864,-0.058929,65.5 -67.155135,-0.058411,65.9 -67.155278,-0.058103,66.1 -67.155368,-0.057822,66.0 -67.155456,-0.057489,65.7 -67.155972,-0.05604,65.7 -67.156137,-0.055524,65.7 -67.156211,-0.055338,65.9 -67.156441,-0.054848,65.5 -67.1566,-0.054437,65.4 -67.156701,-0.054229,65.8 -67.15676,-0.054066,65.9 -67.156834,-0.053908,65.6 -67.157124,-0.053076,65.7 -67.15727,-0.0527,65.6 -67.157456,-0.052345,65.4 -67.157591,-0.052044,65.5 -67.157934,-0.051424,65.9 -67.158207,-0.051013,66.1 -67.15869,-0.050345,66.2 -67.159181,-0.049584,66.5 -67.159707,-0.048888,66.4 -67.160363,-0.048067,65.7 -67.161144,-0.047225,65.1 -67.16146,-0.046829,65.5 -67.161606,-0.04663,65.6 -67.16189,-0.046303,65.2 -67.162439,-0.045591,65.3 -67.162695,-0.045287,65.2 -67.163025,-0.044951,65.5 -67.163337,-0.044604,65.0 -67.163787,-0.044212,64.8 -67.164214,-0.043873,64.4 -67.164605,-0.043599,64.4 -67.165582,-0.042745,64.1 -67.165922,-0.042357,63.9 -67.166065,-0.042161,63.9 -67.166219,-0.041898,64.2 -67.166422,-0.041511,64.4 -67.166784,-0.040887,64.8 -67.167082,-0.04028,64.8 -67.167204,-0.039957,64.4 -67.167532,-0.039232,64.2 -67.167907,-0.038452,64.7 -67.168178,-0.037942,65.3 -67.168517,-0.037247,65.4 -67.168833,-0.036724,65.3 -67.169002,-0.036367,65.6 -67.169092,-0.036123,65.4 -67.169223,-0.035824,65.3 -67.169472,-0.035359,65.2 -67.169546,-0.035185,65.5 -67.1697,-0.034724,65.0 -67.169845,-0.034372,65.4 -67.169902,-0.03421,65.3 -67.169983,-0.034053,65.5 -67.170051,-0.033895,65.5 -67.170098,-0.033747,65.2 -67.170126,-0.033705,65.3 -67.170197,-0.033633,65.4 -67.170305,-0.033486,65.2 -67.170418,-0.033273,65.0 -67.170539,-0.033097,64.4 -67.170617,-0.032912,64.7 -67.170722,-0.032779,65.2 -67.170872,-0.032548,65.4 -67.171116,-0.03221,65.0 -67.171145,-0.032196,64.0 -67.171205,-0.032207,63.0 -67.17124,-0.032195,64.0 -67.171387,-0.03211,65.7 -67.171822,-0.031914,65.8 -67.1725,-0.03154,65.3 -67.172768,-0.031354,65.6 -67.173042,-0.031183,66.0 -67.173695,-0.030645,65.9 -67.173905,-0.030485,65.6 -67.174333,-0.030099,65.5 -67.174373,-0.030052,65.4 -67.17455,-0.02973,65.5 -67.174984,-0.029126,64.6 -67.175391,-0.02859,64.5 -67.175623,-0.02833,64.9 -67.175835,-0.028141,64.7 -67.17606,-0.027868,65.1 -67.176225,-0.027623,65.2 -67.176367,-0.027441,65.0 -67.176568,-0.027155,65.0 -67.176875,-0.026646,65.3 -67.176958,-0.026482,65.2 -67.177214,-0.026125,65.4 -67.177384,-0.025958,64.9 -67.177627,-0.025789,65.0 -67.177876,-0.025636,64.6 -67.17883,-0.025117,65.7 -67.179064,-0.025022,66.1 -67.179432,-0.024893,66.0 -67.1801,-0.024578,66.3 -67.181132,-0.024156,66.2 -67.181611,-0.023936,65.9 -67.182189,-0.023646,66.1 -67.182581,-0.023397,65.5 -67.183053,-0.023121,65.8 -67.183661,-0.022713,65.1 -67.184168,-0.02232,64.8 -67.184651,-0.021968,64.5 -67.184885,-0.021835,64.5 -67.184998,-0.021758,64.8 -67.185164,-0.021634,64.7 -67.185368,-0.021456,64.7 -67.185525,-0.021338,64.3 -67.185907,-0.021118,64.9 -67.186165,-0.020934,65.1 -67.186336,-0.020834,64.6 -67.186562,-0.020666,64.7 -67.186805,-0.020518,64.9 -67.187474,-0.020076,65.4 -67.187705,-0.019893,65.1 -67.187853,-0.019806,65.3 -67.188063,-0.019719,65.2 -67.188487,-0.019596,65.4 -67.189291,-0.019298,65.5 -67.189931,-0.018985,65.6 -67.190283,-0.018831,65.8 -67.190586,-0.01873,64.9 -67.190941,-0.018586,65.4 -67.191644,-0.018247,65.1 -67.19254,-0.017837,65.7 -67.192918,-0.017634,65.5 -67.19325,-0.017491,65.3 -67.193376,-0.017424,65.4 -67.194221,-0.016677,66.2 -67.194316,-0.016575,66.4 -67.194488,-0.01635,66.1 -67.194685,-0.016148,66.1 -67.194851,-0.016017,65.8 -67.195015,-0.015908,65.9 -67.195184,-0.015825,65.6 -67.195298,-0.015789,65.7 -67.195472,-0.01577,65.5 -67.195766,-0.015779,65.8 -67.195941,-0.015761,65.5 -67.196234,-0.015695,65.7 -67.196404,-0.015631,65.5 -67.196571,-0.015552,65.5 -67.196677,-0.015489,65.3 -67.196925,-0.015301,65.9 -67.197379,-0.014984,66.3 -67.197567,-0.014826,66.5 -67.198166,-0.014394,66.7 -67.198567,-0.014131,66.7 -67.198945,-0.013828,66.7 -67.199484,-0.013361,66.2 -67.199621,-0.013258,66.0 -67.199765,-0.013169,65.9 -67.199894,-0.013064,65.9 -67.200145,-0.012837,65.6 -67.200868,-0.012302,66.2 -67.201001,-0.012214,66.4 -67.201509,-0.011798,66.8 -67.201859,-0.011607,65.6 -67.20206,-0.011446,65.9 -67.202204,-0.011377,66.1 -67.202339,-0.011292,66.0 -67.202673,-0.01102,66.4 -67.203003,-0.010784,66.7 -67.203202,-0.010606,66.2 -67.203574,-0.010314,65.9 -67.204139,-0.009885,65.9 -67.204612,-0.009459,65.8 -67.204866,-0.009199,65.7 -67.205085,-0.009001,65.5 -67.205374,-0.008711,65.9 -67.20569,-0.00845,65.7 -67.206434,-0.007697,66.3 -67.206525,-0.007619,66.1 -67.206971,-0.007287,65.9 -67.20726,-0.007034,65.7 -67.207622,-0.006772,65.8 -67.207985,-0.006439,66.0 -67.208273,-0.006216,66.2 -67.208481,-0.006081,66.6 -67.208577,-0.005992,66.3 -67.209024,-0.005432,66.2 -67.209102,-0.005327,66.2 -67.209208,-0.005156,66.2 -67.209376,-0.004774,66.2 -67.209711,-0.004199,66.0 -67.210084,-0.003462,66.2 -67.210329,-0.003059,66.3 -67.210453,-0.002833,65.9 -67.210732,-0.002391,65.7 -67.211015,-0.002021,65.8 -67.211276,-0.001646,65.9 -67.211442,-0.001452,65.8 -67.211578,-0.001317,65.9 -67.211785,-0.001088,65.7 -67.211972,-0.000848,66.5 -67.212225,-0.000597,67.9 -67.212685,-0.000225,68.2 -67.213,6.4e-05,68.4 -67.213484,0.000461,69.0 -67.21421,0.001032,69.7 -67.214498,0.001247,69.4 -67.215007,0.001598,69.4 -67.215601,0.001974,69.7 -67.216294,0.002367,69.9 -67.216773,0.002624,70.0 -67.216945,0.002695,69.9 -67.217065,0.002731,69.9 -67.217251,0.002764,70.1 -67.21826,0.002889,70.4 -67.218382,0.002915,70.5 -67.21855,0.002973,70.2 -67.218984,0.00316,70.1 -67.22026,0.003771,71.1 -67.220444,0.003841,70.8 -67.220904,0.003932,70.6 -67.221437,0.003934,70.4 -67.221947,0.00398,71.0 -67.222733,0.004151,71.1 -67.223281,0.004233,70.3 -67.223627,0.004334,70.3 -67.225548,0.004973,70.7 -67.226284,0.005136,71.3 -67.226534,0.005176,71.4 -67.227092,0.005236,71.4 -67.227954,0.005354,71.0 -67.2285,0.005499,72.6 -67.229282,0.005678,72.3 -67.229629,0.005798,71.8 -67.230064,0.006006,72.5 -67.230385,0.006178,73.0 -67.230796,0.006439,73.2 -67.231189,0.006726,73.0 -67.231782,0.007084,74.1 -67.231918,0.007214,74.3 -67.232034,0.007355,74.0 -67.232461,0.007799,73.4 -67.23265,0.008051,73.5 -67.232742,0.00815,73.1 -67.233083,0.008449,72.4 -67.233134,0.008482,72.3 -67.233267,0.008529,72.6 -67.233658,0.008748,72.7 -67.234132,0.009087,73.1 -67.234401,0.009267,73.4 -67.234761,0.00954,73.7 -67.234898,0.009673,74.0 -67.235354,0.01006,73.1 -67.235585,0.010293,72.4 -67.235626,0.010345,72.8 -67.23616,0.01081,73.1 -67.236286,0.010945,73.4 -67.236361,0.01104,73.8 -67.236817,0.01171,73.1 -67.237329,0.012588,72.5 -67.237551,0.012907,72.7 -67.237755,0.013236,72.7 -67.238197,0.013773,72.5 -67.238628,0.014325,72.2 -67.238921,0.014641,72.9 -67.23906,0.014767,72.5 -67.239189,0.014904,72.2 -67.239471,0.015262,71.5 -67.239854,0.015698,72.0 -67.240275,0.016112,71.8 -67.24092,0.0167,72.6 -67.241028,0.016781,72.2 -67.241527,0.017219,72.6 -67.241746,0.017385,73.0 -67.242046,0.017634,72.6 -67.242446,0.017997,72.5 -67.242668,0.018234,72.4 -67.242964,0.018505,72.0 -67.243281,0.018762,71.8 -67.24379,0.019091,71.9 -67.243961,0.019177,72.1 -67.244259,0.019302,72.0 -67.244857,0.019502,70.8 -67.245222,0.019577,71.0 -67.245467,0.01965,70.9 -67.246088,0.019854,70.6 -67.246774,0.020099,70.9 -67.246905,0.020131,70.9 -67.247587,0.020185,71.0 -67.247718,0.020209,70.9 -67.247841,0.020256,71.0 -67.248266,0.020487,71.4 -67.248796,0.020719,71.7 -67.24892,0.020794,71.9 -67.249035,0.020883,71.8 -67.249547,0.021395,71.9 -67.249644,0.021507,71.7 -67.25023,0.022269,72.2 -67.250342,0.022448,72.3 -67.250465,0.022683,72.6 -67.250639,0.022944,72.4 -67.2508,0.023128,72.6 -67.250979,0.023302,72.3 -67.251173,0.023454,72.3 -67.251495,0.02363,71.8 -67.251603,0.023678,71.9 -67.25172,0.023712,72.2 -67.251954,0.023745,71.8 -67.252312,0.023813,71.7 -67.252759,0.023842,71.6 -67.253492,0.023833,71.8 -67.254989,0.023894,71.9 -67.255189,0.023906,72.1 -67.255579,0.023952,72.3 -67.255903,0.023976,72.4 -67.256165,0.023981,72.1 -67.256856,0.02405,72.2 -67.257109,0.024063,71.9 -67.257596,0.02416,71.6 -67.258369,0.02424,71.6 -67.25881,0.024318,71.7 -67.259248,0.024382,71.2 -67.260023,0.024523,70.8 -67.260605,0.024655,71.4 -67.260783,0.024665,71.1 -67.261572,0.024637,71.0 -67.261941,0.0246,71.6 -67.262131,0.024566,71.4 -67.262684,0.024436,71.6 -67.263118,0.02438,71.9 -67.263234,0.024383,71.9 -67.263348,0.024399,71.7 -67.263834,0.024535,72.0 -67.264315,0.02451,71.5 -67.264421,0.024521,71.5 -67.264617,0.024582,71.7 -67.264806,0.02467,72.2 -67.265118,0.024752,72.1 -67.265358,0.024848,72.0 -67.26561,0.024926,72.3 -67.265709,0.024968,72.5 -67.265933,0.025094,73.0 -67.266055,0.025185,73.1 -67.266336,0.025484,72.9 -67.266468,0.025575,72.8 -67.266822,0.025744,72.5 -67.267056,0.025891,72.0 -67.267215,0.025943,72.1 -67.267494,0.026007,71.9 -67.267894,0.026151,73.0 -67.268226,0.026304,73.2 -67.26846,0.026492,72.5 -67.268796,0.026828,72.6 -67.26901,0.02707,72.7 -67.269196,0.027237,72.8 -67.269285,0.027332,73.3 -67.269533,0.027646,73.0 -67.269844,0.028005,72.0 -67.270103,0.028239,71.3 -67.270197,0.028346,70.9 -67.270339,0.028605,71.3 -67.270498,0.028855,71.3 -67.270576,0.029055,71.4 -67.270655,0.029191,70.9 -67.270787,0.029468,69.8 -67.271005,0.029819,70.7 -67.27118,0.030147,71.4 -67.271268,0.03036,72.2 -67.271376,0.030558,72.4 -67.271521,0.03072,71.5 -67.271588,0.03082,71.2 -67.271692,0.030948,71.7 -67.27178,0.031086,71.7 -67.271946,0.031262,72.7 -67.271971,0.031301,72.7 -67.271988,0.031341,72.8 -67.271999,0.031426,73.2 -67.271982,0.031688,73.1 -67.271979,0.03195,73.8 -67.272034,0.03216,73.9 -67.272188,0.032404,73.6 -67.272268,0.032493,73.7 -67.272455,0.032658,74.1 -67.272929,0.033001,73.9 -67.273215,0.033181,73.6 -67.273657,0.03337,73.6 -67.274127,0.033633,73.1 -67.274292,0.033738,73.0 -67.274677,0.034015,73.0 -67.275018,0.034239,72.8 -67.275548,0.034558,72.3 -67.27578,0.034717,72.7 -67.275885,0.034801,72.0 -67.276181,0.035082,71.9 -67.27647,0.035297,70.8 -67.276878,0.035652,70.6 -67.277277,0.035962,71.1 -67.277465,0.036179,70.8 -67.277694,0.036502,70.4 -67.277942,0.036986,70.6 -67.278088,0.037326,71.6 -67.2782,0.037548,71.8 -67.278915,0.038791,74.4 -67.278991,0.038896,74.2 -67.279214,0.039143,74.6 -67.279704,0.039613,73.8 -67.279929,0.039789,73.0 -67.280296,0.040013,73.6 -67.280432,0.040068,74.0 -67.280643,0.040114,74.0 -67.280839,0.040138,73.6 -67.28134,0.040126,73.2 -67.28169,0.040137,72.9 -67.282626,0.040072,72.3 -67.283278,0.039996,71.8 -67.283491,0.03995,71.4 -67.283698,0.039885,71.5 -67.283978,0.039836,71.5 -67.284182,0.039828,71.7 -67.284248,0.039835,71.5 -67.284373,0.039866,71.4 -67.284675,0.040085,71.7 -67.284881,0.040317,71.9 -67.284999,0.040467,71.9 -67.285093,0.040639,72.0 -67.285114,0.0407,71.8 -67.28518,0.041096,71.3 -67.285238,0.041525,71.7 -67.285238,0.041894,71.3 -67.285291,0.042193,71.1 -67.285357,0.042406,70.6 -67.28542,0.042546,71.2 -67.285606,0.042879,71.3 -67.285787,0.043117,71.0 -67.285892,0.043225,71.5 -67.286064,0.043367,71.5 -67.286891,0.043902,71.1 -67.287635,0.044237,70.7 -67.287829,0.044334,70.8 -67.288092,0.044537,71.3 -67.288359,0.044799,71.0 -67.288428,0.044906,71.3 -67.288515,0.045083,71.9 -67.288629,0.045244,71.9 -67.28878,0.045366,71.6 -67.289006,0.045486,72.0 -67.289051,0.045522,72.1 -67.289273,0.045754,71.0 -67.289452,0.045977,70.7 -67.289501,0.0461,71.0 -67.289444,0.046784,70.6 -67.289479,0.04698,71.0 -67.289507,0.047234,71.4 -67.289639,0.04788,72.3 -67.289713,0.048583,72.4 -67.289807,0.048961,72.8 -67.289898,0.049208,72.9 -67.289954,0.049328,72.8 -67.290119,0.049616,72.6 -67.290418,0.050072,73.5 -67.290793,0.050477,74.7 -67.291113,0.050753,75.6 -67.291427,0.051045,76.2 -67.29247,0.051821,76.5 -67.293125,0.052244,76.7 -67.293766,0.052636,76.4 -67.294418,0.053082,76.8 -67.295008,0.053539,76.4 -67.295275,0.053777,76.2 -67.295538,0.053988,76.5 -67.296009,0.054459,75.9 -67.296738,0.05508,75.0 -67.29726,0.055557,74.8 -67.297623,0.055911,74.9 -67.297902,0.056136,74.6 -67.298282,0.056466,74.7 -67.298989,0.05698,74.3 -67.299281,0.057207,74.2 -67.30011,0.057807,74.0 -67.301271,0.058533,75.2 -67.301922,0.058816,74.8 -67.30219,0.058915,74.7 -67.302574,0.059074,74.2 -67.302875,0.059218,74.4 -67.303045,0.059313,74.5 -67.303663,0.059738,74.6 -67.304031,0.059961,74.2 -67.304289,0.060142,73.9 -67.304586,0.06037,74.1 -67.305005,0.060641,74.3 -67.305411,0.060948,73.3 -67.306033,0.061492,73.9 -67.306501,0.06192,74.0 -67.307079,0.062417,73.6 -67.307508,0.062816,73.3 -67.307968,0.063267,73.7 -67.308163,0.063438,73.6 -67.308521,0.063726,73.9 -67.308985,0.064193,74.5 -67.30923,0.064409,73.4 -67.309781,0.06484,73.6 -67.310908,0.065838,74.5 -67.31123,0.066071,74.6 -67.311961,0.066545,73.6 -67.31236,0.066822,74.0 -67.313188,0.067348,74.4 -67.314367,0.068232,74.2 -67.314672,0.068489,73.8 -67.31482,0.068628,73.4 -67.315097,0.06892,74.0 -67.315481,0.069302,73.8 -67.315879,0.069683,74.0 -67.316454,0.07018,74.1 -67.316959,0.070664,73.8 -67.317636,0.071267,73.7 -67.318637,0.072259,74.7 -67.318825,0.072467,74.7 -67.319412,0.073177,74.7 -67.319542,0.073346,74.6 -67.320189,0.074306,74.1 -67.320261,0.074434,74.0 -67.320548,0.075023,74.0 -67.32085,0.075564,73.8 -67.32096,0.075722,74.0 -67.321044,0.075821,73.8 -67.321616,0.07636,73.9 -67.322178,0.076934,73.9 -67.322789,0.077466,73.6 -67.323262,0.077948,74.0 -67.323764,0.078493,73.3 -67.324233,0.078979,73.0 -67.324727,0.079532,73.9 -67.325057,0.079875,73.2 -67.325608,0.080567,73.7 -67.326156,0.081342,74.0 -67.326494,0.081849,74.8 -67.326984,0.082656,75.0 -67.327367,0.083218,75.2 -67.327708,0.083809,75.9 -67.328095,0.084516,75.3 -67.328682,0.08567,74.3 -67.329441,0.087047,74.0 -67.33017,0.088304,74.2 -67.330774,0.08921,74.0 -67.331407,0.090026,74.7 -67.331916,0.090598,74.8 -67.332616,0.091286,74.5 -67.332834,0.091466,74.9 -67.333071,0.09161,74.7 -67.333462,0.09176,75.0 -67.333798,0.091858,74.7 -67.334217,0.091946,74.7 -67.335157,0.092099,77.4 -67.33609,0.092185,76.2 -67.336415,0.092207,75.2 -67.336569,0.092204,75.6 -67.336815,0.092219,75.3 -67.33729,0.092225,76.3 -67.338007,0.092212,76.1 -67.338408,0.09219,76.5 -67.339361,0.09219,77.4 -67.340425,0.092251,76.9 -67.340825,0.092246,76.6 -67.341009,0.092209,75.8 -67.341162,0.092148,75.4 -67.34123,0.092091,75.4 -67.341276,0.092028,75.1 -67.341304,0.091956,74.0 -67.341307,0.091843,74.0 -67.341257,0.091618,74.0 -67.341228,0.091543,74.0 -67.341156,0.091421,74.0 -67.341142,0.091362,75.9 -67.341104,0.091312,75.0 -67.341076,0.091255,75.0 -67.341054,0.091161,72.0 -67.34102,0.091136,70.0 -67.340984,0.091133,73.0 -67.340955,0.09104,65.0 -67.340869,0.091062,75.0 -67.340821,0.091106,76.0 -67.340733,0.09112,74.0 -67.34072,0.091073,76.0 -67.340731,0.091129,76.0 -67.34077,0.091,78.0 -67.340734,0.090956,80.0 -67.340726,0.090883,78.0 -67.340593,0.090732,83.0 -67.340537,0.090698,84.0 -67.340458,0.090674,83.0 -67.340453,0.090608,80.0 -67.340399,0.090623,75.0 -67.340412,0.090592,76.0 -67.340469,0.090605,81.5 -67.340553,0.09068,80.0 -67.340542,0.090698,81.0 -67.34057,0.09059,81.0 -67.340432,0.090471,80.0 -67.340408,0.090434,80.0 -67.340364,0.090429,85.0 -67.340238,0.090382,84.0 -67.340163,0.090381,87.0 -67.340184,0.09039,86.4</coordinates>
                </LineString>
                <LineString id="8">
                    <extrude>0</extrude>
                    <altitudeMode>clampToGround</altitudeMode>
                    <coordinates>-67.354316,0.086642,73.6 -67.355225,0.086424,72.6 -67.355374,0.086406,72.2 -67.355573,0.086352,72.3 -67.356133,0.086333,71.4 -67.356541,0.086372,72.2 -67.356853,0.086424,72.6 -67.357217,0.08656,72.6 -67.357466,0.086631,73.1 -67.358526,0.086863,73.1 -67.359268,0.087038,73.7 -67.360235,0.087211,73.7 -67.360518,0.087245,73.7 -67.360731,0.08725,74.1 -67.360947,0.087241,74.3 -67.361593,0.087183,74.4 -67.3621,0.08718,74.0 -67.362514,0.087156,75.4 -67.363048,0.0871,74.7 -67.36397,0.086966,73.9 -67.364567,0.08685,73.5 -67.365427,0.086715,73.9 -67.366297,0.08656,73.7 -67.367571,0.086363,73.7 -67.368736,0.086243,74.0 -67.369711,0.086166,74.1 -67.37041,0.086126,73.8 -67.371333,0.0861,74.4 -67.37189,0.086068,74.7 -67.372307,0.086032,74.4 -67.373148,0.085993,73.8 -67.373767,0.085989,74.4 -67.375065,0.085952,74.1 -67.375475,0.085956,74.5 -67.376315,0.086006,74.9 -67.376996,0.086018,74.7 -67.377125,0.086028,74.7 -67.37751,0.086086,74.3 -67.37784,0.08611,74.3 -67.378474,0.086243,73.9 -67.379188,0.086354,74.0 -67.379762,0.086477,74.3 -67.380403,0.086662,74.6 -67.380648,0.086778,74.6 -67.380818,0.086886,74.5 -67.380998,0.08698,74.6 -67.381242,0.087089,74.6 -67.381371,0.087136,74.5 -67.381822,0.087265,75.0 -67.38215,0.087335,74.8 -67.382616,0.087406,75.5 -67.383083,0.087451,74.7 -67.38342,0.08748,75.0 -67.383827,0.087498,75.0 -67.384363,0.087495,74.5 -67.385569,0.08744,74.2 -67.385897,0.087411,74.4 -67.386487,0.087338,75.5 -67.387142,0.08722,75.4 -67.387803,0.087153,75.0 -67.388203,0.087094,75.1 -67.388791,0.087037,74.8 -67.389159,0.086982,75.1 -67.389443,0.086984,75.2 -67.389674,0.087017,75.1 -67.389862,0.087025,74.8 -67.390051,0.087011,74.6 -67.390417,0.08696,74.5 -67.390665,0.086951,74.3 -67.391121,0.086998,74.3 -67.391972,0.087185,75.0 -67.393074,0.087411,74.3 -67.393397,0.087466,74.0 -67.393984,0.087541,74.0 -67.394438,0.087588,74.2 -67.394972,0.087627,74.2 -67.395234,0.087667,74.6 -67.395773,0.087707,74.9 -67.395974,0.087738,75.2 -67.396955,0.088008,74.9 -67.397152,0.088052,74.7 -67.397608,0.088107,74.8 -67.398059,0.088119,75.0 -67.398256,0.088108,74.8 -67.399017,0.087969,74.7 -67.399505,0.087845,75.5 -67.399864,0.087733,75.5 -67.400279,0.08758,76.0 -67.400883,0.087395,76.1 -67.401378,0.087261,76.5 -67.401558,0.087198,76.7 -67.401851,0.087082,77.4 -67.402978,0.086603,76.1 -67.403389,0.086398,76.3 -67.40363,0.086291,76.6 -67.404093,0.086027,76.3 -67.404454,0.085869,77.0 -67.406366,0.085146,78.4 -67.407124,0.08481,79.3 -67.407637,0.084561,77.2 -67.408735,0.084064,78.6 -67.408974,0.083909,78.1 -67.4091,0.083847,78.3 -67.409233,0.083809,78.2 -67.410047,0.083631,78.2 -67.410872,0.083459,77.7 -67.411222,0.083403,77.8 -67.411715,0.083347,78.3 -67.412497,0.083298,77.9 -67.412929,0.083251,78.3 -67.41357,0.083197,77.9 -67.414363,0.083195,77.6 -67.414424,0.083208,77.8 -67.414496,0.083199,77.7 -67.414916,0.083252,77.5 -67.415331,0.083348,76.6 -67.416102,0.083597,75.7 -67.416317,0.083678,76.1 -67.416595,0.083822,76.3 -67.416726,0.083901,76.1 -67.417023,0.084116,76.6 -67.417282,0.084339,77.1 -67.417619,0.084686,77.4 -67.418259,0.085215,77.6 -67.418581,0.085434,77.0 -67.41884,0.085625,77.2 -67.419418,0.086015,76.6 -67.420288,0.086532,75.9 -67.42078,0.086846,76.5 -67.421164,0.087108,76.4 -67.421483,0.087348,76.6 -67.421655,0.087462,76.9 -67.422533,0.087967,77.6 -67.422954,0.088171,77.9 -67.423126,0.088267,78.6 -67.423545,0.088525,79.0 -67.424148,0.088807,78.8 -67.424609,0.08901,78.3 -67.425976,0.089565,78.6 -67.426475,0.08974,78.3 -67.427141,0.089926,78.6 -67.427731,0.090139,78.3 -67.428444,0.090429,78.4 -67.429176,0.090765,78.0 -67.430214,0.091211,77.7 -67.430791,0.09143,78.3 -67.430975,0.091512,78.2 -67.431837,0.091937,78.7 -67.432315,0.092218,78.9 -67.43267,0.09244,78.8 -67.433023,0.092676,79.2 -67.43333,0.092855,78.9 -67.43454,0.093462,79.0 -67.435065,0.09369,79.2 -67.435917,0.094002,79.2 -67.436106,0.094082,79.5 -67.436596,0.094328,79.4 -67.438101,0.095019,77.8 -67.438553,0.09521,77.7 -67.439485,0.095593,77.8 -67.440156,0.095839,78.5 -67.440495,0.095948,78.0 -67.440895,0.096049,77.9 -67.441427,0.096158,77.9 -67.441957,0.096225,77.7 -67.442352,0.096286,77.2 -67.444059,0.096459,77.4 -67.446083,0.096623,78.4 -67.446711,0.096699,78.6 -67.450102,0.097299,78.2 -67.4514,0.097559,78.1 -67.452308,0.097711,78.2 -67.452867,0.097795,77.6 -67.453063,0.097808,79.2 -67.45315,0.097832,78.8 -67.453283,0.097851,78.4 -67.454185,0.097967,78.5 -67.455221,0.098087,78.3 -67.455763,0.098137,78.1 -67.455945,0.098129,78.0 -67.456053,0.09809,77.0 -67.456072,0.098045,76.0 -67.455978,0.097947,76.0 -67.455813,0.097828,75.0 -67.455844,0.097757,77.8 -67.455922,0.097675,77.9 -67.456004,0.097633,78.0 -67.456149,0.097595,77.9 -67.456325,0.097588,77.9 -67.456578,0.097597,77.6 -67.456712,0.097624,75.7 -67.456772,0.097615,75.0 -67.456915,0.097635,75.9 -67.457115,0.09764,76.6 -67.458357,0.097765,76.8 -67.458765,0.097819,77.0 -67.460538,0.098093,76.8 -67.460812,0.098123,76.8 -67.461301,0.098152,76.8 -67.461933,0.09824,76.3 -67.462209,0.098297,76.2 -67.462684,0.098419,77.1 -67.463492,0.098602,76.6 -67.463968,0.098687,76.7 -67.46431,0.098724,76.8 -67.464656,0.098737,76.9 -67.465003,0.098728,77.1 -67.465353,0.098695,77.6 -67.465631,0.098648,77.7 -67.466171,0.098507,77.6 -67.46684,0.098347,77.6 -67.469083,0.097698,77.8 -67.469299,0.097658,77.7 -67.469959,0.09759,77.1 -67.470322,0.097543,77.1 -67.471123,0.097434,77.1 -67.472582,0.097217,76.6 -67.473401,0.097066,76.9 -67.47408,0.096925,76.9 -67.475956,0.096698,77.2 -67.476956,0.096608,76.8 -67.477863,0.09649,76.6 -67.479126,0.096361,76.5 -67.479893,0.09625,75.9 -67.48045,0.096147,76.0 -67.480933,0.096041,76.6 -67.481068,0.095992,76.4 -67.481562,0.095867,77.0 -67.48322,0.095528,78.6 -67.484201,0.095303,79.9 -67.485092,0.09507,78.6 -67.487324,0.094462,79.5 -67.488029,0.0943,79.7 -67.490874,0.093789,79.8 -67.49209,0.093537,79.6 -67.49378,0.093101,78.9 -67.494792,0.092924,79.1 -67.495662,0.092816,79.3 -67.496156,0.092709,78.9 -67.497067,0.092555,78.9 -67.497496,0.092501,79.2 -67.498127,0.092476,79.0 -67.499279,0.092384,78.0 -67.500136,0.092262,77.2 -67.500354,0.092239,77.2 -67.500937,0.092211,77.1 -67.50159,0.092134,76.2 -67.502525,0.092063,75.7 -67.503178,0.092043,75.7 -67.504265,0.092054,76.0 -67.505066,0.092033,76.7 -67.505938,0.092045,76.8 -67.506447,0.092032,76.8 -67.506806,0.092016,76.9 -67.507898,0.091934,76.9 -67.508982,0.091837,77.4 -67.510114,0.091629,77.3 -67.510888,0.091398,76.9 -67.512292,0.091018,77.3 -67.515039,0.090228,76.7 -67.515544,0.090117,76.5 -67.517203,0.089784,77.4 -67.517999,0.089636,77.4 -67.518512,0.089551,77.0 -67.520845,0.089254,77.3 -67.522236,0.089101,77.7 -67.522969,0.08903,77.5 -67.523714,0.088969,76.8 -67.524448,0.088925,76.9 -67.524807,0.088917,77.1 -67.525157,0.088932,77.4 -67.525992,0.088997,77.2 -67.526561,0.089059,76.8 -67.528812,0.089247,76.3 -67.529785,0.089275,77.2 -67.53085,0.089265,77.9 -67.531552,0.089241,77.9 -67.532605,0.089178,77.4 -67.533245,0.089126,77.8 -67.533601,0.089087,76.7 -67.534235,0.088997,76.8 -67.535885,0.088697,76.6 -67.536614,0.088625,77.2 -67.537033,0.088553,77.0 -67.537752,0.088479,77.4 -67.539121,0.088293,77.1 -67.539906,0.088136,77.6 -67.541387,0.087864,77.7 -67.542163,0.087707,78.2 -67.542851,0.087551,78.0 -67.543749,0.087224,77.8 -67.544289,0.087046,77.7 -67.544957,0.086797,77.6 -67.545296,0.086699,77.5 -67.545579,0.086632,77.9 -67.546425,0.086461,77.4 -67.547058,0.086298,77.2 -67.548437,0.08598,77.9 -67.549356,0.085827,77.8 -67.54978,0.085785,77.4 -67.550345,0.085757,77.5 -67.550849,0.085752,77.3 -67.551342,0.085734,77.0 -67.551855,0.085734,76.8 -67.552644,0.085751,76.4 -67.553304,0.085785,77.0 -67.5543,0.085818,76.3 -67.555166,0.085865,76.2 -67.555741,0.085915,76.6 -67.556307,0.086015,77.4 -67.557311,0.08622,77.0 -67.55789,0.086327,76.8 -67.558249,0.086381,76.9 -67.558749,0.086506,77.0 -67.559046,0.086559,77.3 -67.560546,0.086879,76.5 -67.56097,0.086999,76.3 -67.561546,0.08714,76.6 -67.561816,0.087238,76.5 -67.562005,0.087335,76.3 -67.562239,0.08748,76.4 -67.562507,0.087686,76.3 -67.563126,0.088131,75.4 -67.563826,0.08862,75.0 -67.564542,0.089099,75.6 -67.565264,0.089555,75.4 -67.566057,0.090021,75.6 -67.567296,0.090688,75.9 -67.567621,0.090842,75.8 -67.568481,0.091216,76.4 -67.569311,0.091513,76.6 -67.571132,0.092075,76.2 -67.572059,0.092313,75.9 -67.572833,0.09249,76.2 -67.573966,0.092714,75.2 -67.574614,0.092829,76.3 -67.576918,0.093154,76.8 -67.57906,0.093524,77.5 -67.579994,0.093623,77.1 -67.580921,0.093756,77.2 -67.581853,0.093832,77.3 -67.582504,0.093903,77.1 -67.583572,0.094058,77.7 -67.584642,0.094241,77.9 -67.585279,0.094328,77.2 -67.585716,0.094374,76.7 -67.587169,0.094489,75.9 -67.587903,0.094537,76.3 -67.588268,0.094574,76.9 -67.588637,0.094624,76.7 -67.589142,0.094715,76.1 -67.589577,0.094821,76.7 -67.590136,0.094994,76.1 -67.590779,0.095176,76.2 -67.592009,0.095494,76.3 -67.593122,0.095723,75.8 -67.593717,0.095826,76.0 -67.594461,0.095936,75.9 -67.594758,0.095965,76.1 -67.595204,0.096043,75.8 -67.596248,0.096264,76.9 -67.596985,0.096442,76.8 -67.59755,0.096602,77.2 -67.599357,0.097067,77.6 -67.599725,0.097152,77.7 -67.600528,0.097366,78.3 -67.601756,0.097745,79.5 -67.602629,0.098003,79.4 -67.603063,0.098153,79.6 -67.603584,0.098316,79.1 -67.603898,0.098386,79.5 -67.60429,0.098456,79.9 -67.605511,0.098754,79.9 -67.60589,0.098864,80.3 -67.606404,0.099056,79.9 -67.607271,0.099415,79.7 -67.607861,0.099686,79.8 -67.608004,0.099761,79.1 -67.608208,0.099885,79.4 -67.608528,0.100111,79.7 -67.608773,0.100304,79.6 -67.609077,0.100522,79.5 -67.60969,0.101003,81.4 -67.61008,0.101282,80.6 -67.610374,0.101474,80.3 -67.610822,0.101675,79.7 -67.611355,0.10189,79.2 -67.611694,0.102011,79.1 -67.612182,0.102159,78.8 -67.616212,0.10326,78.2 -67.61686,0.103417,78.1 -67.617433,0.103573,77.8 -67.617867,0.103671,77.6 -67.618532,0.103778,77.7 -67.618903,0.103816,77.8 -67.61935,0.103847,77.8 -67.619794,0.103896,77.7 -67.620453,0.10399,78.0 -67.620956,0.104098,77.4 -67.621374,0.104215,77.1 -67.621786,0.104356,77.2 -67.622256,0.104535,77.5 -67.622865,0.104723,77.6 -67.623621,0.104927,77.7 -67.624806,0.105207,77.3 -67.625359,0.105348,77.2 -67.626253,0.105597,77.7 -67.62701,0.105794,77.1 -67.627558,0.105957,77.0 -67.627901,0.106072,77.3 -67.628633,0.106362,76.3 -67.629245,0.106562,76.0 -67.629649,0.106707,75.7 -67.630326,0.106922,75.4 -67.631324,0.107315,76.8 -67.631849,0.107555,76.9 -67.633143,0.1082,76.0 -67.634611,0.108975,76.6 -67.636398,0.109774,77.5 -67.63719,0.110156,77.8 -67.638165,0.110661,78.3 -67.639013,0.111085,78.0 -67.640341,0.111832,77.3 -67.640798,0.112055,78.0 -67.641497,0.112431,77.1 -67.642019,0.112667,77.2 -67.64279,0.112983,77.5 -67.643229,0.113181,77.7 -67.643489,0.113274,77.4 -67.644458,0.113663,77.0 -67.645453,0.113965,77.0 -67.646055,0.11413,77.8 -67.646717,0.114269,77.9 -67.647745,0.114424,77.7 -67.648033,0.114445,77.5 -67.648248,0.114438,78.1 -67.648462,0.114417,77.9 -67.64887,0.114342,77.9 -67.651619,0.113931,78.6 -67.652542,0.113824,78.3 -67.653733,0.113629,78.5 -67.654665,0.113538,78.5 -67.65545,0.113509,78.5 -67.657234,0.113496,78.8 -67.658593,0.113549,78.8 -67.6588,0.113572,78.7 -67.659087,0.113582,78.8 -67.659296,0.113582,78.7 -67.659647,0.113565,78.6 -67.660704,0.113584,78.0 -67.66127,0.113622,78.2 -67.661766,0.113641,77.9 -67.662473,0.113706,77.3 -67.663045,0.113742,77.5 -67.66368,0.113838,76.7 -67.664386,0.113915,77.1 -67.665023,0.113958,77.2 -67.66623,0.114103,76.8 -67.666814,0.114151,76.9 -67.667249,0.114169,76.8 -67.667967,0.11424,76.1 -67.669372,0.114457,77.0 -67.669939,0.114521,76.8 -67.67036,0.114594,76.5 -67.670782,0.114682,76.7 -67.671479,0.114856,76.4 -67.67183,0.11493,76.4 -67.673318,0.115118,76.4 -67.674841,0.115356,75.6 -67.676943,0.115809,75.6 -67.678626,0.116146,76.6 -67.679832,0.116367,75.4 -67.680823,0.116608,75.6 -67.683056,0.117211,75.9 -67.683537,0.117325,75.6 -67.684024,0.117428,76.0 -67.6848,0.117562,76.1 -67.685459,0.117652,75.8 -67.68631,0.117711,76.0 -67.686956,0.117776,75.8 -67.687799,0.117744,76.6 -67.688009,0.117746,76.4 -67.688488,0.117772,76.3 -67.688818,0.117836,76.2 -67.689075,0.117914,76.4 -67.689858,0.118207,76.2 -67.690332,0.118363,76.7 -67.691321,0.118739,77.5 -67.692442,0.119113,78.1 -67.69284,0.119228,77.9 -67.693521,0.119395,77.9 -67.694276,0.119543,77.5 -67.694482,0.119592,77.2 -67.696166,0.120149,77.0 -67.696506,0.120241,77.3 -67.697378,0.120455,77.3 -67.698118,0.120616,77.4 -67.698659,0.120763,77.1 -67.699355,0.120914,77.3 -67.699699,0.121013,77.6 -67.699834,0.121062,77.9 -67.700926,0.121355,77.4 -67.702165,0.121633,76.6 -67.703498,0.121886,76.6 -67.704399,0.122126,77.5 -67.705014,0.122266,78.2 -67.706319,0.122524,78.3 -67.707496,0.122778,79.0 -67.709015,0.123159,79.2 -67.710806,0.123569,79.3 -67.711475,0.123785,79.0 -67.713045,0.124201,79.3 -67.713311,0.124295,79.5 -67.714026,0.124577,79.3 -67.714861,0.124946,78.8 -67.715384,0.125166,79.2 -67.715783,0.12532,79.3 -67.716382,0.125528,79.5 -67.717408,0.125817,79.5 -67.718075,0.126066,80.3 -67.71875,0.126283,80.2 -67.719086,0.126401,80.1 -67.720478,0.126931,79.5 -67.72208,0.127504,79.9 -67.723068,0.127906,80.2 -67.723846,0.128258,79.4 -67.724513,0.12853,79.8 -67.724963,0.128748,79.9 -67.725344,0.128948,79.1 -67.725743,0.129112,79.3 -67.726136,0.129296,79.6 -67.726703,0.129611,79.7 -67.727218,0.129875,79.7 -67.728533,0.130592,79.2 -67.728914,0.130784,79.1 -67.72937,0.130996,78.7 -67.72956,0.131096,78.4 -67.730167,0.131472,78.3 -67.730416,0.13161,79.0 -67.731129,0.131946,79.3 -67.732049,0.132358,79.6 -67.732968,0.132732,79.4 -67.733437,0.132901,79.4 -67.733689,0.133016,79.2 -67.734118,0.133251,79.0 -67.734542,0.133504,79.2 -67.735187,0.133932,78.5 -67.736027,0.134571,79.0 -67.736717,0.135076,79.8 -67.7369,0.135191,80.1 -67.739192,0.136513,80.3 -67.739765,0.136795,79.9 -67.740201,0.137028,79.4 -67.740931,0.137469,79.5 -67.741521,0.137862,79.4 -67.741769,0.138002,79.5 -67.74291,0.138561,80.5 -67.743366,0.138728,80.3 -67.743694,0.138833,80.5 -67.744022,0.138919,80.3 -67.744809,0.139085,79.4 -67.745345,0.139156,80.1 -67.745884,0.139258,79.6 -67.746217,0.139358,79.6 -67.747031,0.139628,80.7 -67.747651,0.139757,80.1 -67.747785,0.139795,80.0 -67.74893,0.140176,80.7 -67.749905,0.140527,80.7 -67.750726,0.14077,80.1 -67.751358,0.140998,79.6 -67.751879,0.141172,80.0 -67.752909,0.141463,79.9 -67.753668,0.141718,80.6 -67.754012,0.141817,80.3 -67.754357,0.1419,80.3 -67.754634,0.141948,80.2 -67.755051,0.142,80.2 -67.756171,0.142082,80.2 -67.756593,0.142097,79.9 -67.757779,0.142089,78.6 -67.758687,0.142054,79.1 -67.759036,0.142051,79.2 -67.761264,0.14209,80.1 -67.762387,0.142083,80.0 -67.763156,0.142063,79.6 -67.763925,0.142017,79.6 -67.764836,0.141943,79.0 -67.765047,0.141938,79.2 -67.765821,0.141954,79.2 -67.766315,0.141944,79.6 -67.766879,0.141915,79.5 -67.768004,0.141825,79.0 -67.768284,0.141813,79.0 -67.768986,0.141825,79.3 -67.769616,0.141872,79.3 -67.770174,0.141934,79.4 -67.770942,0.142046,79.4 -67.772347,0.142196,78.4 -67.773833,0.142325,77.7 -67.774397,0.142406,77.5 -67.774961,0.14247,77.2 -67.775313,0.14252,77.0 -67.775875,0.142608,76.9 -67.776297,0.142693,77.8 -67.776643,0.142776,77.3 -67.777972,0.143051,79.0 -67.778596,0.143195,79.2 -67.778885,0.143243,79.5 -67.780002,0.143374,77.8 -67.780293,0.143429,79.6 -67.780699,0.143486,79.4 -67.781048,0.14355,79.6 -67.781739,0.143718,79.9 -67.78211,0.14377,80.4 -67.782243,0.143775,79.9 -67.782388,0.143798,80.1 -67.782599,0.143813,80.9 -67.783299,0.143848,80.5 -67.783648,0.143902,80.6 -67.783714,0.143903,80.4 -67.784215,0.143966,80.8 -67.784641,0.143992,80.5 -67.784921,0.144025,80.5 -67.78571,0.144064,81.0 -67.785859,0.144085,80.9 -67.786292,0.144108,81.3 -67.786364,0.144098,81.0 -67.787013,0.144116,80.6 -67.787505,0.144144,80.2 -67.787981,0.144214,80.1 -67.788755,0.144284,79.6 -67.789026,0.144319,79.7 -67.78931,0.144341,80.3 -67.789641,0.144344,80.2 -67.790252,0.14444,80.2 -67.790464,0.144456,80.3 -67.790535,0.144475,80.3 -67.790812,0.144506,80.0 -67.790951,0.144534,80.0 -67.791724,0.144628,80.3 -67.792065,0.144681,80.5 -67.792617,0.144789,79.5 -67.793184,0.144883,78.7 -67.793529,0.144958,79.0 -67.794172,0.145079,79.2 -67.794464,0.145111,79.2 -67.794826,0.145128,79.0 -67.795412,0.145175,79.6 -67.795543,0.145176,79.8 -67.796031,0.145133,79.9 -67.796291,0.145096,79.9 -67.797067,0.144931,80.0 -67.79745,0.144866,79.5 -67.797639,0.144812,79.9 -67.798988,0.144542,79.2 -67.799184,0.144488,79.4 -67.799577,0.144415,80.2 -67.799841,0.144352,80.2 -67.800171,0.144306,80.1 -67.800912,0.144175,79.1 -67.801177,0.144141,79.2 -67.802174,0.144095,78.4 -67.802653,0.144083,77.7 -67.802916,0.14409,78.0 -67.803184,0.14408,77.8 -67.804066,0.144074,77.5 -67.804258,0.144052,77.9 -67.804674,0.144042,78.1 -67.805292,0.144057,77.7 -67.805803,0.144056,79.5 -67.805936,0.144072,79.2 -67.806133,0.144071,79.2 -67.806585,0.144007,79.7 -67.806889,0.143943,79.3 -67.807541,0.143723,79.1 -67.807772,0.143655,79.1 -67.808934,0.143384,78.5 -67.809391,0.143253,78.7 -67.809856,0.143166,78.2 -67.810589,0.143056,78.0 -67.811894,0.142814,78.4 -67.81231,0.142719,78.1 -67.812863,0.142636,79.4 -67.813424,0.142614,79.0 -67.813854,0.142616,79.0 -67.814426,0.142647,78.7 -67.814788,0.142638,78.6 -67.815358,0.142667,78.7 -67.815919,0.142658,78.7 -67.817038,0.142699,78.9 -67.81738,0.142727,79.0 -67.818263,0.142866,79.4 -67.818927,0.143001,79.4 -67.819518,0.143135,79.5 -67.819862,0.14324,79.6 -67.820094,0.143334,78.0 -67.820152,0.143398,76.0 -67.820199,0.143388,78.0 -67.820341,0.143386,78.9 -67.820792,0.143396,79.3 -67.822127,0.143547,78.9 -67.822325,0.143592,78.6 -67.82274,0.143661,78.7 -67.823007,0.143722,79.4 -67.823353,0.143777,78.9 -67.823768,0.143824,78.7 -67.825165,0.144069,78.2 -67.826005,0.144195,78.8 -67.826629,0.144273,79.1 -67.827674,0.144437,79.2 -67.828919,0.144593,78.3 -67.82923,0.144601,78.7 -67.829299,0.144622,78.6 -67.829427,0.144639,78.6 -67.829905,0.144678,79.0 -67.830123,0.144683,79.1 -67.830773,0.144723,78.7 -67.831138,0.144767,78.4 -67.831432,0.144821,78.4 -67.831508,0.144798,79.4 -67.831727,0.144828,78.6 -67.831779,0.144853,78.5 -67.832127,0.144879,78.7 -67.832275,0.144901,78.2 -67.832703,0.144914,78.3 -67.835095,0.145095,78.6 -67.836203,0.145145,78.7 -67.836725,0.145151,79.3 -67.83702,0.145139,79.4 -67.838388,0.145044,79.8 -67.838676,0.144984,79.4 -67.838888,0.144922,78.8 -67.839158,0.144822,79.2 -67.83955,0.144622,78.9 -67.840072,0.144331,78.8 -67.84044,0.144106,78.8 -67.840804,0.143861,78.7 -67.841577,0.143277,78.8 -67.841955,0.143021,78.9 -67.842502,0.142701,78.8 -67.842785,0.14252,78.3 -67.843054,0.142313,78.6 -67.843207,0.142177,78.6 -67.843934,0.141473,78.4 -67.844299,0.141067,78.9 -67.844649,0.140646,79.9 -67.844981,0.140223,79.8 -67.845275,0.139832,80.2 -67.845591,0.13937,80.3 -67.845819,0.139064,80.8 -67.845953,0.138916,81.2 -67.846183,0.138623,80.7 -67.846494,0.138307,80.7 -67.846611,0.13821,80.8 -67.846991,0.137993,80.8 -67.847259,0.137886,80.9 -67.847397,0.137852,81.1 -67.847601,0.137824,81.2 -67.848078,0.13773,81.7 -67.848554,0.137619,81.4 -67.84926,0.137493,81.5 -67.849612,0.137419,81.7 -67.85075,0.137127,82.9 -67.851433,0.136996,82.9 -67.851986,0.136904,83.3 -67.85359,0.13666,84.3 -67.854085,0.136631,83.9 -67.854941,0.1366,84.2 -67.85558,0.136562,83.7 -67.856084,0.136548,83.5 -67.857436,0.136617,82.9 -67.858058,0.136693,82.8 -67.859106,0.136868,83.2 -67.85973,0.136959,83.3 -67.860152,0.137061,83.3 -67.86022,0.13709,83.4 -67.860355,0.137119,83.6 -67.861047,0.137309,83.4 -67.861178,0.137358,83.3 -67.861443,0.137419,83.7 -67.861581,0.137465,83.2 -67.863231,0.137916,82.7 -67.863372,0.137962,82.3 -67.86364,0.13803,82.5 -67.865014,0.138417,81.1 -67.866851,0.139038,78.7 -67.867391,0.139238,79.8 -67.868451,0.139699,80.1 -67.868923,0.139927,79.4 -67.870769,0.140962,78.1 -67.871222,0.1412,77.9 -67.871592,0.141433,77.7 -67.871706,0.141517,77.7 -67.872015,0.141796,78.2 -67.872661,0.142502,79.3 -67.873545,0.143493,79.7 -67.874132,0.144087,79.5 -67.875062,0.144934,78.9 -67.875517,0.145374,79.1 -67.876087,0.145888,78.8 -67.876412,0.146155,78.5 -67.877027,0.146622,78.6 -67.877373,0.146856,78.4 -67.878324,0.14745,78.8 -67.879227,0.14811,78.8 -67.87969,0.148425,78.3 -67.880221,0.148769,79.0 -67.881055,0.14927,78.7 -67.88178,0.14969,78.7 -67.881904,0.149753,79.4 -67.881958,0.149801,79.0 -67.88289,0.150409,78.8 -67.883426,0.150742,78.0 -67.883732,0.150916,78.0 -67.884353,0.151244,78.1 -67.885136,0.151717,78.2 -67.886304,0.152402,78.4 -67.887095,0.15279,78.1 -67.887299,0.152881,78.3 -67.887424,0.152954,78.2 -67.887663,0.153115,78.5 -67.888108,0.153451,79.4 -67.888368,0.15368,78.7 -67.888664,0.15397,78.4 -67.889923,0.155326,80.0 -67.890298,0.155655,80.2 -67.890755,0.156006,81.5 -67.89108,0.156288,80.8 -67.891547,0.156731,80.9 -67.891887,0.157,82.2 -67.892126,0.157161,82.3 -67.893057,0.1577,81.4 -67.893001,0.157594,80.0 -67.893433,0.157909,81.3 -67.893797,0.158141,80.7 -67.894479,0.158538,81.4 -67.895106,0.158879,81.0 -67.895346,0.159038,80.8 -67.895964,0.159378,80.7 -67.896448,0.159687,81.5 -67.896919,0.160018,80.8 -67.896729,0.159881,80.9 -67.897346,0.160292,80.3 -67.897978,0.16068,80.6 -67.898348,0.160938,79.8 -67.899289,0.161711,79.6 -67.900729,0.162711,79.5 -67.900963,0.162856,79.1 -67.901089,0.162913,78.9 -67.901414,0.163013,79.0 -67.901808,0.163106,78.9 -67.902552,0.163228,77.8 -67.903034,0.163279,78.9 -67.903602,0.163293,79.4 -67.904022,0.163321,78.3 -67.904219,0.163323,77.4 -67.904841,0.163423,78.8 -67.905589,0.163572,79.4 -67.90606,0.163686,80.1 -67.906464,0.163798,79.4 -67.908011,0.164253,78.6 -67.908543,0.164432,78.6 -67.909786,0.164715,78.4 -67.910335,0.164827,78.5 -67.910948,0.164916,78.0 -67.911356,0.164993,77.6 -67.911691,0.165079,76.7 -67.912483,0.165316,76.0 -67.913154,0.16549,76.4 -67.913741,0.165693,77.6 -67.914246,0.165916,76.9 -67.915368,0.166464,76.4 -67.91721,0.167457,76.7 -67.917898,0.167795,76.7 -67.918756,0.168095,76.5 -67.919557,0.168347,76.1 -67.919949,0.168505,75.8 -67.920509,0.168759,75.8 -67.920883,0.168916,75.1 -67.921015,0.168959,75.7 -67.921454,0.169131,75.4 -67.92223,0.16938,76.0 -67.922684,0.1695,76.0 -67.923012,0.169561,76.0 -67.923681,0.169651,76.0 -67.924149,0.1697,77.0 -67.924553,0.169727,76.2 -67.925243,0.169734,76.0 -67.925726,0.169706,75.9 -67.926071,0.169671,75.9 -67.926347,0.169673,75.5 -67.926901,0.169711,76.1 -67.927735,0.169747,75.3 -67.928845,0.169862,76.9 -67.929544,0.169909,77.1 -67.929819,0.169942,76.8 -67.930026,0.16998,76.4 -67.93085,0.170194,77.0 -67.931475,0.170318,77.3 -67.931951,0.170453,76.9 -67.932626,0.170685,77.2 -67.933041,0.17079,77.8 -67.933381,0.170889,78.4 -67.934738,0.171352,78.0 -67.934712,0.171325,77.9 -67.935473,0.17163,78.7 -67.937095,0.172148,79.7 -67.937763,0.172383,79.7 -67.938093,0.172512,80.0 -67.939377,0.173113,78.4 -67.93933,0.173034,78.2 -67.939506,0.173175,77.9 -67.940688,0.173722,77.8 -67.940987,0.173909,77.8 -67.941212,0.174085,78.1 -67.942118,0.17488,77.9 -67.942557,0.175237,78.4 -67.942597,0.175289,78.3 -67.942888,0.175587,78.3 -67.9432,0.175946,78.7 -67.943606,0.176479,78.2 -67.943837,0.176803,78.1 -67.944004,0.177013,78.0 -67.944866,0.17784,79.6 -67.945065,0.178015,79.1 -67.94541,0.178341,79.1 -67.945732,0.178598,79.3 -67.946171,0.178929,79.6 -67.946568,0.1792,79.0 -67.947222,0.179591,77.8 -67.947652,0.179809,77.8 -67.948104,0.179997,77.6 -67.948442,0.180104,78.0 -67.949897,0.180421,81.0 -67.9506,0.180517,81.0 -67.951091,0.180612,80.5 -67.951572,0.180722,80.1 -67.952761,0.1809,79.4 -67.953044,0.180923,78.8 -67.953935,0.181087,79.5 -67.954561,0.181164,80.1 -67.954769,0.181176,79.7 -67.955196,0.181179,80.1 -67.95604,0.181144,79.8 -67.956881,0.181191,79.8 -67.95879,0.181194,80.2 -67.959354,0.181217,80.3 -67.959775,0.181204,80.1 -67.963039,0.181276,79.0 -67.96489,0.181289,78.6 -67.965788,0.18133,78.5 -67.966501,0.181342,78.9 -67.967377,0.181343,79.8 -67.967597,0.181359,79.9 -67.967961,0.181412,80.1 -67.968622,0.18149,79.7 -67.969053,0.181589,79.5 -67.969408,0.1817,79.7 -67.969625,0.181757,79.5 -67.970644,0.181988,79.0 -67.971593,0.182258,79.7 -67.972474,0.182541,79.4 -67.972835,0.182674,78.9 -67.973409,0.182914,78.6 -67.974297,0.18322,78.7 -67.974803,0.183431,78.7 -67.975223,0.18363,78.4 -67.975485,0.183788,78.9 -67.975855,0.184062,79.0 -67.976336,0.184449,79.1 -67.976612,0.184715,79.1 -67.976906,0.185113,79.3 -67.977174,0.185515,80.0 -67.977309,0.185752,80.0 -67.97746,0.185984,80.1 -67.977626,0.186212,79.8 -67.977812,0.186432,79.6 -67.978165,0.186803,79.4 -67.978593,0.18721,78.8 -67.97898,0.187551,78.6 -67.979129,0.187704,79.1 -67.979306,0.187926,79.1 -67.979671,0.188529,78.9 -67.979926,0.189017,79.3 -67.980152,0.189528,79.9 -67.980278,0.189849,79.9 -67.980455,0.190374,79.8 -67.980506,0.190576,79.5 -67.980789,0.19245,79.8 -67.980918,0.193006,80.2 -67.981114,0.193632,80.7 -67.981462,0.194661,80.8 -67.981582,0.19492,80.9 -67.981725,0.19516,80.7 -67.981896,0.195374,80.7 -67.982339,0.195798,81.1 -67.98265,0.196065,80.7 -67.98303,0.196356,80.8 -67.983371,0.196585,81.2 -67.983665,0.19676,80.5 -67.984154,0.197015,79.8 -67.984662,0.197231,79.6 -67.985414,0.197592,79.5 -67.985741,0.197705,79.4 -67.986734,0.198012,78.7 -67.987473,0.198224,79.0 -67.988224,0.198383,79.2 -67.988644,0.198454,79.0 -67.989065,0.19851,79.7 -67.991711,0.199004,80.3 -67.992765,0.199212,79.5 -67.993681,0.199427,79.3 -67.994466,0.199554,79.4 -67.995039,0.199639,79.2 -67.995617,0.199707,79.6 -67.996566,0.199756,79.7 -67.997436,0.199836,78.9 -67.998017,0.19986,79.1 -67.998596,0.199923,78.6 -67.999246,0.199971,78.8 -67.99989,0.200072,78.5 -68.000248,0.200146,78.6 -68.000602,0.200237,79.1 -68.000956,0.200314,79.1 -68.001308,0.200413,79.1 -68.001591,0.200473,79.1 -68.003862,0.200871,77.7 -68.004281,0.200958,76.9 -68.004571,0.201001,77.3 -68.006359,0.201214,78.9 -68.007733,0.201345,78.9 -68.008244,0.201363,78.9 -68.009054,0.201333,79.0 -68.00935,0.201344,78.7 -68.01016,0.201416,78.7 -68.010758,0.201457,79.1 -68.01098,0.201481,79.1 -68.011936,0.20168,78.2 -68.012082,0.2017,79.6 -68.01266,0.201838,79.3 -68.013166,0.201975,79.5 -68.013876,0.202202,79.5 -68.014772,0.202567,79.2 -68.017827,0.20375,78.4 -68.018604,0.204018,78.8 -68.01966,0.204344,78.6 -68.02041,0.204636,78.3 -68.021226,0.204982,78.3 -68.022852,0.205699,77.9 -68.022993,0.205742,78.1 -68.023432,0.205826,78.3 -68.02395,0.205895,80.7 -68.024402,0.205911,81.5 -68.02485,0.205904,80.8 -68.025292,0.205872,80.9 -68.025737,0.205814,81.0 -68.026031,0.205786,81.1 -68.026328,0.205773,80.8 -68.026554,0.205776,80.8 -68.026929,0.205798,80.6 -68.02753,0.205865,80.0 -68.027971,0.205932,79.5 -68.028484,0.206029,78.8 -68.028918,0.206135,78.5 -68.02935,0.206255,78.7 -68.030081,0.2064,79.3 -68.030594,0.206472,79.6 -68.031477,0.206568,79.4 -68.03214,0.206659,79.5 -68.032798,0.206766,78.8 -68.033374,0.206879,78.6 -68.033593,0.206911,78.6 -68.034253,0.206963,78.7 -68.034836,0.20698,78.4 -68.035867,0.206961,80.4 -68.036521,0.206908,79.0 -68.036958,0.206861,79.0 -68.037388,0.2068,80.0 -68.03818,0.206667,80.8 -68.038754,0.206597,81.4 -68.038968,0.206554,81.6 -68.039375,0.20643,81.6 -68.03978,0.206286,81.1 -68.040105,0.206138,80.9 -68.040347,0.205988,80.6 -68.04087,0.205608,79.8 -68.041256,0.205288,79.2 -68.04167,0.204895,78.8 -68.041868,0.204686,78.5 -68.042438,0.204027,78.6 -68.04266,0.203736,78.5 -68.042955,0.203299,78.5 -68.043271,0.202792,79.5 -68.043413,0.202539,79.4 -68.04357,0.202226,79.4 -68.043725,0.201844,79.1 -68.043865,0.201534,77.9 -68.043992,0.201212,78.8 -68.04425,0.2005,80.1 -68.044458,0.199838,79.9 -68.044653,0.199307,79.2 -68.044849,0.198705,79.8 -68.045137,0.197904,78.7 -68.04527,0.197496,78.6 -68.045564,0.19645,78.3 -68.045654,0.196174,77.5 -68.045947,0.195347,78.2 -68.046292,0.194461,77.9 -68.046684,0.193364,78.6 -68.046741,0.193236,76.8 -68.047587,0.190511,79.0 -68.047962,0.189467,78.2 -68.048283,0.188635,78.2 -68.04858,0.187789,78.0 -68.048458,0.187786,78.0 -68.048647,0.187576,77.7 -68.048885,0.186716,78.3 -68.049186,0.185716,77.7 -68.049628,0.184429,77.4 -68.049806,0.183776,77.9 -68.049892,0.183488,78.1 -68.049969,0.183277,78.0 -68.049902,0.183336,77.7 -68.050025,0.183138,77.8 -68.050226,0.182568,77.3 -68.050398,0.182153,77.7 -68.051078,0.180893,78.0 -68.051239,0.180635,78.6 -68.051418,0.180388,78.8 -68.052307,0.179258,78.9 -68.052652,0.178777,79.5 -68.05288,0.178484,80.1 -68.053079,0.17817,80.0 -68.05333,0.177724,80.2 -68.053555,0.177347,79.8 -68.053762,0.176958,79.4 -68.05402,0.176433,79.3 -68.054621,0.175088,78.6 -68.055257,0.173764,79.1 -68.055339,0.173562,79.2 -68.055681,0.172598,78.6 -68.055787,0.172251,78.9 -68.055911,0.17176,78.1 -68.0561,0.171147,78.0 -68.05621,0.170658,78.9 -68.056395,0.169757,78.4 -68.056628,0.168486,79.0 -68.056715,0.167773,79.7 -68.056759,0.167125,80.1 -68.056786,0.166617,80.8 -68.056771,0.166646,80.4 -68.056772,0.1664,80.7 -68.056809,0.165815,80.1 -68.0568,0.1648,78.4 -68.05678,0.164212,79.0 -68.056755,0.163623,78.0 -68.056691,0.16267,77.7 -68.056677,0.162006,79.0 -68.056692,0.160016,80.1 -68.056648,0.158986,79.1 -68.056595,0.158101,78.8 -68.05659,0.157582,78.9 -68.056567,0.157066,78.7 -68.056576,0.156336,78.0 -68.056647,0.155469,77.6 -68.056693,0.154591,77.7 -68.056722,0.153426,77.3 -68.05676,0.152848,77.8 -68.056765,0.152557,77.7 -68.056747,0.152227,77.7 -68.0567,0.151761,78.0 -68.056648,0.151653,78.0 -68.056488,0.151465,78.0 -68.056345,0.151345,78.9 -68.056268,0.151209,78.0 -68.056286,0.151403,84.0 -68.056291,0.151357,82.0 -68.05634,0.151221,80.0 -68.05639,0.151041,81.8 -68.056405,0.150946,81.8 -68.05644,0.150547,80.9 -68.056473,0.149926,80.5 -68.056506,0.148758,79.3 -68.056485,0.147874,78.5 -68.056464,0.147438,78.6 -68.056432,0.147075,78.1 -68.056391,0.146791,77.0 -68.056293,0.146293,77.9 -68.056086,0.145384,78.0 -68.055927,0.144838,78.8 -68.055717,0.144229,78.5 -68.055517,0.143694,78.8 -68.055329,0.143231,78.9 -68.055202,0.142967,79.5 -68.054918,0.142321,78.6 -68.054457,0.141345,78.9 -68.053963,0.14038,78.4 -68.053669,0.139717,78.3 -68.053557,0.139515,78.8 -68.053546,0.139462,77.8 -68.053338,0.139079,78.4 -68.053176,0.138752,77.8 -68.052909,0.138143,78.9 -68.05251,0.137277,79.1 -68.052361,0.136862,79.6 -68.052219,0.13629,79.2 -68.052035,0.135126,79.8 -68.051979,0.134695,78.8 -68.051927,0.13418,79.1 -68.051871,0.133448,79.2 -68.051859,0.133003,79.8 -68.051873,0.132711,79.3 -68.051976,0.131905,79.9 -68.052034,0.131537,80.0 -68.052172,0.130865,80.6 -68.052255,0.130359,80.7 -68.052304,0.130188,80.7 -68.052514,0.129247,80.3 -68.052966,0.127735,83.5 -68.053062,0.12737,83.4 -68.053169,0.12693,83.4 -68.053213,0.12671,82.7 -68.053305,0.12635,82.8 -68.053495,0.1254,81.7 -68.05353,0.125179,81.4 -68.053583,0.124662,81.0 -68.053622,0.123347,79.9 -68.053639,0.122908,79.8 -68.05368,0.122328,81.3 -68.053696,0.121677,80.1 -68.053712,0.119281,81.4 -68.053707,0.118838,80.9 -68.053663,0.118106,80.6 -68.053609,0.117597,81.1 -68.053564,0.116938,82.2 -68.053485,0.115313,80.6 -68.05346,0.115019,79.6 -68.053433,0.114869,78.9 -68.053438,0.114798,79.7 -68.053409,0.113699,80.5 -68.053412,0.113477,81.1 -68.053439,0.113109,81.0 -68.053491,0.112744,80.7 -68.053582,0.11231,80.2 -68.053754,0.111666,80.7 -68.053901,0.111164,81.9 -68.054031,0.11081,82.6 -68.05437,0.109973,82.9 -68.05504,0.108542,82.1 -68.05547,0.10749,82.2 -68.055545,0.107281,81.7 -68.055695,0.106949,81.6 -68.056137,0.105784,81.8 -68.056506,0.104911,80.9 -68.056799,0.104323,80.8 -68.056908,0.104132,81.1 -68.057034,0.103951,80.8 -68.057457,0.103443,80.6 -68.057751,0.103116,80.8 -68.05791,0.102964,81.2 -68.058201,0.10274,81.5 -68.05841,0.10254,82.5 -68.058566,0.102374,81.6 -68.05905,0.101804,82.5 -68.059555,0.101249,82.5 -68.05986,0.100934,81.9 -68.06002,0.100785,82.5 -68.060526,0.100353,81.9 -68.061369,0.099745,82.1 -68.061842,0.099424,81.0 -68.06197,0.099349,81.9 -68.062524,0.099096,82.6 -68.062993,0.098864,82.8 -68.063544,0.098626,83.3 -68.063965,0.098471,83.2 -68.064789,0.098187,81.6 -68.065069,0.098099,80.8 -68.065773,0.097906,81.0 -68.065989,0.097865,80.4 -68.066632,0.0978,80.8 -68.067054,0.097744,80.9 -68.067487,0.097714,80.3 -68.067845,0.097705,80.6 -68.06835,0.097723,80.6 -68.068779,0.097759,80.6 -68.069563,0.097881,81.0 -68.069996,0.097981,80.9 -68.07062,0.098148,82.1 -68.071268,0.098332,82.4 -68.071614,0.098446,81.4 -68.071887,0.098556,81.2 -68.072289,0.098736,81.1 -68.07293,0.099082,80.9 -68.073686,0.09952,80.0 -68.07393,0.099675,80.0 -68.074841,0.10037,80.0 -68.075439,0.100769,81.0 -68.075947,0.10115,80.8 -68.076356,0.101421,81.0 -68.077262,0.101962,80.1 -68.077614,0.1022,81.4 -68.078898,0.103017,80.6 -68.079779,0.103544,80.2 -68.080488,0.103938,80.4 -68.081285,0.104328,81.1 -68.083672,0.105387,81.3 -68.084373,0.105654,80.7 -68.084926,0.10589,80.7 -68.085657,0.106269,80.9 -68.086486,0.10677,81.8 -68.087029,0.107141,82.0 -68.087208,0.107279,81.3 -68.087486,0.107515,81.4 -68.088603,0.108374,81.9 -68.089308,0.108929,80.7 -68.09003,0.109433,82.0 -68.090829,0.109928,81.3 -68.091147,0.110107,81.4 -68.091667,0.110381,81.1 -68.092466,0.110767,79.9 -68.093008,0.111002,80.5 -68.095069,0.111793,81.7 -68.095878,0.112125,82.6 -68.096771,0.112544,82.7 -68.097039,0.112689,82.6 -68.097689,0.113082,82.7 -68.099096,0.113798,84.6 -68.100214,0.114428,82.9 -68.100593,0.114675,82.4 -68.101089,0.115024,83.7 -68.101662,0.1154,84.7 -68.102243,0.1158,82.0 -68.103375,0.116518,79.0 -68.104226,0.117023,78.1 -68.105025,0.117468,74.4 -68.105224,0.117568,73.9 -68.105344,0.117611,76.9 -68.105668,0.117756,81.3 -68.106058,0.117949,81.4 -68.1079,0.118945,83.4 -68.110151,0.120051,83.7 -68.111264,0.120627,82.6 -68.111524,0.120771,83.0 -68.112234,0.121184,83.3 -68.112485,0.121343,83.4 -68.113104,0.121755,83.0 -68.114011,0.122387,83.7 -68.114699,0.122831,84.0 -68.115472,0.123283,84.6 -68.11591,0.123563,84.6 -68.116616,0.123962,83.4 -68.117334,0.124344,83.1 -68.117865,0.124584,82.7 -68.118274,0.124744,83.0 -68.118756,0.124898,82.9 -68.119106,0.124989,82.4 -68.119876,0.125156,82.6 -68.120087,0.125184,82.8 -68.121002,0.125252,82.1 -68.121141,0.125252,82.2 -68.12135,0.125235,82.1 -68.121981,0.12517,81.6 -68.123173,0.125022,82.2 -68.124085,0.12488,82.7 -68.124576,0.124792,82.1 -68.124856,0.124731,81.9 -68.125479,0.124558,82.0 -68.126759,0.124111,82.7 -68.127218,0.123926,82.4 -68.12828,0.123536,81.8 -68.128952,0.123308,82.0 -68.129492,0.123148,81.3 -68.129549,0.123116,81.7 -68.129681,0.123069,83.6 -68.129822,0.123035,83.2 -68.13043,0.122846,83.2 -68.131088,0.122623,83.8 -68.132345,0.122158,83.2 -68.13295,0.121959,83.6 -68.133746,0.121678,83.3 -68.136774,0.120567,81.5 -68.138985,0.119728,81.8 -68.140019,0.119371,81.1 -68.140238,0.119287,81.2 -68.140629,0.119159,81.3 -68.142272,0.118574,81.6 -68.14309,0.11827,82.5 -68.145114,0.117458,84.4 -68.146862,0.116734,84.2 -68.147391,0.116494,84.0 -68.147853,0.116263,83.7 -68.149038,0.115697,82.5 -68.14956,0.115428,82.7 -68.150031,0.115208,83.0 -68.150683,0.11487,82.8 -68.151144,0.114653,82.9 -68.151727,0.114343,83.5 -68.152613,0.113822,85.5 -68.15287,0.113684,84.2 -68.153135,0.113559,83.0 -68.153435,0.113362,83.4 -68.153631,0.113258,82.5 -68.154882,0.11248,83.0 -68.155716,0.111894,81.9 -68.156358,0.111413,81.9 -68.157013,0.110938,83.2 -68.157177,0.110796,82.2 -68.157759,0.110338,82.9 -68.158317,0.109879,82.3 -68.159179,0.109219,82.5 -68.160707,0.108096,83.0 -68.160933,0.107919,83.4 -68.161145,0.107727,83.2 -68.161386,0.10745,83.0 -68.161605,0.107158,83.9 -68.161925,0.106669,83.7 -68.162212,0.106147,84.2 -68.162513,0.105632,84.0 -68.162978,0.10494,82.9 -68.163215,0.10465,82.6 -68.163575,0.10426,82.6 -68.163709,0.104086,82.7 -68.163816,0.103976,82.4 -68.164197,0.103515,83.3 -68.164444,0.103238,82.5 -68.164528,0.103122,82.2 -68.164843,0.102794,81.6 -68.165592,0.101876,80.8 -68.166128,0.101253,82.2 -68.166348,0.100956,82.5 -68.166652,0.1005,82.1 -68.166754,0.100374,82.2 -68.166898,0.100229,81.0 -68.16699,0.100156,80.0 -68.167073,0.100063,81.1 -68.167371,0.099543,81.4 -68.167498,0.099287,81.6 -68.167643,0.099033,82.1 -68.167845,0.098718,81.8 -68.167896,0.09866,81.6 -68.16812,0.098272,82.4 -68.168357,0.097887,82.8 -68.168406,0.097824,82.9 -68.168476,0.097695,82.8 -68.168812,0.097193,82.2 -68.168971,0.096935,82.2 -68.169382,0.096213,82.3 -68.169634,0.095817,82.6 -68.169856,0.095428,83.0 -68.169942,0.095298,83.1 -68.16997,0.095236,82.8 -68.170178,0.094905,81.6 -68.170369,0.094575,81.3 -68.170397,0.094503,80.2 -68.170534,0.094233,80.7 -68.170639,0.09405,80.0 -68.170826,0.093663,81.0 -68.171259,0.092653,82.3 -68.171453,0.092016,82.4 -68.171575,0.091469,81.3 -68.171647,0.091055,82.9 -68.171696,0.090708,82.5 -68.171749,0.090088,82.3 -68.171774,0.08955,82.0 -68.171766,0.089134,81.9 -68.171801,0.088708,81.0 -68.171844,0.088368,81.5 -68.171941,0.087817,82.5 -68.17201,0.087331,83.0 -68.172088,0.086478,83.2 -68.172134,0.085344,84.2 -68.172144,0.084708,84.2 -68.172261,0.083287,83.4 -68.17227,0.082652,82.9 -68.172317,0.082008,82.4 -68.172336,0.081501,82.8 -68.172427,0.080281,82.1 -68.172497,0.07956,82.5 -68.172524,0.078836,82.6 -68.172566,0.078118,82.6 -68.172569,0.077686,82.8 -68.172538,0.077116,83.0 -68.172472,0.074678,83.6 -68.172458,0.073519,83.7 -68.172464,0.073082,84.3 -68.172492,0.072144,85.3 -68.172589,0.070691,83.7 -68.172615,0.069398,83.0 -68.172641,0.068893,82.9 -68.17265,0.067977,82.8 -68.172687,0.067035,82.2 -68.1727,0.06632,82.9 -68.172734,0.065823,82.8 -68.172744,0.065254,83.1 -68.172788,0.064332,83.0 -68.172861,0.063196,82.5 -68.172873,0.062623,82.5 -68.172866,0.062478,82.3 -68.172878,0.062334,81.7 -68.172899,0.061547,83.2 -68.172898,0.060986,83.2 -68.17293,0.060636,82.8 -68.173023,0.059872,82.6 -68.17304,0.059805,82.2 -68.173211,0.058253,82.0 -68.17331,0.057554,81.7 -68.173402,0.05655,83.0 -68.173425,0.055821,82.5 -68.173453,0.055481,83.4 -68.173456,0.055257,82.9 -68.173516,0.054268,84.5 -68.173544,0.054059,84.7 -68.173606,0.053784,84.5 -68.173706,0.053447,84.6 -68.174235,0.052049,84.9 -68.174315,0.051772,84.4 -68.174405,0.051345,83.2 -68.174518,0.050416,83.2 -68.174625,0.049637,83.0 -68.174652,0.049349,83.0 -68.174679,0.048561,83.2 -68.174701,0.04828,82.4 -68.174713,0.04777,82.7 -68.174705,0.047402,83.6 -68.174671,0.046739,83.7 -68.174576,0.045697,82.8 -68.174546,0.045251,83.2 -68.174369,0.044044,83.5 -68.174303,0.043359,83.7 -68.174287,0.043053,83.5 -68.174217,0.042512,81.6 -68.174131,0.042048,83.5 -68.17399,0.04144,82.8 -68.173868,0.040988,83.1</coordinates>
                </LineString>
            </MultiGeometry>
        </Placemark>
    </Document>
</kml>
