<?xml version="1.0" encoding="UTF-8"?>
<kml xmlns="http://www.opengis.net/kml/2.2" xmlns:gx="http://www.google.com/kml/ext/2.2">
    <Document id="1">
        <Style id="18">
            <IconStyle id="19">
                <colorMode>normal</colorMode>
                <scale>1</scale>
                <heading>0</heading>
                <Icon id="20">
                    <href>red-pin-down.png</href>
                </Icon>
            </IconStyle>
        </Style>
        <Style id="23">
            <IconStyle id="24">
                <colorMode>normal</colorMode>
                <scale>1</scale>
                <heading>0</heading>
                <Icon id="25">
                    <href>red-pin-down.png</href>
                </Icon>
            </IconStyle>
        </Style>
        <Placemark id="3">
            <Style id="6">
                <LineStyle id="7">
                    <color>ffE1DA00</color>
                    <colorMode>normal</colorMode>
                    <width>1</width>
                </LineStyle>
            </Style>
            <Style id="10">
                <LineStyle id="11">
                    <color>ffE1DA00</color>
                    <colorMode>normal</colorMode>
                    <width>1</width>
                </LineStyle>
            </Style>
            <Style id="14">
                <LineStyle id="15">
                    <color>ffE1DA00</color>
                    <colorMode>normal</colorMode>
                    <width>1</width>
                </LineStyle>
            </Style>
            <name>Trilha mão da bela adormecida</name>
            <description/>
            <MultiGeometry id="2">
                <LineString id="4">
                    <extrude>0</extrude>
                    <altitudeMode>clampToGround</altitudeMode>
                    <coordinates>-66.83759,-0.305555,73.5 -66.837357,-0.305318,139.5 -66.837378,-0.305293,138.1 -66.837396,-0.305296,137.8 -66.837546,-0.305399,134.0 -66.837525,-0.305403,126.0 -66.83751,-0.305438,120.0 -66.837566,-0.305432,121.0 -66.83758,-0.305527,135.6 -66.837526,-0.305451,134.8 -66.837493,-0.305441,128.0 -66.837401,-0.305495,138.8 -66.837353,-0.305539,139.0 -66.837325,-0.305549,142.0 -66.837271,-0.30564,144.0 -66.837235,-0.305652,147.0 -66.837214,-0.305644,147.0 -66.837137,-0.305648,150.0 -66.837104,-0.305661,150.0 -66.837096,-0.305686,149.0 -66.837056,-0.305603,144.0 -66.836983,-0.305581,149.0 -66.836936,-0.305505,148.0 -66.836902,-0.305493,148.0 -66.83685,-0.305496,147.0 -66.836817,-0.305509,140.0 -66.836808,-0.305537,148.0 -66.836744,-0.305606,150.0 -66.83668,-0.305615,152.0 -66.836657,-0.305665,154.0 -66.836634,-0.305632,159.0 -66.836619,-0.305732,160.0 -66.836547,-0.305778,164.0 -66.836529,-0.305842,160.0 -66.836562,-0.305849,167.0 -66.836535,-0.305862,171.0 -66.836505,-0.305925,166.0 -66.836465,-0.305874,174.0 -66.836439,-0.30589,174.0 -66.836411,-0.306006,169.0 -66.836379,-0.306059,175.0 -66.836367,-0.306159,181.0 -66.836329,-0.306179,182.0 -66.836325,-0.306231,184.0 -66.83629,-0.306288,195.0 -66.83622,-0.306296,192.0 -66.836246,-0.306402,196.0 -66.83624,-0.306455,196.0 -66.836264,-0.306477,200.0 -66.836208,-0.306531,203.0 -66.836218,-0.306553,203.0 -66.836129,-0.306702,210.0 -66.836118,-0.306815,217.4 -66.836128,-0.306833,216.0 -66.836061,-0.306961,222.0 -66.836031,-0.306978,224.0 -66.836094,-0.307057,233.0 -66.836105,-0.307104,231.0 -66.836075,-0.307079,234.0 -66.83606,-0.307141,237.0 -66.83603,-0.307137,234.0 -66.835988,-0.307111,238.0 -66.835859,-0.307157,240.0 -66.835833,-0.307141,245.0 -66.835788,-0.307196,246.0 -66.835789,-0.307228,250.0 -66.835757,-0.307276,248.0 -66.835739,-0.307263,249.0 -66.835693,-0.307272,245.0 -66.835698,-0.307305,252.0 -66.835621,-0.30738,247.0 -66.835575,-0.307385,252.0 -66.835567,-0.307356,259.0 -66.83557,-0.307392,258.0 -66.835536,-0.30742,259.0 -66.835555,-0.307416,258.0 -66.835513,-0.307432,258.0 -66.835464,-0.307466,255.0 -66.83542,-0.307443,259.0 -66.835383,-0.307454,252.0 -66.835357,-0.307544,259.0 -66.835307,-0.307509,264.0 -66.835351,-0.30757,267.0 -66.835419,-0.307521,273.0 -66.835444,-0.307514,274.0 -66.835457,-0.307568,273.0 -66.835489,-0.307617,273.0 -66.835454,-0.307636,266.0 -66.835532,-0.307648,255.0 -66.835517,-0.307603,240.0 -66.835552,-0.307636,255.0 -66.835604,-0.307715,252.0 -66.835591,-0.307668,252.0 -66.835652,-0.307568,261.0 -66.835691,-0.30753,270.0 -66.835718,-0.307524,274.0 -66.835687,-0.307588,277.3 -66.835509,-0.307573,273.0 -66.835638,-0.307517,274.0 -66.835613,-0.307561,274.2 -66.835574,-0.307584,277.8 -66.835539,-0.307582,279.2 -66.835586,-0.307542,280.0 -66.835681,-0.307494,276.0 -66.835701,-0.307626,279.0 -66.835654,-0.307646,280.0 -66.835602,-0.307639,284.0 -66.835457,-0.307585,280.0 -66.835464,-0.30754,274.0 -66.835427,-0.307611,278.0 -66.835401,-0.307609,270.0 -66.83542,-0.307683,275.0 -66.83541,-0.307716,273.0 -66.835368,-0.307765,277.0 -66.835386,-0.307735,281.0 -66.835379,-0.307682,288.0 -66.835344,-0.307687,288.0 -66.835353,-0.307725,288.0 -66.835338,-0.307757,288.0 -66.835376,-0.307788,288.0 -66.835313,-0.307951,299.0 -66.835284,-0.307984,308.0 -66.835263,-0.307967,306.0 -66.835162,-0.308021,306.0 -66.835103,-0.308041,311.4 -66.835046,-0.308115,312.0 -66.834992,-0.308163,315.0 -66.835042,-0.308212,321.0 -66.835054,-0.308289,320.0 -66.83503,-0.30832,324.0 -66.835011,-0.308374,325.0 -66.834935,-0.30838,330.0 -66.834853,-0.308411,334.0 -66.834792,-0.308462,336.0 -66.834704,-0.30847,336.0 -66.834671,-0.308494,342.3 -66.834656,-0.308485,341.0 -66.834553,-0.308581,345.0 -66.834552,-0.308673,346.0 -66.83452,-0.308701,344.0 -66.834479,-0.308818,352.0 -66.834495,-0.308889,353.0 -66.83448,-0.308917,352.0 -66.834485,-0.308982,353.0 -66.834428,-0.309047,358.0 -66.834424,-0.309103,355.0 -66.834391,-0.309136,360.0 -66.834304,-0.309144,362.0 -66.834183,-0.30924,364.0 -66.834154,-0.309286,366.0 -66.834062,-0.309336,367.0 -66.834027,-0.309331,369.0 -66.834011,-0.309357,366.0 -66.833932,-0.309357,368.0 -66.833816,-0.309446,373.0 -66.833785,-0.309451,372.0 -66.833756,-0.309475,372.0 -66.833752,-0.30951,371.0 -66.833719,-0.309515,372.0 -66.833703,-0.309552,369.0 -66.833667,-0.30959,368.0 -66.833676,-0.309664,368.0 -66.833767,-0.309696,370.0 -66.833847,-0.309662,367.7 -66.833753,-0.309711,368.0 -66.8336,-0.30965,366.0 -66.833574,-0.309699,367.0 -66.833525,-0.309722,372.0 -66.833474,-0.309699,371.0 -66.833405,-0.309717,360.0 -66.83334,-0.309703,368.0 -66.83331,-0.30974,370.0 -66.833248,-0.309778,368.0 -66.833197,-0.309869,368.0 -66.83312,-0.309925,365.0 -66.833108,-0.309966,367.0 -66.833117,-0.310027,364.0 -66.833093,-0.310047,360.0 -66.833058,-0.310056,366.0 -66.833023,-0.310113,368.0 -66.833017,-0.310132,366.0 -66.833037,-0.31019,364.0 -66.833048,-0.310157,366.0 -66.832997,-0.310148,368.0 -66.832994,-0.310172,368.0 -66.832992,-0.310127,365.0 -66.832972,-0.3101,366.0 -66.832935,-0.310163,361.0 -66.832907,-0.310186,365.0 -66.832925,-0.310221,365.0 -66.832963,-0.310255,365.0 -66.832944,-0.310209,360.0 -66.832865,-0.310257,360.0 -66.832819,-0.310215,360.0 -66.832852,-0.310245,356.0 -66.832829,-0.310161,362.0 -66.832866,-0.310206,357.0 -66.832899,-0.310159,360.0 -66.832869,-0.310145,359.0 -66.832825,-0.310197,360.0 -66.832859,-0.31018,366.7 -66.832819,-0.310155,365.0 -66.832882,-0.31021,360.0 -66.832839,-0.310231,353.0 -66.832856,-0.310153,356.0 -66.832804,-0.310164,359.0 -66.832823,-0.310182,354.0 -66.83279,-0.31023,365.0 -66.832851,-0.310227,359.0 -66.832917,-0.310244,360.0 -66.832924,-0.310212,360.0 -66.832884,-0.310153,357.0 -66.832887,-0.310126,355.0 -66.832885,-0.310118,365.4 -66.832842,-0.310128,358.0 -66.832839,-0.310081,360.0 -66.832912,-0.31023,361.5 -66.832966,-0.310221,362.0 -66.832987,-0.310248,364.0 -66.832879,-0.31017,364.0 -66.832832,-0.310153,358.0 -66.8328,-0.310207,363.0 -66.832821,-0.310258,360.0 -66.832815,-0.310303,360.0 -66.832775,-0.310396,363.0 -66.832778,-0.310435,364.0 -66.832749,-0.310497,364.0 -66.832766,-0.310602,366.0 -66.832761,-0.310695,364.0 -66.832787,-0.310745,367.0 -66.83279,-0.310707,366.0 -66.832835,-0.310761,366.0 -66.832822,-0.310813,366.0 -66.832849,-0.310872,366.0 -66.832926,-0.310971,370.5 -66.83298,-0.310989,366.0 -66.832999,-0.311072,369.0 -66.833025,-0.311046,369.0 -66.833059,-0.311036,368.0 -66.833043,-0.311071,374.9 -66.833059,-0.311103,372.0 -66.833109,-0.311105,374.0 -66.833126,-0.311076,373.0 -66.833141,-0.311146,375.0 -66.833169,-0.31112,374.0 -66.833179,-0.311159,374.0 -66.833176,-0.311249,369.0 -66.833193,-0.311323,376.0 -66.833079,-0.311457,376.0 -66.833066,-0.311549,375.0 -66.833112,-0.311595,380.0 -66.833082,-0.31161,380.0 -66.833027,-0.311583,379.0 -66.833004,-0.311617,378.0 -66.833002,-0.311684,378.0 -66.83295,-0.311831,381.0 -66.832894,-0.311802,378.0 -66.832859,-0.311814,380.0 -66.832798,-0.311874,382.0 -66.832826,-0.311895,381.0 -66.83276,-0.311963,383.0 -66.832711,-0.311975,384.0 -66.832599,-0.311957,385.0 -66.832614,-0.312078,387.0 -66.832607,-0.312142,385.0 -66.832656,-0.312149,386.0 -66.832624,-0.312232,386.0 -66.832666,-0.312232,388.0 -66.832671,-0.312276,390.3 -66.832641,-0.312279,385.0 -66.832665,-0.312316,391.0 -66.832587,-0.312353,392.0 -66.832559,-0.312384,393.0 -66.83255,-0.312419,392.0 -66.83257,-0.312447,396.0 -66.832552,-0.312475,397.0 -66.832548,-0.312509,398.0 -66.832566,-0.312532,398.0 -66.832572,-0.312576,399.0 -66.832572,-0.312544,399.0 -66.832579,-0.312588,396.0 -66.832566,-0.312626,401.0 -66.832594,-0.312668,400.0 -66.832583,-0.312699,399.0 -66.832612,-0.312782,396.0 -66.832597,-0.31282,400.0 -66.832568,-0.312841,404.0 -66.832592,-0.312876,404.0 -66.832574,-0.312855,408.0 -66.832585,-0.312887,408.0 -66.832558,-0.312954,408.0 -66.832518,-0.312973,403.0 -66.83255,-0.313018,411.0 -66.832482,-0.313043,414.0 -66.832447,-0.313009,413.0 -66.832489,-0.313037,415.0 -66.832411,-0.313023,414.0 -66.832432,-0.313031,417.0 -66.832449,-0.313065,413.0 -66.832414,-0.313116,414.0 -66.83241,-0.313148,414.0 -66.832433,-0.313206,419.0 -66.832366,-0.313242,423.0 -66.832325,-0.313359,425.0 -66.832381,-0.313356,423.0 -66.832359,-0.313332,429.0 -66.832343,-0.313356,429.0 -66.832336,-0.313415,427.0 -66.832366,-0.313425,430.0 -66.832331,-0.313437,432.0 -66.832391,-0.313465,424.0 -66.832488,-0.313533,430.0 -66.832413,-0.313473,423.0 -66.832409,-0.313504,428.0 -66.83235,-0.313478,429.0 -66.832418,-0.313505,423.0 -66.832445,-0.313538,427.0 -66.832472,-0.313489,430.0 -66.832527,-0.313514,429.0 -66.83251,-0.313492,429.0 -66.832564,-0.313595,426.0 -66.8325,-0.313484,428.0 -66.832449,-0.313476,420.0 -66.832379,-0.313513,430.0 -66.832455,-0.313493,428.0 -66.832474,-0.313508,430.0 -66.83242,-0.313508,433.4 -66.832419,-0.313554,432.0 -66.83239,-0.313586,437.4 -66.832418,-0.313658,436.0 -66.832439,-0.313636,435.0 -66.832441,-0.313678,438.0 -66.83246,-0.313649,439.0 -66.832484,-0.313671,440.0 -66.832447,-0.313778,436.8 -66.832418,-0.313786,436.0 -66.832407,-0.313831,440.0 -66.832472,-0.313933,446.0 -66.832377,-0.313942,450.0 -66.832408,-0.313943,450.0 -66.832378,-0.313952,452.0 -66.832389,-0.313981,450.0 -66.832363,-0.314008,450.0 -66.832324,-0.314002,451.0 -66.832262,-0.314038,448.0 -66.832173,-0.31404,450.0 -66.832184,-0.314084,450.0 -66.832134,-0.314092,454.0 -66.832155,-0.314084,454.0 -66.832163,-0.314164,450.0 -66.832124,-0.314181,456.0 -66.832077,-0.314219,457.0 -66.832096,-0.31425,456.0 -66.832101,-0.314289,459.0 -66.832067,-0.314327,455.0 -66.83203,-0.314309,460.0 -66.832008,-0.314285,462.8 -66.831999,-0.314319,460.0 -66.832013,-0.314362,464.0 -66.831989,-0.314402,464.0 -66.831996,-0.314434,465.0 -66.831932,-0.314471,468.0 -66.831885,-0.314522,468.0 -66.831896,-0.314597,468.0 -66.831948,-0.314669,471.0 -66.83189,-0.314693,470.0 -66.831789,-0.314802,472.0 -66.83181,-0.314834,469.0 -66.831737,-0.314873,476.0 -66.831734,-0.314948,476.0 -66.831756,-0.314972,477.6 -66.831755,-0.315008,477.0 -66.831845,-0.315047,476.9 -66.831896,-0.315051,475.0 -66.831916,-0.315141,474.0 -66.831892,-0.315164,474.0 -66.831835,-0.315164,470.0 -66.83182,-0.315205,474.7 -66.831787,-0.315247,474.0 -66.831798,-0.315288,469.0 -66.831789,-0.315319,475.0 -66.831763,-0.315316,476.0 -66.831789,-0.315303,475.0 -66.831772,-0.315344,476.0 -66.831757,-0.315299,476.3 -66.83173,-0.315387,475.0 -66.83177,-0.31542,476.0 -66.831653,-0.315528,480.0 -66.831663,-0.315565,480.0 -66.831612,-0.315536,482.0 -66.83162,-0.315581,480.0 -66.831652,-0.315634,482.0 -66.831659,-0.315695,480.0 -66.831651,-0.315767,486.4 -66.831699,-0.315784,485.0 -66.831716,-0.315807,486.0 -66.831688,-0.315787,487.0 -66.831744,-0.315759,485.0 -66.831777,-0.315766,485.0 -66.831758,-0.315813,486.0 -66.831763,-0.31589,483.0 -66.8317,-0.315896,486.0 -66.831682,-0.31593,488.0 -66.83164,-0.315948,489.0 -66.831574,-0.315959,488.0 -66.831559,-0.315989,488.0 -66.831546,-0.316062,495.0 -66.831557,-0.316107,497.0 -66.831512,-0.316082,498.8 -66.831512,-0.316114,496.0 -66.831469,-0.31611,498.0 -66.831425,-0.316128,497.0 -66.831443,-0.316133,503.0 -66.831457,-0.316193,499.0 -66.831406,-0.316184,500.0 -66.831422,-0.316224,502.5 -66.831455,-0.316249,501.0 -66.831462,-0.316294,502.0 -66.831465,-0.316262,504.0 -66.831488,-0.316299,504.0 -66.831459,-0.316337,504.0 -66.83139,-0.316344,508.0 -66.831356,-0.316331,508.0 -66.831385,-0.316389,508.0 -66.831336,-0.316413,510.0 -66.83137,-0.316414,513.0 -66.831363,-0.316448,514.0 -66.831355,-0.316409,514.0 -66.831336,-0.316414,511.0 -66.831313,-0.316371,514.6 -66.831416,-0.316431,513.9 -66.831331,-0.316431,512.0 -66.831297,-0.316459,513.0 -66.831264,-0.316462,510.0 -66.831274,-0.316495,513.0 -66.831325,-0.316518,512.0 -66.831224,-0.316517,512.0 -66.831199,-0.316539,514.0 -66.831068,-0.316545,515.0 -66.831031,-0.316569,512.0 -66.831018,-0.316597,517.0 -66.831056,-0.3166,516.0 -66.831069,-0.31665,518.0 -66.83103,-0.316651,518.0 -66.830998,-0.316678,517.0 -66.830991,-0.316654,520.0 -66.83102,-0.316616,520.0 -66.831065,-0.316662,519.0 -66.830977,-0.31664,515.0 -66.830967,-0.316681,521.0 -66.830902,-0.316708,522.0 -66.830942,-0.31677,524.0 -66.830914,-0.316807,525.0 -66.830935,-0.316836,530.0 -66.830934,-0.316944,534.0 -66.830945,-0.316972,533.3 -66.830916,-0.316981,531.0 -66.830968,-0.317005,536.0 -66.830958,-0.31697,539.8 -66.830984,-0.316998,537.0 -66.830968,-0.317082,536.0 -66.830935,-0.317111,535.0 -66.830945,-0.317192,545.0 -66.830987,-0.317239,544.0 -66.83105,-0.317286,546.0 -66.831002,-0.317325,549.0 -66.831042,-0.317282,548.0 -66.831085,-0.31727,546.0 -66.831041,-0.317249,528.0 -66.831069,-0.317292,548.0 -66.831102,-0.31731,548.6 -66.831048,-0.317266,548.0 -66.83103,-0.317292,546.0 -66.830953,-0.317323,553.0 -66.83099,-0.31731,551.0 -66.830952,-0.317273,546.0 -66.83101,-0.317429,549.2 -66.830975,-0.317284,551.0 -66.830827,-0.317291,553.0 -66.830948,-0.317319,544.0 -66.831057,-0.317283,540.0 -66.831033,-0.317346,548.0 -66.831067,-0.317424,553.0 -66.831043,-0.317516,555.0 -66.830936,-0.317603,565.0 -66.830917,-0.317628,561.0 -66.8309,-0.317704,566.0 -66.830824,-0.317787,570.0 -66.830754,-0.317824,578.0 -66.830808,-0.31792,585.0 -66.830858,-0.317972,585.0 -66.830825,-0.318007,591.0 -66.830848,-0.318045,591.0 -66.830876,-0.318061,590.0 -66.830886,-0.318264,598.0 -66.830918,-0.318355,603.0 -66.830949,-0.318366,604.0 -66.830978,-0.318394,613.0 -66.830969,-0.318426,614.0 -66.830992,-0.318559,622.0 -66.83102,-0.318578,621.0 -66.830957,-0.318664,631.0 -66.830951,-0.318698,632.0 -66.830877,-0.31883,638.0 -66.830834,-0.318931,636.0 -66.830838,-0.318973,640.0 -66.830818,-0.319133,644.0 -66.830721,-0.319265,650.0 -66.830725,-0.31931,660.0 -66.830677,-0.319435,664.0 -66.830742,-0.319518,664.0 -66.830765,-0.319574,670.0 -66.8308,-0.3196,672.0 -66.830812,-0.319666,672.0 -66.830871,-0.319736,672.0 -66.830913,-0.31977,673.0 -66.830899,-0.319811,671.0 -66.830915,-0.319896,672.0 -66.830945,-0.31991,672.0 -66.830962,-0.319944,678.0 -66.830999,-0.319968,678.0 -66.831007,-0.320025,672.0 -66.831082,-0.320011,679.0 -66.831047,-0.320033,681.0 -66.83102,-0.320082,677.0 -66.830972,-0.320088,684.0 -66.830964,-0.320134,682.0 -66.830905,-0.320165,684.0 -66.83091,-0.320219,691.0 -66.830964,-0.320308,693.0 -66.831012,-0.320344,696.0 -66.831009,-0.320404,698.0 -66.831045,-0.320455,693.0 -66.831041,-0.320518,689.0 -66.831004,-0.320691,706.0 -66.830961,-0.320713,708.0 -66.830947,-0.320779,710.0 -66.83096,-0.320836,712.0 -66.830981,-0.32086,710.0 -66.830971,-0.32089,710.0 -66.830987,-0.320925,712.0 -66.83096,-0.320962,720.0 -66.830915,-0.320988,725.0 -66.83086,-0.320988,728.0 -66.830846,-0.321019,726.0 -66.830814,-0.321027,729.0 -66.830782,-0.321,728.0 -66.830724,-0.321053,731.0 -66.830678,-0.32107,732.0 -66.830701,-0.321199,737.0 -66.830649,-0.321227,739.0 -66.830653,-0.321281,735.0 -66.830624,-0.321294,746.0 -66.830584,-0.321288,740.0 -66.830561,-0.321327,750.0 -66.830568,-0.321353,752.0 -66.83056,-0.321386,748.0 -66.830529,-0.321406,752.0 -66.830476,-0.321403,755.0 -66.830427,-0.32147,756.0 -66.830377,-0.321452,756.0 -66.830355,-0.321477,760.0 -66.830301,-0.321501,764.0 -66.830256,-0.321492,761.0 -66.83023,-0.321566,763.0 -66.830246,-0.321538,771.0 -66.830234,-0.321584,765.0 -66.830242,-0.321668,774.0 -66.830258,-0.321766,759.0 -66.830296,-0.32183,780.0 -66.830294,-0.321888,783.0 -66.83028,-0.321931,781.0 -66.830298,-0.321966,784.0 -66.830345,-0.321984,786.0 -66.830348,-0.32196,784.0 -66.830455,-0.321976,780.0 -66.830558,-0.322074,788.0 -66.830578,-0.322104,788.0 -66.830581,-0.322138,788.0 -66.830611,-0.322218,791.0 -66.83063,-0.322242,794.0 -66.830595,-0.322345,796.0 -66.830678,-0.322431,805.0 -66.83069,-0.322475,807.0 -66.83065,-0.322513,805.0 -66.830669,-0.322538,808.0 -66.830728,-0.322699,806.0 -66.830727,-0.322666,816.0 -66.83074,-0.322702,815.0 -66.830779,-0.32275,816.0 -66.830736,-0.322846,816.0 -66.830736,-0.322868,817.0 -66.830678,-0.322784,820.0 -66.830732,-0.322797,816.0 -66.830748,-0.322825,810.0 -66.830836,-0.322817,804.0 -66.830817,-0.322868,803.0 -66.830782,-0.322891,792.0 -66.830825,-0.322912,800.0 -66.830917,-0.322877,816.0 -66.830867,-0.322927,806.0 -66.830836,-0.322865,806.0 -66.830844,-0.322925,800.0 -66.830868,-0.322879,807.0 -66.83089,-0.322906,802.0 -66.83085,-0.322971,795.0 -66.830813,-0.322951,801.0 -66.830823,-0.322917,814.0 -66.830831,-0.322939,823.0 -66.830812,-0.322967,823.0 -66.830823,-0.32298,825.0 -66.830815,-0.323022,836.0 -66.830821,-0.323077,832.0 -66.830787,-0.323228,844.0 -66.830818,-0.323312,837.0 -66.830761,-0.323364,858.0 -66.83076,-0.32339,857.0 -66.83074,-0.323435,865.0 -66.830728,-0.323491,872.0 -66.830805,-0.323628,880.0 -66.830759,-0.323716,880.0 -66.830727,-0.323729,880.0 -66.830724,-0.323767,885.0 -66.830737,-0.323823,890.0 -66.830676,-0.323879,880.0 -66.830688,-0.323913,892.0 -66.830578,-0.323882,894.0 -66.830544,-0.323861,891.0 -66.830524,-0.323954,885.0 -66.830484,-0.323991,895.0 -66.830483,-0.324023,897.0 -66.830466,-0.324063,904.0 -66.830413,-0.324117,900.0 -66.830382,-0.324103,901.0 -66.830337,-0.324133,908.8 -66.830316,-0.324163,906.0 -66.830368,-0.324184,907.0 -66.830386,-0.32423,912.0 -66.830389,-0.324271,912.9 -66.8304,-0.324255,914.0 -66.830307,-0.324226,915.0 -66.830334,-0.324207,924.0 -66.83039,-0.3242,923.0 -66.830445,-0.324149,925.8 -66.830414,-0.32415,925.0 -66.830395,-0.324181,928.0 -66.8304,-0.324259,925.0 -66.83037,-0.324265,926.0 -66.830344,-0.324249,924.0 -66.830324,-0.324215,924.0 -66.83034,-0.324256,925.0 -66.830302,-0.324343,927.0 -66.830312,-0.324413,924.0 -66.830347,-0.324455,937.0 -66.830337,-0.32453,938.2 -66.830308,-0.324506,935.0 -66.830294,-0.324557,936.0 -66.830298,-0.324611,941.0 -66.830327,-0.324684,940.0 -66.830293,-0.324715,949.0 -66.830299,-0.324822,960.0 -66.830292,-0.324853,952.0 -66.830316,-0.324859,964.0 -66.830262,-0.324983,969.0 -66.830199,-0.325063,969.0 -66.830095,-0.32506,973.0 -66.83002,-0.325092,972.0 -66.829981,-0.325101,973.0 -66.829941,-0.325096,972.0 -66.829868,-0.32519,973.0 -66.829945,-0.325285,973.0 -66.829919,-0.325255,967.0 -66.829906,-0.325289,980.0 -66.82991,-0.325337,982.0 -66.829888,-0.325435,980.0 -66.829853,-0.325451,988.0 -66.829819,-0.32553,992.0 -66.829781,-0.325572,988.0 -66.829761,-0.32565,996.0 -66.829699,-0.325725,994.0 -66.829734,-0.325817,999.0 -66.829818,-0.325944,1008.0 -66.829819,-0.32602,1008.0 -66.82984,-0.326031,1014.0 -66.82984,-0.326112,1014.0 -66.829861,-0.326158,1021.0 -66.829821,-0.326178,1020.0 -66.829781,-0.326226,1017.0 -66.829595,-0.326332,1025.0 -66.829587,-0.326377,1032.0 -66.829616,-0.326413,1032.0 -66.829621,-0.326455,1031.8 -66.829643,-0.326483,1039.8 -66.829646,-0.326456,1035.0 -66.829631,-0.326423,1030.0 -66.829656,-0.326415,1032.0 -66.829652,-0.326385,1029.0 -66.829665,-0.326374,1026.0 -66.829718,-0.326381,1028.0 -66.829756,-0.326352,1024.7 -66.829676,-0.326371,1024.0 -66.829693,-0.326373,1020.0 -66.829711,-0.326353,1026.0 -66.829522,-0.326344,1030.0 -66.829458,-0.326385,1032.0 -66.82932,-0.326358,1038.0 -66.829291,-0.326371,1036.0 -66.829262,-0.326361,1040.0 -66.829126,-0.326361,1040.0 -66.829103,-0.326391,1042.0 -66.829149,-0.326425,1041.0 -66.829098,-0.326435,1040.0 -66.829025,-0.32642,1044.0 -66.829108,-0.326452,1040.0 -66.829082,-0.326441,1030.0 -66.829036,-0.326456,1044.0 -66.829102,-0.326456,1054.2 -66.82903,-0.326443,1045.0 -66.829025,-0.326465,1045.0 -66.828973,-0.326493,1048.0 -66.828903,-0.326522,1050.0 -66.828845,-0.326432,1061.0 -66.828875,-0.326385,1060.0 -66.828874,-0.326326,1055.0 -66.828812,-0.326291,1032.0 -66.828817,-0.326246,1047.0 -66.828777,-0.326229,1044.0 -66.828798,-0.326075,1050.0 -66.828826,-0.326052,1059.7</coordinates>
                </LineString>
                <LineString id="8">
                    <extrude>0</extrude>
                    <altitudeMode>clampToGround</altitudeMode>
                    <coordinates>-66.82993,-0.326123,1022.6 -66.829976,-0.32612,1011.0 -66.829932,-0.326132,1013.8 -66.8299,-0.326126,1018.0 -66.829853,-0.326149,1013.0 -66.829775,-0.326104,1016.0 -66.829806,-0.326098,1015.0 -66.82982,-0.326115,1016.0 -66.829807,-0.326085,1012.0 -66.829856,-0.325999,1008.0 -66.829805,-0.326009,1010.5 -66.829798,-0.325685,991.0 -66.829814,-0.325665,991.0 -66.829777,-0.325674,992.0 -66.829735,-0.325653,988.0 -66.82998,-0.325356,991.6 -66.829992,-0.325313,986.0 -66.82997,-0.325304,982.0 -66.830074,-0.325264,985.4 -66.830129,-0.325338,984.3 -66.82995,-0.325277,980.0 -66.829965,-0.325203,980.3 -66.829946,-0.325142,980.1 -66.829925,-0.325156,979.0 -66.829978,-0.32509,978.0 -66.82997,-0.325128,978.0 -66.829949,-0.325157,978.8 -66.829951,-0.325199,981.0 -66.830005,-0.325045,980.0 -66.829993,-0.325135,977.7 -66.83002,-0.325107,972.0 -66.830076,-0.325087,973.0 -66.830112,-0.325111,976.0 -66.830111,-0.325067,976.0 -66.830189,-0.32507,978.5 -66.830207,-0.324987,976.0 -66.830145,-0.325026,976.9 -66.830175,-0.325,976.9 -66.830191,-0.324902,977.0 -66.830157,-0.325003,974.0 -66.830199,-0.324906,980.6 -66.830125,-0.324997,973.2 -66.830292,-0.324983,969.0 -66.830295,-0.325002,970.0 -66.830314,-0.324986,973.0 -66.830296,-0.325002,974.5 -66.830215,-0.324974,968.0 -66.830362,-0.324906,969.5 -66.830344,-0.324932,969.6 -66.830265,-0.324854,962.0 -66.830294,-0.324812,960.0 -66.830294,-0.324836,962.2 -66.830336,-0.324687,959.0 -66.83034,-0.324723,956.0 -66.830381,-0.324626,946.0 -66.830374,-0.324512,954.1 -66.830426,-0.32452,953.5 -66.830405,-0.324573,953.8 -66.83037,-0.324603,951.2 -66.830365,-0.324564,950.0 -66.83029,-0.324557,936.0 -66.830288,-0.324699,949.0 -66.830275,-0.324587,946.0 -66.830308,-0.324544,940.0 -66.83035,-0.324553,943.0 -66.830325,-0.32458,935.0 -66.830422,-0.324548,943.7 -66.830446,-0.324515,941.0 -66.830396,-0.324505,942.0 -66.830426,-0.324446,940.0 -66.830339,-0.324486,939.0 -66.830364,-0.324465,945.0 -66.830423,-0.32447,945.0 -66.830341,-0.324423,936.0 -66.830342,-0.32439,934.0 -66.830366,-0.324373,933.0 -66.830312,-0.324326,932.4 -66.830376,-0.324239,932.2 -66.830328,-0.324298,928.0 -66.830362,-0.324286,928.0 -66.830355,-0.32422,928.9 -66.830381,-0.324225,928.0 -66.830405,-0.324252,926.0 -66.830419,-0.324197,924.0 -66.83032,-0.32405,924.0 -66.830262,-0.32418,924.7 -66.830334,-0.324219,924.5 -66.830405,-0.324226,921.0 -66.830415,-0.324308,920.0 -66.830376,-0.324285,921.0 -66.830392,-0.324249,926.0 -66.830462,-0.32426,917.0 -66.830491,-0.324303,924.0 -66.830357,-0.324186,924.6</coordinates>
                </LineString>
                <LineString id="12">
                    <extrude>0</extrude>
                    <altitudeMode>clampToGround</altitudeMode>
                    <coordinates>-66.839194,-0.304614,94.6 -66.839194,-0.304614,94.6</coordinates>
                </LineString>
            </MultiGeometry>
        </Placemark>
        <Placemark id="17">
            <name>Wpt 25/05/2026, 14:33:44</name>
            <description/>
            <styleUrl>#18</styleUrl>
            <Point id="16">
                <coordinates>-66.82882,-0.32606,1000</coordinates>
            </Point>
        </Placemark>
        <Placemark id="22">
            <name>Corda subida coração da bela</name>
            <description/>
            <styleUrl>#23</styleUrl>
            <Point id="21">
                <coordinates>-66.83088,-0.32289,850</coordinates>
            </Point>
        </Placemark>
    </Document>
</kml>
