<?xml version="1.0" encoding="UTF-8"?>
<kml xmlns="http://www.opengis.net/kml/2.2" xmlns:gx="http://www.google.com/kml/ext/2.2">
    <Document id="1">
        <Style id="14">
            <IconStyle id="15">
                <colorMode>normal</colorMode>
                <scale>1</scale>
                <heading>0</heading>
                <Icon id="16">
                    <href>red-pin-down.png</href>
                </Icon>
            </IconStyle>
        </Style>
        <Placemark id="3">
            <Style id="6">
                <LineStyle id="7">
                    <color>ffFF7904</color>
                    <colorMode>normal</colorMode>
                    <width>1</width>
                </LineStyle>
            </Style>
            <Style id="10">
                <LineStyle id="11">
                    <color>ffFF7904</color>
                    <colorMode>normal</colorMode>
                    <width>1</width>
                </LineStyle>
            </Style>
            <name>Trilha paredão da arara</name>
            <description/>
            <MultiGeometry id="2">
                <LineString id="4">
                    <extrude>0</extrude>
                    <altitudeMode>clampToGround</altitudeMode>
                    <coordinates>-66.845513,-0.301947,121.0 -66.845475,-0.301936,121.3 -66.845453,-0.301916,117.5 -66.845462,-0.301912,116.8 -66.84544,-0.301927,115.0 -66.845422,-0.30188,114.0 -66.845469,-0.301886,112.0 -66.845462,-0.301826,113.0 -66.845405,-0.301805,115.0 -66.845384,-0.301833,111.0 -66.845411,-0.301719,119.0 -66.845435,-0.301789,113.0 -66.845341,-0.301756,107.0 -66.845384,-0.301787,103.0 -66.845394,-0.301847,100.0 -66.845366,-0.301821,111.0 -66.845357,-0.301782,113.0 -66.845384,-0.301764,115.3 -66.84541,-0.301767,114.0 -66.845399,-0.301754,112.0 -66.845397,-0.301782,110.0 -66.845385,-0.301799,112.0 -66.845447,-0.301861,112.0 -66.8454,-0.301855,113.0 -66.845463,-0.301768,114.0 -66.84536,-0.302082,112.0 -66.845343,-0.302035,110.0 -66.845397,-0.302034,117.0 -66.845411,-0.302011,116.0 -66.845387,-0.301996,120.0 -66.845403,-0.302026,114.0 -66.845322,-0.30204,120.0 -66.845286,-0.302075,120.0 -66.845277,-0.302097,113.0 -66.845315,-0.302122,118.0 -66.845327,-0.302154,120.0 -66.845294,-0.302187,123.0 -66.845267,-0.302174,125.0 -66.845305,-0.302203,124.0 -66.845389,-0.302298,126.0 -66.845404,-0.302351,119.0 -66.845381,-0.302381,132.0 -66.845339,-0.302497,131.1 -66.84531,-0.302517,131.0 -66.845333,-0.302515,129.0 -66.845302,-0.302642,127.0 -66.84533,-0.302649,130.0 -66.845267,-0.302637,130.0 -66.845195,-0.302657,127.0 -66.845159,-0.302657,130.0 -66.845124,-0.302704,127.0 -66.845166,-0.302702,130.0 -66.845126,-0.302755,126.0 -66.845163,-0.302857,127.8 -66.845138,-0.30287,129.0 -66.845159,-0.302862,126.0 -66.845155,-0.302889,129.0 -66.845168,-0.302961,132.0 -66.845253,-0.303014,136.0 -66.845298,-0.302949,132.0 -66.84534,-0.302923,132.0 -66.845355,-0.30289,132.0 -66.845454,-0.302785,136.0 -66.845474,-0.302831,138.0 -66.845514,-0.302833,138.0 -66.845545,-0.302852,137.0 -66.845611,-0.302773,140.0 -66.845653,-0.30277,140.0 -66.84565,-0.302825,138.0 -66.845703,-0.302845,144.0 -66.845776,-0.302851,141.0 -66.845734,-0.302899,143.0 -66.84571,-0.302872,145.0 -66.845725,-0.302833,144.0 -66.845757,-0.302858,140.0 -66.84572,-0.302883,144.0 -66.845773,-0.302826,144.1 -66.845763,-0.302701,144.0 -66.845789,-0.302715,144.0 -66.845763,-0.302739,138.0 -66.845805,-0.302679,148.0 -66.845795,-0.302722,147.0 -66.845848,-0.302699,146.0 -66.845878,-0.302719,149.0 -66.845831,-0.302746,147.0 -66.845776,-0.302753,146.0 -66.84579,-0.302722,150.0 -66.845783,-0.302749,148.0 -66.845725,-0.302707,148.0 -66.845694,-0.302714,144.0 -66.845715,-0.302789,145.0 -66.845749,-0.30277,147.0 -66.845724,-0.302744,147.0 -66.845799,-0.302714,148.4 -66.845829,-0.302743,148.0 -66.845728,-0.302765,142.1 -66.845765,-0.302772,145.3 -66.845907,-0.302849,144.0 -66.845815,-0.302851,145.0 -66.84577,-0.302834,151.0 -66.845804,-0.302886,150.9 -66.845825,-0.302899,149.0 -66.845873,-0.302888,151.3 -66.845934,-0.302899,150.0 -66.845951,-0.302874,151.0 -66.845999,-0.302867,150.0 -66.845928,-0.302945,152.7 -66.8459,-0.302912,152.0 -66.84591,-0.302766,152.0 -66.845934,-0.302779,151.0 -66.845906,-0.302802,150.0 -66.845936,-0.302906,147.0 -66.845956,-0.302872,155.0 -66.845946,-0.302825,154.0 -66.84597,-0.302874,144.0 -66.845924,-0.302778,152.0 -66.845914,-0.302852,146.0 -66.845922,-0.302822,151.0 -66.845922,-0.302844,141.0 -66.84595,-0.302806,150.0 -66.84594,-0.302838,152.0 -66.845947,-0.302899,150.0 -66.845991,-0.302833,151.9 -66.845959,-0.302806,150.0 -66.845968,-0.302868,149.0 -66.846036,-0.302896,149.0 -66.846098,-0.302894,150.7 -66.846053,-0.302925,149.0 -66.846185,-0.303014,152.0 -66.846143,-0.30299,153.0 -66.846146,-0.302947,150.0 -66.846178,-0.302929,152.0 -66.846136,-0.302862,150.0 -66.846157,-0.302892,148.0 -66.846139,-0.302864,147.0 -66.846171,-0.302867,153.0 -66.846239,-0.302926,153.0 -66.846196,-0.302961,156.0 -66.846207,-0.302999,158.0 -66.84622,-0.30298,157.0 -66.846105,-0.302819,151.0 -66.846188,-0.302867,153.0 -66.846158,-0.302858,150.0 -66.846117,-0.30295,153.0 -66.846239,-0.303028,155.0 -66.846409,-0.302852,156.0 -66.846319,-0.302875,158.5 -66.846261,-0.302905,158.1 -66.846274,-0.302949,153.0 -66.846242,-0.30293,158.0 -66.846293,-0.302976,159.9 -66.846306,-0.302928,159.0 -66.846365,-0.302928,157.0 -66.846297,-0.302914,158.0 -66.846339,-0.302963,157.9 -66.846358,-0.30291,157.3 -66.846328,-0.302925,156.0 -66.846302,-0.302968,156.0 -66.846266,-0.30297,156.0 -66.846289,-0.302948,154.0 -66.846305,-0.302846,156.0 -66.846256,-0.302845,156.0 -66.846238,-0.302904,156.0 -66.846246,-0.302869,154.0 -66.846332,-0.302896,158.0 -66.846329,-0.302861,140.0 -66.846256,-0.302891,157.3 -66.8463,-0.302866,152.0 -66.846327,-0.302812,156.0 -66.846293,-0.302799,153.0 -66.846276,-0.30286,156.0 -66.846235,-0.302946,158.0 -66.846248,-0.302866,157.8 -66.84629,-0.302896,157.6 -66.846268,-0.302821,154.0 -66.846277,-0.3028,158.0 -66.84627,-0.302715,157.0 -66.846274,-0.302765,156.0 -66.846262,-0.302801,156.0 -66.846273,-0.302859,155.0 -66.846339,-0.302884,155.0 -66.846379,-0.302931,156.0 -66.846437,-0.302945,156.0 -66.846518,-0.303092,170.0 -66.846584,-0.303092,169.0 -66.846631,-0.303166,169.0 -66.846656,-0.303128,180.0 -66.84666,-0.30318,182.0 -66.846681,-0.303204,182.0 -66.846702,-0.30326,184.0 -66.846668,-0.303286,184.0 -66.846746,-0.303315,186.0 -66.846747,-0.303266,174.0 -66.846812,-0.303305,194.0 -66.846831,-0.303403,195.0 -66.846898,-0.303436,200.0 -66.846918,-0.303517,198.0 -66.846999,-0.303567,207.0 -66.847025,-0.303618,208.0 -66.847052,-0.303635,211.0 -66.847055,-0.303695,212.0 -66.847101,-0.303697,216.0 -66.847151,-0.303776,210.0 -66.847188,-0.303784,215.0 -66.847229,-0.303774,220.0 -66.847261,-0.303754,223.0 -66.847286,-0.303802,220.0 -66.847392,-0.303749,230.3 -66.84736,-0.303831,231.0 -66.847391,-0.303827,231.0 -66.847409,-0.303784,231.0 -66.847376,-0.303817,239.0 -66.847427,-0.303847,235.0 -66.847421,-0.303877,233.0 -66.847543,-0.303834,237.7 -66.847529,-0.303795,236.0 -66.847473,-0.303828,237.0 -66.847522,-0.303855,239.5 -66.847495,-0.303868,235.0 -66.847523,-0.303848,230.0 -66.847498,-0.303872,230.0 -66.84747,-0.303848,237.0 -66.84748,-0.30383,237.0 -66.847537,-0.303805,235.0 -66.847545,-0.303824,235.0 -66.847504,-0.303897,237.7 -66.847555,-0.303827,240.0 -66.847524,-0.303811,240.0 -66.847566,-0.303861,237.0 -66.847594,-0.303854,240.0 -66.847532,-0.303875,243.0 -66.847597,-0.303851,243.0 -66.847632,-0.303863,245.4 -66.847596,-0.303852,245.0 -66.847707,-0.303811,244.5 -66.847657,-0.303821,240.0 -66.84763,-0.303852,244.0 -66.847633,-0.303921,245.4 -66.847586,-0.303911,244.0 -66.847554,-0.303951,240.0 -66.847546,-0.303921,244.0 -66.84756,-0.303887,240.0 -66.847541,-0.303853,240.0 -66.847518,-0.303874,239.0 -66.847559,-0.303951,236.0 -66.847644,-0.304038,234.0 -66.847693,-0.304012,247.0 -66.847811,-0.304027,259.9 -66.847803,-0.304046,256.0 -66.847838,-0.30408,260.0 -66.84786,-0.304047,253.0 -66.84791,-0.304021,263.0 -66.847792,-0.304141,266.0 -66.847845,-0.3041,266.0 -66.84785,-0.30404,263.4</coordinates>
                </LineString>
                <LineString id="8">
                    <extrude>0</extrude>
                    <altitudeMode>clampToGround</altitudeMode>
                    <coordinates>-66.847974,-0.302318,210.9 -66.847978,-0.302354,207.9 -66.847948,-0.302339,207.5 -66.847948,-0.302331,210.9 -66.847917,-0.302335,214.0 -66.847908,-0.302368,198.0 -66.847876,-0.302339,212.0 -66.847871,-0.302318,208.0 -66.847906,-0.302288,211.0 -66.847933,-0.302312,210.0 -66.8479,-0.302355,211.6 -66.84791,-0.3023,210.0 -66.847876,-0.302274,213.0 -66.847848,-0.302296,214.0 -66.847858,-0.302266,209.0 -66.847897,-0.302261,202.0 -66.847889,-0.30221,190.0 -66.847922,-0.30216,200.0 -66.847873,-0.302119,197.0 -66.84785,-0.302153,199.0 -66.847909,-0.302057,196.0 -66.847879,-0.302075,193.0 -66.847948,-0.301932,195.0 -66.848004,-0.301879,196.7 -66.848016,-0.301846,196.0 -66.848049,-0.301802,190.0 -66.848066,-0.301717,181.0 -66.848047,-0.301673,183.0 -66.848075,-0.301667,176.0 -66.848062,-0.301636,178.0 -66.848066,-0.301594,173.0 -66.848036,-0.301507,168.0 -66.848065,-0.301437,171.0 -66.848053,-0.301397,169.0 -66.848094,-0.301355,164.0 -66.848106,-0.301329,160.0 -66.848089,-0.301285,151.0 -66.848055,-0.301291,153.0 -66.84803,-0.301284,156.0 -66.847995,-0.301304,153.0 -66.847949,-0.301287,151.0 -66.847957,-0.301186,143.0 -66.84794,-0.301131,146.0 -66.847978,-0.301136,144.0 -66.847958,-0.301122,143.0 -66.847933,-0.301061,144.0 -66.847897,-0.301069,142.0 -66.847854,-0.300982,140.0 -66.847906,-0.300954,140.0 -66.84787,-0.300903,140.0 -66.847881,-0.300865,138.0 -66.847866,-0.30083,136.0 -66.847924,-0.30086,131.0 -66.847888,-0.300887,132.0 -66.84787,-0.300921,132.0 -66.847869,-0.300876,136.0 -66.847839,-0.300878,136.0 -66.84785,-0.300826,135.0 -66.847885,-0.300781,136.0 -66.847878,-0.300739,128.0 -66.847891,-0.3007,132.0 -66.847819,-0.3007,127.0 -66.847776,-0.300685,126.4 -66.847797,-0.300657,121.0 -66.847796,-0.300633,120.0 -66.847771,-0.300588,120.0 -66.84779,-0.300536,120.0 -66.847785,-0.300483,120.0 -66.847724,-0.300467,120.2 -66.847712,-0.300483,119.0 -66.847728,-0.300499,118.0 -66.847711,-0.300483,116.0 -66.847737,-0.300396,115.0 -66.847771,-0.300365,114.0 -66.847768,-0.300322,114.0 -66.847823,-0.300353,116.0 -66.847792,-0.300401,115.0 -66.847747,-0.300365,114.0 -66.847725,-0.300387,114.0 -66.847676,-0.300402,112.0 -66.8477,-0.300338,110.0 -66.847663,-0.300307,110.0 -66.847724,-0.300247,112.0 -66.847697,-0.300258,112.0 -66.847737,-0.300259,110.0 -66.84767,-0.300248,115.0 -66.847688,-0.300226,111.0 -66.847724,-0.300223,107.0 -66.847752,-0.300183,109.7 -66.847814,-0.300193,108.0 -66.84783,-0.300223,110.0 -66.847829,-0.30018,104.0 -66.847777,-0.300177,114.5 -66.847823,-0.300158,112.0 -66.847792,-0.30014,110.0 -66.847769,-0.300166,111.0 -66.847774,-0.300191,112.0 -66.847754,-0.300148,110.0 -66.847767,-0.300122,101.0 -66.847763,-0.300086,100.0 -66.84781,-0.299997,96.0 -66.84782,-0.299956,102.0 -66.847796,-0.299926,101.0 -66.847785,-0.299865,100.0 -66.847799,-0.299833,98.0 -66.847785,-0.299771,98.0 -66.8478,-0.299731,99.0 -66.84778,-0.299688,102.3 -66.847812,-0.299664,100.0 -66.847759,-0.299651,102.0 -66.847727,-0.299667,102.0 -66.847683,-0.299647,102.0 -66.847645,-0.299645,102.0 -66.847658,-0.299698,100.0 -66.847654,-0.299739,99.0 -66.847635,-0.299709,99.0 -66.847546,-0.299723,98.0 -66.84752,-0.299742,96.0 -66.847489,-0.299746,97.0 -66.847482,-0.299723,93.0 -66.847418,-0.299757,96.0 -66.847389,-0.299748,96.0 -66.84729,-0.299815,93.0 -66.847247,-0.299866,96.0 -66.847197,-0.299902,96.0 -66.847072,-0.299949,100.0 -66.847004,-0.299953,98.0 -66.847008,-0.300005,101.0 -66.847048,-0.300109,96.0 -66.847022,-0.300138,100.0 -66.84699,-0.300119,99.0 -66.846983,-0.300163,100.0 -66.846903,-0.300171,100.0 -66.846874,-0.300241,100.0 -66.846811,-0.30025,96.0 -66.846801,-0.300392,102.0 -66.846768,-0.300383,100.0 -66.846703,-0.300251,105.0 -66.846837,-0.300449,102.2 -66.846803,-0.300438,99.0 -66.846785,-0.3004,102.0 -66.846869,-0.300372,106.9 -66.846879,-0.300321,106.0 -66.846937,-0.300253,97.0 -66.846937,-0.300217,102.7 -66.845983,-0.301666,-64.9 -66.846839,-0.300159,-32.5 -66.846841,-0.300381,24.0 -66.846823,-0.300296,100.0 -66.846844,-0.300327,102.5 -66.846661,-0.300362,103.1 -66.846652,-0.3004,100.0 -66.846675,-0.300568,117.5 -66.846678,-0.300526,117.1 -66.846591,-0.300617,133.9 -66.846577,-0.300574,135.0 -66.846598,-0.300513,145.8 -66.846584,-0.300455,151.9 -66.846607,-0.300582,142.0 -66.84653,-0.300612,118.0 -66.8465,-0.30061,109.0 -66.846405,-0.300697,106.0 -66.846341,-0.30074,121.0 -66.846517,-0.30095,125.0 -66.846392,-0.300903,124.0 -66.846338,-0.300921,127.0 -66.846413,-0.30103,111.5 -66.846169,-0.301144,117.0 -66.846128,-0.300849,112.0 -66.846109,-0.300892,110.4 -66.846195,-0.301039,104.0 -66.846199,-0.301072,106.0 -66.846262,-0.301237,108.0 -66.846216,-0.301199,102.0 -66.846195,-0.301139,107.0 -66.846237,-0.301137,103.0 -66.846198,-0.301263,106.0 -66.846093,-0.30118,106.0 -66.846125,-0.30122,104.0 -66.846162,-0.301235,101.1 -66.846116,-0.301237,103.4 -66.846065,-0.301162,100.0 -66.846015,-0.301197,100.0 -66.845978,-0.301196,101.0 -66.846009,-0.301152,99.0 -66.845981,-0.301154,87.0 -66.845962,-0.301171,84.0 -66.845893,-0.301186,81.0 -66.845928,-0.301146,81.0 -66.8458,-0.301065,93.0 -66.845728,-0.300991,95.7 -66.845691,-0.300972,97.0 -66.845694,-0.301019,97.0 -66.845649,-0.301005,107.0 -66.845627,-0.301009,110.0 -66.845592,-0.300983,108.0 -66.845557,-0.301015,105.5 -66.845517,-0.30103,102.0 -66.845478,-0.301017,89.0 -66.845415,-0.301013,80.0 -66.845356,-0.301042,83.0 -66.845309,-0.301052,87.0 -66.845189,-0.300983,98.0 -66.845178,-0.301052,98.4 -66.845115,-0.301059,98.0 -66.845156,-0.301067,97.0 -66.845196,-0.301096,87.0 -66.845282,-0.301188,100.7 -66.845269,-0.301244,89.0 -66.845292,-0.301309,98.0 -66.84524,-0.301304,95.0 -66.845292,-0.301437,107.0 -66.845325,-0.301452,110.7 -66.845357,-0.301413,105.0 -66.845398,-0.301428,101.0 -66.845427,-0.301448,97.0 -66.845459,-0.301509,93.0 -66.845489,-0.301536,95.0 -66.845135,-0.301518,105.4 -66.845059,-0.301535,100.0 -66.845148,-0.301468,105.0 -66.845123,-0.30145,92.0 -66.844992,-0.30151,109.0 -66.84502,-0.301526,118.0 -66.845059,-0.301526,124.0 -66.84493,-0.301782,103.0 -66.844948,-0.301879,111.0 -66.844926,-0.301861,111.0 -66.844934,-0.30193,116.3 -66.845021,-0.302038,109.0 -66.844996,-0.302016,111.0 -66.844895,-0.302245,115.4 -66.84483,-0.302188,110.0 -66.844754,-0.302098,100.0 -66.844806,-0.302051,99.6 -66.84479,-0.30209,91.0 -66.844645,-0.302152,112.6 -66.844685,-0.302174,116.0 -66.844592,-0.302166,116.0 -66.844598,-0.302202,117.0 -66.844527,-0.302208,117.0 -66.844457,-0.302231,116.1 -66.844444,-0.30226,121.0 -66.844472,-0.302255,121.0 -66.844389,-0.302269,118.4 -66.844326,-0.30226,117.0 -66.844359,-0.302264,114.0 -66.844309,-0.302284,116.0 -66.844299,-0.302359,109.0 -66.844136,-0.302264,122.0 -66.844108,-0.302208,124.0 -66.844016,-0.302082,125.0 -66.844035,-0.302123,122.0 -66.843957,-0.302123,117.3 -66.84393,-0.302107,115.0 -66.843881,-0.302041,119.3 -66.843908,-0.302088,123.0 -66.843815,-0.302063,115.2 -66.843745,-0.302009,115.7 -66.84375,-0.302083,113.0 -66.843705,-0.30215,109.0 -66.843698,-0.302262,119.0 -66.843569,-0.302276,114.4 -66.843614,-0.302257,111.0 -66.843478,-0.302255,108.0 -66.843529,-0.302425,99.9 -66.843484,-0.302428,100.0 -66.843452,-0.302466,102.0 -66.843313,-0.302511,103.0 -66.843278,-0.302466,102.0 -66.843243,-0.30249,103.4 -66.843235,-0.30246,102.1 -66.843171,-0.302428,101.2 -66.843134,-0.302441,99.0 -66.843092,-0.302433,102.0 -66.843102,-0.302482,102.0 -66.843039,-0.302454,109.0 -66.843021,-0.302509,110.0 -66.842999,-0.302538,106.0 -66.842997,-0.302572,101.0 -66.843016,-0.302608,93.0 -66.842988,-0.302639,101.0 -66.843017,-0.302555,114.0 -66.843067,-0.302496,109.7 -66.842838,-0.302584,117.4 -66.842781,-0.302543,113.0 -66.842726,-0.302531,111.8 -66.842694,-0.302584,90.0 -66.842658,-0.302611,95.0 -66.842737,-0.302739,98.5 -66.842746,-0.302978,107.0 -66.842772,-0.303074,104.0 -66.84275,-0.303042,97.0 -66.842688,-0.303083,103.7 -66.842688,-0.303114,106.0 -66.842684,-0.303097,110.0 -66.842697,-0.303127,114.0 -66.842681,-0.3032,111.0 -66.842682,-0.303277,111.0 -66.842693,-0.303305,108.0 -66.842745,-0.30336,105.0 -66.842731,-0.303422,103.0 -66.842629,-0.30343,107.0 -66.842631,-0.30347,114.0 -66.84254,-0.303427,112.0 -66.842524,-0.303345,114.2 -66.842381,-0.303478,108.0 -66.842397,-0.303517,106.0 -66.842364,-0.303616,102.0 -66.842294,-0.303561,103.0 -66.842285,-0.303651,105.2 -66.842281,-0.303617,105.1 -66.842253,-0.303651,106.0 -66.842283,-0.30366,111.7 -66.842186,-0.303828,105.0 -66.842136,-0.303828,99.0 -66.842149,-0.303847,109.0 -66.842149,-0.303898,113.7 -66.842104,-0.303875,109.5 -66.842071,-0.303879,106.3 -66.842093,-0.303901,105.0 -66.842092,-0.303935,103.0 -66.84205,-0.30396,99.1 -66.842033,-0.303991,95.0 -66.841958,-0.303972,94.5 -66.84199,-0.303987,93.0 -66.841931,-0.303987,94.0 -66.841975,-0.304007,99.3 -66.841873,-0.304134,100.0 -66.841891,-0.304088,98.0 -66.841841,-0.304096,94.0 -66.841794,-0.304119,97.0 -66.841761,-0.304172,107.0 -66.841788,-0.304165,109.7 -66.841805,-0.304193,106.0 -66.841797,-0.304237,109.0 -66.841757,-0.304289,98.0 -66.841711,-0.304304,101.0 -66.841716,-0.304369,99.0 -66.841643,-0.304367,100.0 -66.841631,-0.304339,99.0 -66.84157,-0.304321,95.0 -66.841523,-0.304268,94.0 -66.841488,-0.304268,93.0 -66.841444,-0.304223,96.6 -66.841452,-0.304318,94.0 -66.841423,-0.304343,99.0 -66.841433,-0.304388,97.0 -66.84145,-0.304335,100.0 -66.841514,-0.304341,97.4 -66.841529,-0.304374,100.0 -66.8416,-0.304384,99.0 -66.84143,-0.304452,78.8 -66.841419,-0.304415,83.0 -66.841386,-0.304363,100.3 -66.841403,-0.304276,115.7 -66.841387,-0.304246,113.4 -66.841363,-0.304279,111.5 -66.841272,-0.304252,106.3 -66.84122,-0.304264,103.0 -66.841241,-0.30431,93.0 -66.841197,-0.304271,83.9 -66.841214,-0.3043,88.0 -66.840967,-0.304227,99.0 -66.840946,-0.304241,98.0 -66.840927,-0.304163,94.0 -66.840886,-0.3042,96.0 -66.840816,-0.304216,101.0 -66.84074,-0.304177,108.0 -66.840686,-0.304237,112.0 -66.840681,-0.304196,110.0 -66.840645,-0.304191,112.9 -66.840612,-0.304243,114.0 -66.840588,-0.304243,114.0 -66.840551,-0.304292,111.0 -66.840494,-0.304229,108.9 -66.840453,-0.304238,112.0 -66.840406,-0.304271,118.0 -66.840499,-0.304267,108.0 -66.840465,-0.304239,111.0 -66.840414,-0.304276,112.2 -66.840285,-0.304303,108.0 -66.840259,-0.304331,110.6 -66.840265,-0.304357,110.0 -66.840211,-0.30438,107.0 -66.840148,-0.304334,106.0 -66.84016,-0.304374,108.0 -66.840115,-0.304418,109.0 -66.840077,-0.304402,99.0 -66.839986,-0.30446,101.0 -66.839918,-0.304454,106.0 -66.839909,-0.304418,108.0 -66.839876,-0.304413,108.0 -66.839837,-0.304437,107.0 -66.839789,-0.304421,108.5 -66.839811,-0.304442,103.7 -66.839789,-0.304466,107.4 -66.839745,-0.304554,109.0 -66.839676,-0.304566,110.0 -66.839634,-0.304532,111.0 -66.839546,-0.304517,116.0 -66.839588,-0.304528,117.0 -66.839421,-0.304533,108.0 -66.839363,-0.304515,112.0 -66.839316,-0.304527,110.0 -66.839262,-0.304507,109.0 -66.839162,-0.304555,106.0 -66.83918,-0.304583,108.0 -66.839216,-0.304587,107.0 -66.839237,-0.304623,107.0 -66.839228,-0.304583,107.0 -66.839185,-0.304567,108.0 -66.839106,-0.304564,109.0 -66.839162,-0.304545,108.0 -66.839244,-0.304557,105.0 -66.839163,-0.30458,110.0 -66.839176,-0.304616,111.0 -66.839111,-0.304576,112.0 -66.839159,-0.304595,111.0 -66.839198,-0.304638,111.0 -66.839239,-0.304654,111.1 -66.839243,-0.304684,108.0 -66.839406,-0.304619,109.0 -66.839365,-0.304625,108.0 -66.839362,-0.304648,107.0 -66.839404,-0.304595,118.0 -66.839414,-0.304543,116.2 -66.839361,-0.304578,106.0 -66.839402,-0.304519,117.7 -66.839445,-0.304501,118.5 -66.839387,-0.304479,114.0 -66.839339,-0.304487,119.9 -66.839266,-0.304468,111.0 -66.839229,-0.304474,110.0 -66.839274,-0.3045,115.0 -66.839306,-0.304583,113.0 -66.839253,-0.304604,111.0 -66.839209,-0.304582,110.0 -66.839225,-0.304532,110.0 -66.839315,-0.304577,108.0 -66.839351,-0.304608,105.0 -66.839331,-0.304585,108.0 -66.839265,-0.304545,108.0 -66.839238,-0.304514,113.0 -66.839231,-0.304482,119.0 -66.839202,-0.304523,114.0 -66.839247,-0.304586,103.0 -66.839175,-0.304572,98.0 -66.839219,-0.304553,113.4 -66.839198,-0.304489,112.0 -66.839271,-0.304527,112.0 -66.839211,-0.304566,112.0 -66.83922,-0.304562,112.8</coordinates>
                </LineString>
            </MultiGeometry>
        </Placemark>
        <Placemark id="13">
            <name>Caverna do Suassu-uka</name>
            <description/>
            <styleUrl>#14</styleUrl>
            <Point id="12">
                <coordinates>-66.84693,-0.30021,100</coordinates>
            </Point>
        </Placemark>
    </Document>
</kml>
