<?xml version="1.0" encoding="UTF-8"?>
<kml xmlns="http://www.opengis.net/kml/2.2" xmlns:gx="http://www.google.com/kml/ext/2.2">
    <Document id="1">
        <Placemark id="3">
            <Style id="6">
                <LineStyle id="7">
                    <color>ff78A400</color>
                    <colorMode>normal</colorMode>
                    <width>1</width>
                </LineStyle>
            </Style>
            <Style id="10">
                <LineStyle id="11">
                    <color>ff78A400</color>
                    <colorMode>normal</colorMode>
                    <width>1</width>
                </LineStyle>
            </Style>
            <name>Trilha acampamento 1 até acampamento 2</name>
            <description/>
            <MultiGeometry id="2">
                <LineString id="4">
                    <extrude>0</extrude>
                    <altitudeMode>clampToGround</altitudeMode>
                    <coordinates>-66.83937,-0.304617,110.4 -66.839503,-0.304527,117.0 -66.839548,-0.304469,116.0 -66.839587,-0.304446,113.0 -66.839671,-0.304474,109.0 -66.839706,-0.304458,108.0 -66.839785,-0.304449,106.0 -66.839836,-0.304425,105.0 -66.839857,-0.304388,104.0 -66.839849,-0.304358,105.0 -66.839858,-0.304317,105.0 -66.839843,-0.304229,105.0 -66.839863,-0.304119,109.0 -66.839889,-0.304076,108.7 -66.839945,-0.304018,108.0 -66.839987,-0.303996,105.0 -66.840035,-0.303932,106.0 -66.840026,-0.303901,105.0 -66.840032,-0.303866,106.0 -66.840069,-0.30382,99.0 -66.84009,-0.30375,98.0 -66.840101,-0.303649,100.0 -66.840107,-0.303695,96.0 -66.840174,-0.303701,96.0 -66.840212,-0.303683,97.8 -66.840235,-0.303653,97.0 -66.840274,-0.303634,98.0 -66.840296,-0.303598,99.0 -66.840247,-0.303569,99.0 -66.840238,-0.303463,101.0 -66.840259,-0.303381,100.0 -66.840226,-0.303373,99.0 -66.840223,-0.303323,100.0 -66.840256,-0.303238,103.9 -66.840239,-0.303207,102.0 -66.840194,-0.303187,101.0 -66.840153,-0.303183,97.0 -66.840188,-0.303107,99.0 -66.840135,-0.303151,97.0 -66.840105,-0.303156,96.0 -66.840044,-0.303139,97.0 -66.840017,-0.303081,98.7 -66.839976,-0.303055,98.0 -66.83995,-0.302987,99.0 -66.839956,-0.302954,96.0 -66.839933,-0.302932,96.0 -66.839921,-0.302901,96.0 -66.839926,-0.302809,97.0 -66.83985,-0.30265,101.0 -66.839883,-0.302607,101.0 -66.839852,-0.302607,104.0 -66.839831,-0.302585,104.0 -66.839828,-0.302535,108.0 -66.839867,-0.30255,107.0 -66.839915,-0.30252,107.4 -66.839938,-0.302494,105.0 -66.839958,-0.302352,99.0 -66.840031,-0.302316,96.0 -66.840005,-0.302284,98.0 -66.840064,-0.302278,98.0 -66.840091,-0.302254,97.0 -66.840101,-0.302219,97.0 -66.840034,-0.302215,93.6 -66.840065,-0.302184,92.0 -66.840099,-0.302104,94.0 -66.84008,-0.30202,95.8 -66.840053,-0.302005,96.0 -66.840036,-0.301979,97.0 -66.839995,-0.301971,95.0 -66.83993,-0.301971,101.0 -66.839876,-0.301983,102.0 -66.839801,-0.301889,96.0 -66.839803,-0.301864,96.0 -66.83979,-0.301827,99.0 -66.839802,-0.301783,102.8 -66.839782,-0.301741,104.0 -66.839717,-0.301699,105.0 -66.83973,-0.301619,106.0 -66.83972,-0.301581,106.0 -66.839753,-0.301474,105.0 -66.839767,-0.301438,105.0 -66.839819,-0.301412,102.0 -66.839804,-0.301343,103.0 -66.839834,-0.301333,103.0 -66.839879,-0.301337,102.0 -66.839824,-0.301293,102.0 -66.839774,-0.301211,104.0 -66.839756,-0.301219,106.0 -66.83968,-0.301197,105.0 -66.839657,-0.301238,108.0 -66.839575,-0.301253,108.0 -66.83954,-0.301252,107.0 -66.839512,-0.301227,106.0 -66.839466,-0.301226,108.0 -66.839443,-0.301205,107.0 -66.83944,-0.301163,108.0 -66.839538,-0.301129,108.0 -66.839585,-0.301025,110.0 -66.839525,-0.300938,109.0 -66.83949,-0.300927,110.0 -66.839465,-0.300882,109.0 -66.839427,-0.300855,111.0 -66.839421,-0.300761,110.0 -66.839469,-0.300699,104.0 -66.839476,-0.300656,108.0 -66.839448,-0.300594,110.0 -66.839389,-0.300572,111.0 -66.839321,-0.300503,113.0 -66.839334,-0.300468,112.4 -66.839395,-0.300427,110.0 -66.839408,-0.300338,107.0 -66.83934,-0.300361,108.0 -66.839345,-0.300393,110.0 -66.839352,-0.300361,112.0 -66.839297,-0.300286,113.0 -66.83929,-0.300186,111.0 -66.839265,-0.300099,112.0 -66.839226,-0.300096,113.0 -66.839185,-0.300063,112.0 -66.839121,-0.300081,114.0 -66.83908,-0.300111,115.0 -66.839021,-0.300127,115.0 -66.839017,-0.300042,114.0 -66.839065,-0.300005,116.0 -66.839164,-0.299966,114.0 -66.839292,-0.299885,112.0 -66.839325,-0.299885,111.0 -66.839352,-0.299871,109.0 -66.839387,-0.299826,108.0 -66.839389,-0.29979,106.0 -66.839353,-0.299741,102.0 -66.839408,-0.29965,104.0 -66.839408,-0.299577,104.0 -66.839483,-0.299492,102.0 -66.839427,-0.29948,98.0 -66.839444,-0.299422,102.0 -66.839451,-0.299289,101.0 -66.839436,-0.299253,102.0 -66.83944,-0.299215,102.0 -66.839575,-0.299109,102.0 -66.83955,-0.299041,103.0 -66.839545,-0.298978,106.3 -66.839507,-0.298954,106.5 -66.839519,-0.298887,106.0 -66.839503,-0.298842,104.0 -66.839538,-0.29883,107.0 -66.839575,-0.298749,97.0 -66.839617,-0.298703,101.0 -66.839653,-0.298637,99.0 -66.839633,-0.298553,98.0 -66.839688,-0.298471,99.0 -66.839693,-0.298425,96.0 -66.839756,-0.298335,96.0 -66.839734,-0.298298,104.0 -66.839759,-0.298241,92.0 -66.839719,-0.298225,90.0 -66.839682,-0.298178,92.0 -66.839687,-0.298091,94.0 -66.839719,-0.29809,89.0 -66.839747,-0.298036,93.0 -66.839748,-0.297917,98.6 -66.839737,-0.297869,100.0 -66.839704,-0.297871,100.0 -66.8397,-0.297813,95.0 -66.839722,-0.297762,97.5 -66.839758,-0.297755,101.0 -66.839767,-0.297732,103.0 -66.839758,-0.297686,96.0 -66.839801,-0.297619,90.0 -66.839795,-0.297575,87.0 -66.839755,-0.297547,91.0 -66.839795,-0.297495,92.0 -66.83986,-0.297489,93.0 -66.839806,-0.297494,96.0 -66.839822,-0.29746,95.0 -66.839749,-0.297439,96.0 -66.839727,-0.297414,100.0 -66.839711,-0.297332,95.0 -66.839758,-0.297282,92.0 -66.839754,-0.297229,95.0 -66.839768,-0.297196,92.0 -66.839768,-0.297164,96.0 -66.839752,-0.297097,96.0 -66.839777,-0.296995,95.0 -66.839743,-0.296927,97.7 -66.839715,-0.29695,97.4 -66.839695,-0.296948,97.0 -66.839656,-0.296869,95.0 -66.839569,-0.296767,94.0 -66.839543,-0.29675,91.0 -66.839516,-0.296664,95.0 -66.839524,-0.296586,96.0 -66.839503,-0.296531,96.0 -66.839492,-0.296464,96.0 -66.839468,-0.296431,97.0 -66.839438,-0.296413,95.0 -66.839421,-0.296377,96.0 -66.839393,-0.296366,97.0 -66.839382,-0.296319,98.9 -66.839386,-0.296239,96.0 -66.839421,-0.296202,96.0 -66.839439,-0.296164,96.0 -66.839431,-0.296135,96.0 -66.839474,-0.296019,95.0 -66.839584,-0.295908,95.0 -66.839587,-0.295876,96.0 -66.839652,-0.295816,90.0 -66.839686,-0.295801,90.0 -66.839695,-0.295775,90.0 -66.839695,-0.295694,93.0 -66.839687,-0.295655,90.0 -66.839663,-0.295633,92.0 -66.839669,-0.295582,90.0 -66.839585,-0.295349,97.0 -66.839538,-0.29535,96.0 -66.839449,-0.295247,92.0 -66.839439,-0.295202,93.0 -66.839403,-0.295174,90.0 -66.839411,-0.295132,94.0 -66.839377,-0.295081,95.0 -66.839371,-0.295039,94.0 -66.839405,-0.294925,95.0 -66.839336,-0.294798,87.0 -66.839316,-0.294718,89.0 -66.83933,-0.294679,90.8 -66.839318,-0.294635,92.0 -66.839346,-0.294559,93.0 -66.839376,-0.29457,94.0 -66.839369,-0.294523,99.0 -66.839401,-0.294511,92.0 -66.83938,-0.294394,88.0 -66.839391,-0.294347,93.0 -66.839431,-0.294303,94.0 -66.839399,-0.294246,93.0 -66.839396,-0.294212,91.9 -66.839412,-0.294049,93.0 -66.839383,-0.294022,91.0 -66.839328,-0.294004,91.0 -66.839302,-0.294014,95.0 -66.83925,-0.293946,98.0 -66.839285,-0.293929,96.0 -66.839296,-0.293883,99.0 -66.839334,-0.293893,102.0 -66.839386,-0.293857,107.0 -66.839386,-0.293673,90.0 -66.83942,-0.293645,94.2 -66.839346,-0.293605,88.0 -66.839383,-0.293604,92.0 -66.839436,-0.293628,92.0 -66.839419,-0.293508,92.0 -66.839378,-0.293497,93.0 -66.839348,-0.293521,92.0 -66.83937,-0.293509,92.0 -66.839413,-0.293396,92.8 -66.83944,-0.293414,90.0 -66.839516,-0.293339,88.0 -66.839579,-0.29332,91.0 -66.839536,-0.293339,90.0 -66.839517,-0.29331,90.0 -66.83956,-0.29323,88.0 -66.839639,-0.293153,89.0 -66.8396,-0.293123,92.0 -66.839582,-0.293094,94.0 -66.839475,-0.293094,88.0 -66.839475,-0.293062,90.0 -66.8395,-0.293035,93.0 -66.839592,-0.292989,91.7 -66.839621,-0.292948,90.0 -66.839613,-0.292899,92.0 -66.839611,-0.292976,91.0 -66.839563,-0.292996,101.0 -66.839593,-0.292951,96.6 -66.839529,-0.292805,89.0 -66.839527,-0.292748,90.0 -66.839542,-0.292709,91.0 -66.839602,-0.292681,90.0 -66.839633,-0.292549,92.0 -66.839628,-0.292517,92.0 -66.839652,-0.2924,92.0 -66.839642,-0.292368,94.0 -66.839657,-0.292338,94.0 -66.839658,-0.292289,92.0 -66.839682,-0.292261,94.0 -66.839732,-0.292242,95.0 -66.839852,-0.292162,96.0 -66.839899,-0.292112,96.0 -66.839917,-0.292076,97.0 -66.83988,-0.292049,96.0 -66.839845,-0.292049,95.0 -66.839858,-0.292013,96.0 -66.839858,-0.291974,96.0 -66.839837,-0.291908,95.0 -66.839891,-0.291849,94.0 -66.83988,-0.291773,90.0 -66.839899,-0.291741,92.0 -66.839916,-0.291678,89.0 -66.839892,-0.291658,92.0 -66.839795,-0.291632,94.0 -66.839727,-0.291525,93.0 -66.839698,-0.291452,91.0 -66.839745,-0.29134,94.0 -66.83978,-0.291329,94.0 -66.839754,-0.291249,93.0 -66.839784,-0.291226,92.0 -66.839771,-0.291182,94.0 -66.839715,-0.291167,96.7 -66.839699,-0.291132,95.0 -66.83971,-0.291103,97.0 -66.839775,-0.291072,98.0 -66.839781,-0.291037,97.0 -66.839854,-0.29097,98.0 -66.839851,-0.290935,99.0 -66.839899,-0.290926,105.0 -66.839991,-0.290964,107.0 -66.840041,-0.290919,106.0 -66.840082,-0.290907,106.0 -66.840105,-0.290882,108.0 -66.840112,-0.290829,107.0 -66.84009,-0.290803,105.0 -66.840015,-0.290763,105.0 -66.840072,-0.29065,105.0 -66.840082,-0.290605,105.0 -66.840044,-0.290577,108.2 -66.840086,-0.290539,104.0 -66.840094,-0.290492,108.5 -66.840029,-0.290408,101.0 -66.839967,-0.290358,102.0 -66.839968,-0.290327,106.0 -66.839986,-0.290294,106.0 -66.83996,-0.290259,107.0 -66.839951,-0.290181,104.0 -66.839991,-0.290153,108.0 -66.840012,-0.290121,108.0 -66.839929,-0.290068,108.0 -66.83988,-0.290062,107.0 -66.839853,-0.290034,108.0 -66.839869,-0.289923,107.0 -66.839839,-0.289886,108.0 -66.839764,-0.289882,108.0 -66.839819,-0.289876,113.6 -66.839779,-0.289715,112.0 -66.839823,-0.28971,112.6 -66.839782,-0.289659,112.0 -66.839745,-0.289635,111.0 -66.839714,-0.289634,119.0 -66.839725,-0.289605,119.0 -66.839695,-0.289573,128.3 -66.839698,-0.289525,129.0 -66.839625,-0.289572,134.0 -66.839541,-0.289581,127.0 -66.839526,-0.289542,126.0 -66.839535,-0.289485,125.0 -66.839595,-0.289436,125.7 -66.839629,-0.289437,123.9 -66.839665,-0.289412,122.0 -66.839632,-0.289383,119.8 -66.839639,-0.289362,117.0 -66.83962,-0.289349,109.0 -66.839593,-0.289274,115.0 -66.839617,-0.289224,114.0 -66.839595,-0.289162,113.0 -66.839609,-0.289125,114.0 -66.839607,-0.289063,112.0 -66.83954,-0.288982,111.0 -66.839536,-0.288948,111.0 -66.839496,-0.288923,109.0 -66.83949,-0.288888,106.0 -66.839451,-0.288883,108.0 -66.839522,-0.288678,105.0 -66.839525,-0.288644,106.0 -66.839448,-0.288648,102.0 -66.83946,-0.288582,106.0 -66.839484,-0.28855,105.0 -66.839449,-0.288514,104.0 -66.839442,-0.288476,104.0 -66.839472,-0.288404,103.0 -66.839466,-0.288348,105.0 -66.839438,-0.288335,104.0 -66.839433,-0.288303,99.0 -66.839393,-0.28828,103.7 -66.839375,-0.288303,102.0 -66.839324,-0.288288,100.0 -66.839283,-0.288242,101.0 -66.839311,-0.288227,100.0 -66.839336,-0.288188,100.0 -66.839304,-0.288132,100.0 -66.839338,-0.288059,97.0 -66.83934,-0.287959,99.0 -66.839321,-0.287924,99.0 -66.83928,-0.287921,98.0 -66.839248,-0.287899,99.0 -66.839204,-0.287884,98.0 -66.839239,-0.287855,102.0 -66.839196,-0.287844,100.0 -66.839159,-0.28777,100.0 -66.839084,-0.287666,103.0 -66.839072,-0.287624,104.0 -66.839031,-0.287642,105.0 -66.838999,-0.287672,104.0 -66.839001,-0.287617,104.0 -66.838955,-0.287631,103.0 -66.838921,-0.287626,104.0 -66.838912,-0.28759,105.0 -66.838919,-0.287533,106.0 -66.838935,-0.287504,106.0 -66.839016,-0.287451,104.0 -66.839002,-0.287496,104.0 -66.838978,-0.287474,100.0 -66.838973,-0.287506,96.0 -66.839039,-0.287638,99.0 -66.839021,-0.287672,104.0 -66.838974,-0.287606,96.0 -66.839031,-0.287558,105.1 -66.838997,-0.287536,104.0 -66.83883,-0.28732,103.0 -66.838742,-0.287282,99.0 -66.838717,-0.287241,104.4 -66.838727,-0.28721,102.0 -66.838713,-0.287166,101.0 -66.838655,-0.287152,101.0 -66.838579,-0.28704,107.0 -66.838589,-0.286967,110.0 -66.838518,-0.286939,110.0 -66.838465,-0.286934,113.4 -66.838434,-0.286941,112.0 -66.838375,-0.286871,110.0 -66.838342,-0.286874,110.0 -66.838307,-0.286809,113.0 -66.838255,-0.286833,112.0 -66.838233,-0.286796,113.5 -66.838205,-0.286695,112.0 -66.838234,-0.286629,113.0 -66.838239,-0.286559,112.0 -66.838211,-0.286522,111.0 -66.838149,-0.286486,110.0 -66.838125,-0.286454,111.0 -66.8381,-0.286385,111.0 -66.838051,-0.286334,111.7 -66.837899,-0.286322,108.0 -66.837842,-0.286291,108.0 -66.837819,-0.286263,104.0 -66.837826,-0.286319,104.0 -66.837867,-0.286377,106.0 -66.837834,-0.286391,105.0 -66.837809,-0.286353,108.0 -66.837777,-0.286326,105.0 -66.837746,-0.286255,106.0 -66.837743,-0.286191,102.0 -66.837693,-0.286152,104.0 -66.83766,-0.286153,104.0 -66.837609,-0.286115,103.0 -66.837499,-0.286102,102.0 -66.837509,-0.286155,102.0 -66.837477,-0.286108,101.0 -66.837463,-0.286049,98.0 -66.837444,-0.286024,98.0 -66.837304,-0.285927,96.0 -66.837285,-0.285892,98.0 -66.837271,-0.285815,98.0 -66.83723,-0.285748,96.0 -66.837234,-0.285636,92.0 -66.837256,-0.285579,95.0 -66.837227,-0.285557,95.0 -66.83721,-0.285518,94.0 -66.837222,-0.285477,99.0 -66.83725,-0.28546,95.0 -66.837248,-0.285323,92.0 -66.837277,-0.285285,96.1 -66.837238,-0.285291,94.0 -66.837209,-0.285318,94.0 -66.837171,-0.285299,93.0 -66.837175,-0.285339,93.0 -66.837131,-0.285316,91.0 -66.837121,-0.285236,94.8 -66.837193,-0.285197,93.0 -66.837216,-0.285153,92.0 -66.837195,-0.285126,93.0 -66.837232,-0.285107,95.0 -66.837187,-0.285096,94.0 -66.837173,-0.285068,94.0 -66.837103,-0.285077,93.0 -66.837106,-0.285038,96.0 -66.837067,-0.284979,101.0 -66.836989,-0.285031,98.0 -66.836959,-0.284994,99.0 -66.83693,-0.284994,98.0 -66.836907,-0.284955,97.0 -66.836882,-0.284975,96.0 -66.83693,-0.284878,97.0 -66.836997,-0.284868,97.0 -66.837024,-0.284839,96.0 -66.837034,-0.284772,93.0 -66.837024,-0.284741,95.0 -66.836986,-0.284754,97.9 -66.836953,-0.284712,94.0 -66.836993,-0.284706,99.0 -66.837042,-0.284659,99.0 -66.837096,-0.284639,102.0 -66.837084,-0.284579,101.0 -66.837101,-0.284549,100.0 -66.837095,-0.284443,104.0 -66.837081,-0.284399,104.0 -66.837053,-0.284365,105.0 -66.837077,-0.284346,105.0 -66.837094,-0.284291,105.0 -66.837117,-0.28427,104.6 -66.837085,-0.284183,100.0 -66.837037,-0.284207,97.0 -66.837011,-0.284166,104.0 -66.837026,-0.284139,101.0 -66.837026,-0.284086,102.0 -66.83701,-0.284054,105.0 -66.837056,-0.283932,105.0 -66.837034,-0.283904,105.0 -66.837054,-0.283869,105.0 -66.837014,-0.283816,105.0 -66.837024,-0.28377,106.0 -66.83705,-0.283758,109.0 -66.837074,-0.283804,110.0 -66.837135,-0.283788,110.0 -66.837108,-0.283848,113.0 -66.837065,-0.283837,108.0 -66.83703,-0.283866,111.7 -66.837134,-0.283849,109.0 -66.837195,-0.283817,110.0 -66.837178,-0.283839,107.0 -66.837275,-0.283872,107.0 -66.837145,-0.283871,108.0 -66.837157,-0.283829,108.0 -66.837154,-0.283864,104.0 -66.837116,-0.283863,108.8 -66.837041,-0.283884,106.0 -66.837122,-0.283919,108.0 -66.837142,-0.283891,110.0 -66.837099,-0.283886,107.0 -66.837135,-0.283858,93.0 -66.837143,-0.283976,90.0 -66.837088,-0.283899,100.1 -66.837086,-0.283839,98.0 -66.836982,-0.283786,105.0 -66.837161,-0.283853,106.0 -66.837112,-0.283802,104.0 -66.837188,-0.283776,106.0 -66.837159,-0.283728,116.0 -66.837141,-0.28367,116.0 -66.837176,-0.283639,116.0 -66.837125,-0.283552,110.0 -66.837164,-0.283566,107.0 -66.837126,-0.283514,108.0 -66.83709,-0.283485,108.0 -66.837086,-0.283445,107.0 -66.837109,-0.283396,111.0 -66.837144,-0.283366,114.0 -66.837127,-0.283336,117.4 -66.837132,-0.283306,116.0 -66.837108,-0.283282,115.0 -66.8371,-0.283249,113.0 -66.837086,-0.283113,108.0 -66.837095,-0.283073,111.0 -66.83714,-0.283009,117.0 -66.837149,-0.282966,121.0 -66.837108,-0.282949,119.0 -66.837071,-0.282845,113.0 -66.837088,-0.282819,114.0 -66.83708,-0.282785,111.0 -66.837142,-0.282674,111.0 -66.837187,-0.282659,112.0 -66.837198,-0.282623,112.0 -66.837175,-0.282546,111.0 -66.837194,-0.282477,113.0 -66.837217,-0.282437,114.0 -66.837206,-0.282362,110.0 -66.837246,-0.282354,112.0 -66.837275,-0.282323,113.0 -66.837276,-0.282287,110.0 -66.837303,-0.282264,114.0 -66.837318,-0.28221,113.0 -66.837288,-0.282125,113.0 -66.837281,-0.28203,112.0 -66.837347,-0.281971,111.0 -66.837397,-0.281971,111.0 -66.837412,-0.281945,111.0 -66.837461,-0.281908,111.0 -66.837459,-0.281876,112.0 -66.837482,-0.281846,112.0 -66.837447,-0.281716,108.0 -66.837456,-0.281658,108.0 -66.837473,-0.281626,110.0 -66.837457,-0.281599,111.0 -66.837486,-0.281484,111.0 -66.837449,-0.281469,112.0 -66.837392,-0.281377,111.0 -66.837347,-0.281359,112.0 -66.837316,-0.281294,113.0 -66.837348,-0.281274,113.0 -66.83739,-0.281178,114.0 -66.837397,-0.281137,113.0 -66.837335,-0.281076,113.0 -66.837286,-0.281065,113.0 -66.837247,-0.281009,110.0 -66.837246,-0.280918,112.0 -66.837214,-0.280916,112.0 -66.837219,-0.280892,111.0 -66.837181,-0.280915,108.0 -66.837182,-0.280879,108.0 -66.837226,-0.280863,108.0 -66.837168,-0.280752,110.7 -66.837173,-0.280714,111.3 -66.837133,-0.280713,110.0 -66.837092,-0.280685,108.0 -66.837092,-0.280638,109.0 -66.837047,-0.28061,108.0 -66.837062,-0.280537,109.0 -66.83705,-0.280494,108.0 -66.837057,-0.28046,108.0 -66.837035,-0.280439,107.0 -66.837025,-0.280394,106.0 -66.837004,-0.280365,106.0 -66.83697,-0.280353,107.0 -66.836926,-0.280318,107.0 -66.836895,-0.280334,105.0 -66.836829,-0.28023,102.0 -66.83687,-0.280211,100.0 -66.836893,-0.280165,102.0 -66.836848,-0.280157,102.0 -66.836806,-0.280107,101.0 -66.836807,-0.280021,102.0 -66.83675,-0.27988,98.0 -66.836759,-0.279857,103.0 -66.836821,-0.279807,103.0 -66.836836,-0.279773,104.0 -66.83681,-0.279731,104.0 -66.836818,-0.279701,104.0 -66.836842,-0.279683,103.0 -66.836799,-0.279671,104.0 -66.836785,-0.279618,105.0 -66.836743,-0.27961,105.0 -66.836725,-0.279637,105.7 -66.836652,-0.279632,103.0 -66.836633,-0.279605,103.0 -66.836669,-0.279532,102.0 -66.836677,-0.279486,102.0 -66.836724,-0.27946,101.0 -66.836711,-0.279393,100.0 -66.836737,-0.279338,102.8 -66.836712,-0.279305,102.0 -66.836771,-0.279236,102.0 -66.836773,-0.279202,101.0 -66.836802,-0.27912,102.0 -66.836808,-0.278999,102.0 -66.836764,-0.278976,101.3 -66.836746,-0.278939,101.4 -66.836741,-0.278874,100.0 -66.836703,-0.278813,95.0 -66.836712,-0.278764,96.0 -66.83669,-0.278704,96.0 -66.836721,-0.278672,99.0 -66.836731,-0.278636,99.0 -66.8367,-0.278598,99.0 -66.836688,-0.278543,101.0 -66.836706,-0.278456,100.0 -66.836754,-0.278397,100.0 -66.83678,-0.278446,99.0 -66.83674,-0.278403,99.0 -66.836754,-0.278361,99.0 -66.836747,-0.278254,96.0 -66.836816,-0.27818,95.0 -66.836827,-0.278149,96.0 -66.836894,-0.278125,94.0 -66.836923,-0.278061,94.0 -66.83693,-0.277939,92.0 -66.836976,-0.277916,91.0 -66.836991,-0.277873,90.0 -66.83703,-0.277848,89.0 -66.837092,-0.277738,90.0 -66.837105,-0.277772,83.0 -66.837109,-0.277721,81.0 -66.837074,-0.27773,83.0 -66.837072,-0.277697,81.0 -66.837107,-0.277665,77.0 -66.837078,-0.277621,83.0 -66.837107,-0.277551,79.0 -66.837138,-0.277551,83.0 -66.837165,-0.277351,87.0 -66.837155,-0.27732,89.0 -66.837173,-0.277225,88.0 -66.837138,-0.277207,85.0 -66.837147,-0.277084,87.0 -66.837139,-0.277048,84.0 -66.837172,-0.277018,87.0 -66.837171,-0.276977,86.0 -66.837196,-0.276924,88.0 -66.837186,-0.276886,88.0 -66.837244,-0.276863,85.0 -66.837204,-0.276753,88.0 -66.837234,-0.276726,98.0 -66.837226,-0.276653,94.0 -66.837246,-0.27664,95.0 -66.83728,-0.276586,90.0 -66.83729,-0.276427,92.0 -66.837266,-0.276321,89.0 -66.837289,-0.276214,86.0 -66.837473,-0.276079,90.9 -66.837497,-0.276045,89.0 -66.837488,-0.275944,91.0 -66.837457,-0.275836,92.0 -66.837473,-0.275806,91.0 -66.83744,-0.275732,92.0 -66.837441,-0.275515,90.0 -66.837413,-0.275481,90.0 -66.837406,-0.275406,90.0 -66.837418,-0.275362,91.0 -66.837437,-0.275333,90.0 -66.837445,-0.275283,91.0 -66.837481,-0.275221,90.0 -66.837457,-0.275145,90.0 -66.837439,-0.275119,92.0 -66.837421,-0.275127,89.0 -66.837421,-0.275142,85.0 -66.837439,-0.275106,87.0 -66.837371,-0.275063,88.0 -66.837345,-0.274986,86.0 -66.837384,-0.274913,88.0 -66.837412,-0.274902,88.0 -66.837406,-0.274802,88.0 -66.837444,-0.274737,88.0 -66.837439,-0.274627,84.0 -66.837475,-0.274575,87.0 -66.837515,-0.274414,83.0 -66.837505,-0.27431,81.0 -66.837574,-0.274051,82.0 -66.837523,-0.273915,84.0 -66.837529,-0.273775,84.0 -66.83749,-0.273619,84.0 -66.837499,-0.27359,83.0 -66.837554,-0.273556,85.0 -66.837626,-0.273481,88.0 -66.837652,-0.273432,88.1 -66.837641,-0.273408,87.0 -66.837668,-0.273339,88.0 -66.837571,-0.273193,90.0 -66.837508,-0.273152,90.0 -66.837484,-0.273119,88.0 -66.837474,-0.273084,90.0 -66.837446,-0.273046,90.0 -66.837416,-0.272923,90.0 -66.837456,-0.272786,88.0 -66.837484,-0.272763,90.0 -66.837519,-0.272764,91.0 -66.83756,-0.2727,96.0 -66.837647,-0.272616,96.0 -66.837676,-0.272604,96.0 -66.837733,-0.272542,96.0 -66.837732,-0.272441,93.0 -66.837691,-0.272423,94.0 -66.837684,-0.272357,94.0 -66.837687,-0.272319,93.0 -66.837747,-0.272266,94.0 -66.837745,-0.272239,93.0 -66.837724,-0.272223,91.0 -66.83774,-0.272085,89.0 -66.837723,-0.272048,92.0 -66.837724,-0.271975,93.0 -66.837631,-0.271828,96.0 -66.837644,-0.271791,95.0 -66.837579,-0.2716,94.0 -66.837572,-0.271543,89.0 -66.837533,-0.27149,93.0 -66.837534,-0.271441,93.0 -66.837495,-0.271352,92.0 -66.837505,-0.271343,91.0 -66.83754,-0.271229,88.0 -66.83754,-0.271198,91.0 -66.837493,-0.270987,87.0 -66.83746,-0.270971,87.0 -66.837444,-0.270888,88.0 -66.837506,-0.270705,88.0 -66.837537,-0.270663,84.0 -66.837582,-0.270644,87.0 -66.837604,-0.270605,89.0 -66.837597,-0.270559,89.2 -66.837607,-0.270525,86.0 -66.837604,-0.270483,86.0 -66.837681,-0.270391,87.0 -66.837862,-0.270313,93.0 -66.837886,-0.270232,88.0 -66.837915,-0.270181,92.4 -66.83792,-0.270089,90.0 -66.837972,-0.270063,93.0 -66.837919,-0.269983,92.0 -66.837844,-0.269823,89.0 -66.837838,-0.269785,87.0 -66.837863,-0.269723,88.0 -66.83788,-0.269621,84.0 -66.837939,-0.269575,86.0 -66.837954,-0.269536,87.0 -66.837943,-0.269433,90.0 -66.837922,-0.269394,90.0 -66.837903,-0.269309,92.0 -66.837935,-0.269229,90.0 -66.837967,-0.269203,93.0 -66.838001,-0.269266,96.0 -66.838032,-0.269286,93.0 -66.838064,-0.269286,92.0 -66.838076,-0.269251,93.0 -66.838105,-0.269211,95.0 -66.838107,-0.269176,96.0 -66.838144,-0.269155,96.0 -66.838163,-0.26909,97.0 -66.838214,-0.269095,97.0 -66.83822,-0.269037,99.5 -66.838183,-0.269018,98.5 -66.838152,-0.26895,96.0 -66.83817,-0.268892,96.0 -66.838191,-0.268865,95.0 -66.838241,-0.268857,96.0 -66.838296,-0.268805,96.0 -66.83824,-0.26873,95.0 -66.838246,-0.268675,94.0 -66.838227,-0.268611,93.0 -66.838225,-0.26855,91.0 -66.838252,-0.268521,92.0 -66.838168,-0.26856,94.1 -66.838165,-0.268607,92.0 -66.838194,-0.268564,94.4 -66.838227,-0.268551,95.3 -66.838236,-0.2685,93.7 -66.838221,-0.268379,93.0 -66.83825,-0.268343,93.0 -66.83828,-0.26833,95.0 -66.838256,-0.268284,94.0 -66.838232,-0.268178,93.0 -66.838246,-0.268143,92.0 -66.838279,-0.268088,90.0 -66.838408,-0.268098,96.0 -66.838451,-0.268061,96.0 -66.838491,-0.268068,97.7 -66.8385,-0.268039,98.0 -66.838469,-0.268045,99.2 -66.838489,-0.268012,96.0 -66.838529,-0.267991,99.6 -66.838631,-0.267973,97.0 -66.838631,-0.267938,99.0 -66.838606,-0.267914,99.0 -66.838599,-0.267872,98.0 -66.838612,-0.267789,99.0 -66.838576,-0.267696,99.0 -66.838617,-0.267572,98.0 -66.838888,-0.267513,99.8 -66.838893,-0.267477,100.0 -66.838836,-0.267364,100.5 -66.838856,-0.267321,99.0 -66.83886,-0.267266,97.0 -66.838874,-0.267238,97.0 -66.838854,-0.26721,95.0 -66.838814,-0.267205,96.0 -66.838776,-0.267159,97.8 -66.838774,-0.267092,94.0 -66.838791,-0.267014,94.0 -66.838783,-0.266978,94.0 -66.83879,-0.266898,94.0 -66.838883,-0.266898,101.1 -66.838905,-0.266923,100.0 -66.838881,-0.26686,97.0 -66.838845,-0.266848,97.0 -66.838856,-0.266819,95.0 -66.838889,-0.266795,94.0 -66.838906,-0.266747,94.0 -66.838913,-0.266703,91.0 -66.838897,-0.266642,96.0 -66.838944,-0.266562,96.0 -66.838912,-0.266322,94.0 -66.838934,-0.266208,95.0 -66.83898,-0.266086,97.8 -66.838976,-0.266022,97.3 -66.838983,-0.266056,96.1 -66.839009,-0.266043,95.0 -66.839005,-0.266017,96.0 -66.838972,-0.266017,94.0 -66.83894,-0.265992,95.0 -66.838906,-0.265871,101.0 -66.838844,-0.265805,99.0 -66.838824,-0.26574,99.0 -66.838959,-0.265721,92.0 -66.83894,-0.265697,93.1 -66.838888,-0.265668,93.0 -66.838824,-0.265567,93.0 -66.83882,-0.265524,90.0 -66.838831,-0.265496,92.0 -66.838872,-0.265488,92.0 -66.83884,-0.265444,94.0 -66.838829,-0.265397,93.0 -66.838799,-0.265339,92.0 -66.838839,-0.26531,94.0 -66.838854,-0.265275,94.0 -66.838839,-0.265181,96.0 -66.838854,-0.265155,98.0 -66.838928,-0.265124,96.0 -66.838928,-0.265074,96.0 -66.838952,-0.265035,94.0 -66.839031,-0.264985,94.0 -66.839081,-0.264927,90.0 -66.839069,-0.264877,92.0 -66.839079,-0.264847,91.0 -66.839039,-0.264757,92.0 -66.83901,-0.264732,93.0 -66.839076,-0.264714,93.0 -66.839074,-0.264636,89.0 -66.839098,-0.264616,90.0 -66.839131,-0.26462,91.0 -66.839187,-0.264595,92.0 -66.839233,-0.264595,92.0 -66.839301,-0.264537,95.0 -66.839269,-0.264508,95.3 -66.839266,-0.264465,92.0 -66.839284,-0.264389,95.0 -66.839323,-0.264352,95.0 -66.839284,-0.264273,92.0 -66.839297,-0.264232,89.0 -66.839286,-0.26414,91.0 -66.839315,-0.264073,92.0 -66.839276,-0.263991,90.0 -66.839298,-0.263937,91.0 -66.839297,-0.263901,92.0 -66.839331,-0.263857,93.0 -66.839466,-0.263829,94.0 -66.839543,-0.263829,93.0 -66.839539,-0.263794,94.0 -66.839502,-0.263704,91.0 -66.839459,-0.263681,96.0 -66.839434,-0.263649,96.0 -66.839495,-0.263643,96.0 -66.839513,-0.263494,95.0 -66.839532,-0.263453,91.0 -66.839584,-0.263401,89.0 -66.839587,-0.263355,91.0 -66.839629,-0.263374,92.0 -66.839691,-0.263321,90.0 -66.839709,-0.263282,90.0 -66.839745,-0.263263,90.0 -66.839744,-0.263225,90.0 -66.839777,-0.263185,91.0 -66.839826,-0.263071,96.0 -66.839842,-0.262989,93.0 -66.83987,-0.262937,95.0 -66.839875,-0.262895,96.0 -66.839856,-0.262854,94.0 -66.839823,-0.262689,91.0 -66.839864,-0.262601,93.9 -66.839889,-0.262568,94.2 -66.839889,-0.262537,91.0 -66.839856,-0.262465,90.0 -66.83983,-0.26244,91.0 -66.839832,-0.262401,93.0 -66.83987,-0.262327,90.0 -66.839931,-0.26229,90.0 -66.840052,-0.262131,92.0 -66.840075,-0.262082,90.0 -66.840139,-0.262013,90.0 -66.840146,-0.261977,91.0 -66.840176,-0.261956,91.0 -66.840225,-0.261839,87.0 -66.840259,-0.261818,85.0 -66.840306,-0.261731,83.0 -66.840301,-0.261696,81.0 -66.840331,-0.261653,83.0 -66.840341,-0.261618,81.0 -66.840445,-0.261534,78.0 -66.840539,-0.261415,80.0 -66.840602,-0.261371,80.0 -66.840608,-0.26134,78.0 -66.840711,-0.261267,73.0 -66.840761,-0.26119,75.0 -66.840891,-0.261093,78.0 -66.840983,-0.26098,80.0 -66.841083,-0.260974,72.0 -66.841081,-0.260929,77.0 -66.841154,-0.260902,73.0 -66.841172,-0.260868,75.0 -66.841207,-0.260881,75.0 -66.841284,-0.26083,77.0 -66.841344,-0.260725,77.0 -66.841378,-0.260643,74.0 -66.841435,-0.260574,74.0 -66.841511,-0.260521,78.0 -66.841536,-0.260473,78.9 -66.841609,-0.260472,77.0 -66.841652,-0.260483,80.0 -66.841675,-0.260429,84.0 -66.841665,-0.260344,78.0 -66.841681,-0.260305,84.0 -66.841534,-0.260354,82.0 -66.841636,-0.260285,84.0 -66.84168,-0.260275,84.0 -66.841759,-0.260293,83.0 -66.841765,-0.260261,83.0 -66.841731,-0.260286,82.0 -66.841737,-0.260329,78.0 -66.841726,-0.260391,80.0 -66.84166,-0.26041,81.0 -66.841684,-0.260414,81.0 -66.841702,-0.260332,80.0 -66.841636,-0.260416,80.0 -66.841574,-0.260436,79.0 -66.84159,-0.260536,87.0 -66.841569,-0.260577,86.0 -66.841594,-0.260442,82.1 -66.841623,-0.260451,80.0 -66.841654,-0.260446,80.0 -66.841648,-0.260405,81.0 -66.841625,-0.260376,82.0 -66.841535,-0.260391,82.0 -66.841501,-0.260416,82.0 -66.841541,-0.26048,70.0 -66.841521,-0.260444,81.0 -66.841578,-0.260501,81.0 -66.841515,-0.260502,80.0 -66.841625,-0.260377,88.0 -66.841655,-0.260449,87.0 -66.841631,-0.260399,87.0 -66.841575,-0.260417,87.9 -66.841555,-0.260439,86.0 -66.84159,-0.260501,84.0 -66.841644,-0.260471,84.0 -66.841605,-0.260451,84.0 -66.841558,-0.260473,84.0 -66.841687,-0.260352,83.0 -66.841779,-0.260302,84.0 -66.84171,-0.260408,89.8 -66.841727,-0.260379,84.0 -66.841689,-0.260344,82.0 -66.841674,-0.260368,84.0 -66.841669,-0.260408,85.0 -66.841671,-0.260338,84.0 -66.841719,-0.260341,85.0 -66.841627,-0.260419,84.0 -66.841619,-0.260356,80.0 -66.841644,-0.260346,75.0 -66.841663,-0.260306,80.0 -66.84174,-0.260372,84.0 -66.841778,-0.260322,82.0 -66.841759,-0.260373,87.0 -66.841782,-0.260293,85.0 -66.841789,-0.260367,84.0 -66.841825,-0.260406,84.0 -66.84163,-0.260601,85.0 -66.841594,-0.260658,84.0 -66.841666,-0.260715,84.0 -66.841756,-0.260737,84.0 -66.841753,-0.260691,86.0 -66.84183,-0.260494,86.0 -66.841797,-0.260464,86.2 -66.841751,-0.260448,86.0 -66.841777,-0.260439,88.0 -66.841765,-0.260376,89.0 -66.8417,-0.260332,87.0 -66.841648,-0.260378,88.0 -66.841649,-0.260423,84.0 -66.841692,-0.260411,80.0 -66.841728,-0.260545,84.0 -66.841797,-0.260564,84.0 -66.841849,-0.260611,85.8 -66.841826,-0.26058,84.0 -66.841812,-0.260499,85.3 -66.841721,-0.260472,84.0 -66.841715,-0.26051,84.0 -66.841691,-0.260536,80.0 -66.841653,-0.260538,84.0 -66.841719,-0.260585,84.0 -66.841805,-0.260584,84.0 -66.841914,-0.260534,85.0 -66.841959,-0.260431,69.0 -66.841817,-0.260305,84.0 -66.84186,-0.260365,87.0 -66.841841,-0.26041,87.0 -66.841798,-0.260434,86.0 -66.841776,-0.260392,72.0 -66.841758,-0.260462,86.0 -66.841764,-0.260525,80.0 -66.841869,-0.260422,85.7 -66.841748,-0.260411,81.0 -66.841786,-0.260473,84.0 -66.84175,-0.26043,84.0 -66.841763,-0.2604,81.0 -66.841774,-0.260326,80.0 -66.841704,-0.260349,81.0 -66.841662,-0.260332,80.0 -66.84168,-0.260304,78.0 -66.841739,-0.260305,78.0 -66.841654,-0.260246,78.0 -66.841683,-0.260325,80.0 -66.841722,-0.260283,80.0 -66.841752,-0.26028,80.0 -66.841691,-0.260318,82.0 -66.841625,-0.260292,80.0 -66.841667,-0.260278,82.0 -66.84166,-0.260313,84.0 -66.841575,-0.260276,84.0 -66.841586,-0.26023,84.0 -66.841721,-0.260242,84.0 -66.841738,-0.260282,84.0 -66.841733,-0.260342,86.0 -66.841759,-0.26038,86.0 -66.841733,-0.260296,86.0 -66.841693,-0.260267,84.0 -66.841665,-0.260165,84.0 -66.841636,-0.26011,84.0 -66.841591,-0.260058,84.0 -66.841567,-0.259999,84.0 -66.841565,-0.260023,85.5 -66.841531,-0.259874,85.7 -66.841449,-0.259872,85.0 -66.841408,-0.259802,85.0 -66.841393,-0.259728,84.0 -66.841359,-0.2597,84.4 -66.841325,-0.25964,83.0 -66.841244,-0.259619,84.0 -66.841189,-0.259573,84.0 -66.841191,-0.259412,85.0 -66.841165,-0.259348,85.0 -66.841195,-0.259287,84.0 -66.841228,-0.259271,85.0 -66.841241,-0.259238,86.0 -66.841229,-0.259196,85.0 -66.841192,-0.259137,87.0 -66.841225,-0.259025,83.0 -66.841229,-0.258978,84.0 -66.841205,-0.258895,84.0 -66.841167,-0.258867,80.0 -66.84114,-0.25879,83.0 -66.841172,-0.258696,84.0 -66.841175,-0.258654,84.6 -66.841146,-0.258487,80.0 -66.841152,-0.258401,83.0 -66.841107,-0.258342,80.0 -66.841095,-0.25827,82.0 -66.841155,-0.258257,81.0 -66.841182,-0.258272,81.0 -66.8412,-0.2583,82.0 -66.841229,-0.258272,83.8 -66.841219,-0.258176,82.7 -66.841183,-0.258174,80.0 -66.841109,-0.258027,81.0 -66.841108,-0.257993,80.0 -66.841079,-0.257969,81.0 -66.841062,-0.257933,82.0 -66.841055,-0.257864,81.0 -66.841102,-0.25779,84.2 -66.841101,-0.257767,82.0 -66.841148,-0.257693,83.0 -66.84115,-0.257647,84.0 -66.84114,-0.257609,83.0 -66.841152,-0.257541,82.0 -66.841146,-0.257499,81.0 -66.841189,-0.257252,82.0 -66.841239,-0.25717,80.0 -66.841229,-0.256974,81.0 -66.841251,-0.256883,83.0 -66.841317,-0.256743,84.0 -66.841325,-0.256684,80.0 -66.841375,-0.256638,83.0 -66.841386,-0.256565,83.0 -66.841434,-0.256389,81.0 -66.84144,-0.256286,82.0 -66.841485,-0.256211,84.0 -66.841459,-0.256094,83.0 -66.841418,-0.25604,82.0 -66.841391,-0.255969,83.0 -66.841372,-0.255798,81.0 -66.841356,-0.255744,83.0 -66.841378,-0.255638,84.0 -66.841363,-0.255605,83.0 -66.841379,-0.255571,84.0 -66.84133,-0.255514,84.0 -66.841332,-0.255365,82.0 -66.841293,-0.255276,83.0 -66.841258,-0.255242,83.0 -66.841311,-0.255269,83.0 -66.841346,-0.255376,84.0 -66.84149,-0.255239,84.9 -66.841499,-0.255175,84.0 -66.841526,-0.25515,84.0 -66.841499,-0.255105,84.0 -66.841484,-0.255023,84.0 -66.841491,-0.254988,83.0 -66.841583,-0.254877,84.0 -66.84167,-0.254798,84.0 -66.841701,-0.254784,85.0 -66.841742,-0.254736,84.0 -66.841728,-0.254674,84.0 -66.841734,-0.254639,84.0 -66.841761,-0.254613,86.0 -66.8418,-0.254471,87.8 -66.841814,-0.254451,87.0 -66.841829,-0.254376,87.0 -66.841792,-0.254304,87.0 -66.841804,-0.254274,84.0 -66.841805,-0.254232,85.0 -66.841781,-0.254166,85.0 -66.841777,-0.254125,84.0 -66.841789,-0.254092,81.0 -66.841835,-0.254054,80.2 -66.841848,-0.254026,79.0 -66.841879,-0.254022,79.0 -66.841926,-0.253973,80.0 -66.842,-0.25396,78.0 -66.841996,-0.25393,82.0 -66.841936,-0.253816,82.0 -66.841921,-0.253758,82.0 -66.841865,-0.253691,81.0 -66.841916,-0.253669,79.0 -66.841952,-0.253666,81.0 -66.841978,-0.253694,79.0 -66.84196,-0.253647,79.0 -66.842029,-0.253656,81.0 -66.842005,-0.253632,80.0 -66.842043,-0.253698,79.0 -66.842032,-0.253656,81.0 -66.842067,-0.253576,81.0 -66.842096,-0.253561,80.0 -66.842109,-0.253515,77.0 -66.842201,-0.253562,79.0 -66.842212,-0.253519,79.0 -66.842242,-0.253495,80.0 -66.842265,-0.253457,81.0 -66.842269,-0.253419,80.0 -66.842287,-0.253392,83.0 -66.842336,-0.253405,82.0 -66.842373,-0.253399,80.0 -66.842445,-0.253362,83.0 -66.842491,-0.253384,84.0 -66.842517,-0.253308,85.2 -66.8426,-0.253235,84.0 -66.842605,-0.253065,81.0 -66.842576,-0.252887,88.0 -66.842546,-0.252805,87.0 -66.842521,-0.252776,87.0 -66.842492,-0.252711,86.0 -66.84251,-0.252677,88.0 -66.842545,-0.252657,82.0 -66.842551,-0.252584,86.0 -66.842575,-0.25251,85.0 -66.842608,-0.252459,85.0 -66.842615,-0.252356,86.0 -66.842669,-0.252262,80.0 -66.842658,-0.252222,84.0 -66.842666,-0.252179,87.6 -66.842691,-0.25219,86.0 -66.842737,-0.252186,86.0 -66.842762,-0.252132,86.0 -66.842799,-0.252085,84.0 -66.842815,-0.251966,84.0 -66.842845,-0.251971,86.0 -66.842828,-0.25194,88.5 -66.842829,-0.25189,89.0 -66.842841,-0.251855,89.2 -66.84284,-0.251759,88.0 -66.84286,-0.251726,89.0 -66.842865,-0.251629,84.0 -66.842902,-0.2516,85.0 -66.842916,-0.251547,88.0 -66.842954,-0.25155,89.0 -66.842964,-0.251509,89.0 -66.843001,-0.251459,88.0 -66.843041,-0.251463,90.0 -66.843077,-0.251405,89.0 -66.843118,-0.25148,84.0 -66.843154,-0.25147,87.0 -66.843208,-0.251435,84.0 -66.84324,-0.25139,88.0 -66.843304,-0.251337,86.0 -66.843449,-0.25124,86.0 -66.843524,-0.251219,84.0 -66.843543,-0.251178,88.0 -66.843595,-0.251127,85.0 -66.843749,-0.251094,90.0 -66.843815,-0.251059,90.0 -66.843828,-0.251019,90.0 -66.843891,-0.250979,90.0 -66.843951,-0.250897,88.0 -66.844027,-0.2509,88.0 -66.844046,-0.250854,89.5</coordinates>
                </LineString>
                <LineString id="8">
                    <extrude>0</extrude>
                    <altitudeMode>clampToGround</altitudeMode>
                    <coordinates>-67.080103,-0.135708,69.6 -67.08008,-0.135699,68.4</coordinates>
                </LineString>
            </MultiGeometry>
        </Placemark>
    </Document>
</kml>
